name;startDate;url;artist;addressCountry;addressLocality;streetAddress;postalCode;coordinates
Alice in Chains @ Historic Crew Stadium;2025-05-11T00:00:00;https://www.bandsintown.com/e/105971661-alice-in-chains-at-historic-crew-stadium?came_from=209;Alice in Chains;United States;Columbus;1 Black and Gold Blvd;43211;(40.0095288, -82.99116219999999)
Alice in Chains @ Daytona International Speedway;2025-05-16T12:00:00;https://www.bandsintown.com/e/106140460-alice-in-chains-at-daytona-international-speedway?came_from=209;Alice in Chains;United States;Daytona Beach;1801 W International Speedway Blvd;32114;(29.191929, -81.067866)
Flume @ Finns Beach Club;2024-12-31T19:00:00;https://www.bandsintown.com/e/105901313-flume-at-finns-beach-club?came_from=209;Flume;Indonesia;Kabupaten Badung;Jl. Pantai Berawa;80361;(-8.6668925, 115.1396541)
Gojira @ Las Vegas Festival Grounds;2025-04-12T19:00:00;https://www.bandsintown.com/e/106051104-gojira-at-las-vegas-festival-grounds?came_from=209;Gojira;United States;Las Vegas;311 W Sahara Ave;89101;(36.1431237, -115.1621698)
Gojira @ Plateia Nerou;2025-07-19T12:00:00;https://www.bandsintown.com/e/106077066-gojira-at-plateia-nerou?came_from=209;Gojira;Greece;Kallithéa;Leof. Posidonos 2616;176 74;(38.39108, 22.14092)
Gojira @ Kucukciftlik Park;2025-07-22T19:00:00;https://www.bandsintown.com/e/106098703-gojira-at-kucukciftlik-park?came_from=209;Gojira;Turkey;İstanbul;Kad?rgalar Cad. No:4;34367;(41.0431996, 28.992764999999963)
Gojira @ SRC Šalata;2025-07-27T19:00:00;https://www.bandsintown.com/e/106098711-gojira-at-src-salata?came_from=209;Gojira;Croatia;Zagreb;Schlosserove stube 2;10000;(45.8157848, 15.984654800000044)
Gojira @ Festival de Carcassonne;2025-07-29T15:00:00;https://www.bandsintown.com/e/105975539-gojira-at-festival-de-carcassonne?came_from=209;Gojira;France;Carcassonne;;;(43.21351, 2.35162)
Gojira @ Rockstadt Extreme Fest;2025-07-30T19:00:00;https://www.bandsintown.com/e/105862720-gojira-at-rockstadt-extreme-fest?came_from=209;Gojira;Romania;Braşov;;;(45.64861, 25.60613)
Gojira @ Wacken Open Air;2025-07-30T19:00:00;https://www.bandsintown.com/e/105819877-gojira-at-wacken-open-air?came_from=209;Gojira;Germany;Wacken;Norderstraße;25596;(54.02078, 9.37597)
Gojira @ Grote Kaai;2025-08-05T00:00:00;https://www.bandsintown.com/e/106129671-gojira-at-grote-kaai?came_from=209;Gojira;Belgium;Lokeren;;9160;(51.10364, 3.99339)
Gojira @ Fortress Josefov - Underground Passages;2025-08-06T19:00:00;https://www.bandsintown.com/e/105862785-gojira-at-fortress-josefov-underground-passages?came_from=209;Gojira;Czech Republic;Jaroměř;Okružní 34;551 02;(50.3384288, 15.924991399999954)
Gojira @ Catton Hall & Park;2025-08-07T19:00:00;https://www.bandsintown.com/e/105862793-gojira-at-catton-hall-and-park?came_from=209;Gojira;United Kingdom;Walton On Trent;Catton Hall, Catton Park;DE12 8LN;(52.735304, -1.6956709999999475)
Gojira @ Turbinenhalle;2025-08-12T19:00:00;https://www.bandsintown.com/e/106098746-gojira-at-turbinenhalle?came_from=209;Gojira;Germany;Oberhausen;Lipperstrasse 21;46047;(51.46945, 6.855075)
Gojira @ Summer Breeze Open Air;2025-08-13T19:00:00;https://www.bandsintown.com/e/105862803-gojira-at-summer-breeze-open-air?came_from=209;Gojira;Germany;Dinkelsbühl;Flugplatzstra;91550;(49.06942, 10.31985)
Gojira @ Reload Festival;2025-08-14T19:00:00;https://www.bandsintown.com/e/105862825-gojira-at-reload-festival?came_from=209;Gojira;Germany;Sulingen;Rudolf Diesel Str. 5;27232;(52.67130520000001, 8.814739399999999)
Gojira @ IJssportcentrum Eindhoven;2025-08-15T19:00:00;https://www.bandsintown.com/e/106083471-gojira-at-ijssportcentrum-eindhoven?came_from=209;Gojira;Netherlands;Eindhoven;Antoon Coolenlaan 3;5644 RX;(51.415686, 5.471841)
Gojira @ Tauron Arena;2025-08-19T19:00:00;https://www.bandsintown.com/e/106098757-gojira-at-tauron-arena?came_from=209;Gojira;Poland;Krakau;Stanisława Lema 7;31-571;(50.0676558, 19.990720699999997)
Gojira @ Lukiškių kalėjimas 2.0;2025-08-21T19:00:00;https://www.bandsintown.com/e/106098764-gojira-at-lukiskiu-kalejimas-2.0?came_from=209;Gojira;Lithuania;Vilnius;Lukiškių skg. 6;01108;(54.6921057, 25.2672526)
Gojira @ Barba Negra;2025-08-23T19:00:00;https://www.bandsintown.com/e/106098791-gojira-at-barba-negra?came_from=209;Gojira;Hungary;Budapest;Szállító utca 3;1211;(47.4415899, 19.0745851)
Gojira @ ReimsArena;2025-11-27T19:00:00;https://www.bandsintown.com/e/105975077-gojira-at-reimsarena?came_from=209;Gojira;France;Reims;51100 Reims;51100;(49.2641861, 4.0317953)
Gojira @ Zénith de Lille;2025-11-28T19:00:00;https://www.bandsintown.com/e/105975081-gojira-at-zenith-de-lille?came_from=209;Gojira;France;Lille;1 Boulevard des Cités Unies;59777;(50.6314472, 3.0786093)
Gojira @ Bercy Accor Arena;2025-11-30T19:00:00;https://www.bandsintown.com/e/105975084-gojira-at-bercy-accor-arena?came_from=209;Gojira;France;Paris;8 Boulevard de Bercy;75012;(48.85341, 2.3488)
Gojira @ Zénith de Rouen;2025-12-01T19:00:00;https://www.bandsintown.com/e/105975085-gojira-at-zenith-de-rouen?came_from=209;Gojira;France;Rouen;44 Avenue des Canadiens;76120;(49.44313, 1.09932)
Gojira @ Zenith Nantes Metropole;2025-12-02T19:00:00;https://www.bandsintown.com/e/105975088-gojira-at-zenith-nantes-metropole?came_from=209;Gojira;France;Saint-herblain;Blvd du Zenith;44821;(47.228098, -1.624281)
Gojira @ Zénith de Toulouse;2025-12-04T19:00:00;https://www.bandsintown.com/e/105975090-gojira-at-zenith-de-toulouse?came_from=209;Gojira;France;Toulouse;11 Avenue Raymond Badiou;31300;(43.599234, 1.409866)
Gojira @ Zénith de Clermont-Ferrand;2025-12-05T19:00:00;https://www.bandsintown.com/e/105975091-gojira-at-zenith-de-clermont-ferrand?came_from=209;Gojira;France;Clermont-ferrand;;;(45.77969, 3.08682)
Gojira @ Dome marseille;2025-12-06T19:00:00;https://www.bandsintown.com/e/105975096-gojira-at-dome-marseille?came_from=209;Gojira;France;Marseille;Saint-Just;13013;(43.3163472, 5.4070849)
Gojira @ Palais Nikaïa;2025-12-08T19:00:00;https://www.bandsintown.com/e/105975100-gojira-at-palais-nikaia?came_from=209;Gojira;France;Nice;163 boulevard du Mercantour;06200;(43.6785088, 7.1990566)
Gojira @ Arkéa Arena;2025-12-09T19:00:00;https://www.bandsintown.com/e/105975104-gojira-at-arkea-arena?came_from=209;Gojira;France;Bordeaux;48-50 Av. Jean Alfonséa;33270;(44.84044, -0.5805)
Gojira @ LDLC Arena;2025-12-10T19:00:00;https://www.bandsintown.com/e/105975111-gojira-at-ldlc-arena?came_from=209;Gojira;France;Lyon;5 ave Simone Veil, Décines;69150;(45.7686571, 4.9786199)
Gojira @ Zenith of Strasbourg;2025-12-12T19:00:00;https://www.bandsintown.com/e/105975113-gojira-at-zenith-of-strasbourg?came_from=209;Gojira;France;Strasbourg;1 allée du Zénith;67000;(48.5833333, 7.75)
Jon Hopkins @ Aviva Studios;2024-12-07T20:00:00;https://www.bandsintown.com/e/1033381387-jon-hopkins-at-aviva-studios?came_from=209;Jon Hopkins;United Kingdom;Manchester;Water St;M3 4JQ;(53.47831289999999, -2.258052299999999)
Slowdive @ Stage AE;2024-11-21T19:00:00;https://www.bandsintown.com/e/105777424-slowdive-at-stage-ae?came_from=209;Slowdive;United States;Pittsburgh;400 N Shore Dr;15212;(40.4461361, -80.0122828)
Slowdive @ KEMBA Live!;2024-11-22T19:00:00;https://www.bandsintown.com/e/105777432-slowdive-at-kemba-live!?came_from=209;Slowdive;United States;Columbus;405 Neil Ave;43215;(39.9697662, -83.0098644)
Slowdive @ Royal Oak Music Theatre;2024-11-23T19:00:00;https://www.bandsintown.com/e/105777445-slowdive-at-royal-oak-music-theatre?came_from=209;Slowdive;United States;Royal Oak;318 W 4th St;48067;(42.4876937, -83.1474533)
Slowdive @ Massey Hall;2025-01-25T19:00:00;https://www.bandsintown.com/e/106155107-slowdive-at-massey-hall?came_from=209;Slowdive;Canada;Toronto;178 Victoria St;M5B 1T7;(43.6540326, -79.3789669)
Slowdive @ Bronson Centre;2025-01-26T19:00:00;https://www.bandsintown.com/e/106155100-slowdive-at-bronson-centre?came_from=209;Slowdive;Canada;Ottawa;211 Bronson Ave;K1R 6H5;(45.4134296, -75.7064693)
Slowdive @ L'Olympia;2025-01-28T19:00:00;https://www.bandsintown.com/e/106155104-slowdive-at-l'olympia?came_from=209;Slowdive;Canada;Montréal;1004 Rue Sainte-Catherine E;H2L 2G2;(45.5170568, -73.55711099999999)
Slowdive @ Higher Ground;2025-01-30T19:00:00;https://www.bandsintown.com/e/106155103-slowdive-at-higher-ground?came_from=209;Slowdive;United States;South Burlington;1214 Williston Rd;05403;(44.4687924, -73.1756237)
Slowdive @ Massachusetts Museum of Contemporary Art (MASS MoCA);2025-01-31T19:00:00;https://www.bandsintown.com/e/106155106-slowdive-at-massachusetts-museum-of-contemporary-art-(mass-moca)?came_from=209;Slowdive;United States;North Adams;;;(42.70092, -73.10871)
Slowdive @ State Theatre;2025-02-01T19:00:00;https://www.bandsintown.com/e/106155102-slowdive-at-state-theatre?came_from=209;Slowdive;United States;Portland;609 Congress St #200;04101;(43.6539816, -70.2636836)
Slowdive @ Roadrunner;2025-02-02T13:45:00;https://www.bandsintown.com/e/1033078220-slowdive-at-roadrunner?came_from=209;Slowdive;United States;Boston;89 Guest St;02135;(42.3569653, -71.144877)
Slowdive @ College Street Music Hall;2025-02-04T19:00:00;https://www.bandsintown.com/e/106155101-slowdive-at-college-street-music-hall?came_from=209;Slowdive;United States;New Haven;238 College St;06510;(41.3065499, -72.9293734)
Slowdive @ Starland Ballroom;2025-02-05T19:00:00;https://www.bandsintown.com/e/106155108-slowdive-at-starland-ballroom?came_from=209;Slowdive;United States;Sayreville;570 Jernee Mill Road;08872;(40.44041, -74.355218)
Slowdive @ The Capitol Theatre;2025-02-07T19:00:00;https://www.bandsintown.com/e/106155105-slowdive-at-the-capitol-theatre?came_from=209;Slowdive;United States;Port Chester;149 Westchester Ave;10573;(41.0014218, -73.6654946)
Slowdive @ O2 Academy Brixton;2025-04-10T19:30:00;https://www.bandsintown.com/e/105933851-slowdive-at-o2-academy-brixton?came_from=209;Slowdive;United Kingdom;London;211 Stockwell Road;SW9 9SL;(51.4656337, -0.1149728)
Dream Theater @ Liederhalle;2024-11-20T19:00:00;https://www.bandsintown.com/e/105391539-dream-theater-at-liederhalle?came_from=209;Dream Theater;Germany;Stuttgart;Berliner Pl 1-3;70174;(48.779032, 9.167714)
Dream Theater @ Jahrhunderthalle;2024-11-21T19:00:00;https://www.bandsintown.com/e/105391542-dream-theater-at-jahrhunderthalle?came_from=209;Dream Theater;Germany;Frankfurt Am Main;Pfaffenwiese 301;65929;(50.099487, 8.518822)
Dream Theater @ adidas arena;2024-11-23T19:00:00;https://www.bandsintown.com/e/105391547-dream-theater-at-adidas-arena?came_from=209;Dream Theater;France;Paris;56 Bd Ney;75018;(48.8993191, 2.35987)
Dream Theater @ AFAS Live;2024-11-24T19:00:00;https://www.bandsintown.com/e/105391553-dream-theater-at-afas-live?came_from=209;Dream Theater;Netherlands;Amsterdam;Johan Cruijff Boulevard 590;1101 DS;(52.3123229, 4.9446128)
Dream Theater @ Vivo Rio;2024-12-13T19:00:00;https://www.bandsintown.com/e/105529482-dream-theater-at-vivo-rio?came_from=209;Dream Theater;Brazil;Rio De Janeiro;Av. Infante Dom Henrique, 85;20021-140;(-22.9133842, -43.1713757)
Dream Theater @ Vibra São Paulo;2024-12-15T19:00:00;https://www.bandsintown.com/e/105529486-dream-theater-at-vibra-sao-paulo?came_from=209;Dream Theater;Brazil;São Paulo;Av das Nações Unidas, 17955 - Vila Almeida;04795-100;(-23.6476721, -46.72381350000001)
Dream Theater @ Live Curitiba;2024-12-16T19:00:00;https://www.bandsintown.com/e/105529493-dream-theater-at-live-curitiba?came_from=209;Dream Theater;Brazil;Curitiba;R Itajubá 143 - Novo Mundo;81050-040;(-25.481637, -49.2938254)
Dream Theater @ Araújo Vianna Auditorium;2024-12-17T19:00:00;https://www.bandsintown.com/e/105741376-dream-theater-at-araujo-vianna-auditorium?came_from=209;Dream Theater;Brazil;Porto Alegre;Av Osvaldo Aranha 685 - Parque Farroupilha;90035-191;(-30.0356256, -51.214258400000006)
Dream Theater @ Movistar Arena;2024-12-22T20:00:00;https://www.bandsintown.com/e/1032114629-dream-theater-at-movistar-arena?came_from=209;Dream Theater;Chile;Santiago;Beaucheff 1204;;(-33.4625726, -70.661695)
Dream Theater @ Opera Leśna;2025-06-23T20:00:00;https://www.bandsintown.com/e/1033444147-dream-theater-at-opera-lesna?came_from=209;Dream Theater;Poland;Sopot;ul. Stanisława Moniuszki 12;81-829;(54.4418, 18.56003)
Dream Theater @ Tons of Rock;2025-06-25T12:00:00;https://www.bandsintown.com/e/1033516167-dream-theater-at-tons-of-rock?came_from=209;Dream Theater;Norway;Oslo;;;(59.91273, 10.74609)
Mastodon @ Roundhouse;2024-12-03T19:00:00;https://www.bandsintown.com/e/106084108-mastodon-at-roundhouse?came_from=209;Mastodon;Australia;Sydney;University of New South Wales;2052;(-33.9165029, 151.2273804)
Mastodon @ Northcote Theatre;2024-12-04T19:00:00;https://www.bandsintown.com/e/106084110-mastodon-at-northcote-theatre?came_from=209;Mastodon;Australia;Northcote;216 High St;3070;(-37.7737671, 144.9985775)
Mastodon @ Flemington Racecourse;2024-12-06T19:00:00;https://www.bandsintown.com/e/105884915-mastodon-at-flemington-racecourse?came_from=209;Mastodon;Australia;Melbourne;448 Epsom Rd;3031;(-37.79097, 144.91189099999997)
Mastodon @ Centennial Parklands;2024-12-07T19:00:00;https://www.bandsintown.com/e/105884911-mastodon-at-centennial-parklands?came_from=209;Mastodon;Australia;Centennial Park;Grand Dr;2021;(-33.90160900000001, 151.2429763)
Mastodon @ Brisbane Showgrounds;2024-12-08T19:00:00;https://www.bandsintown.com/e/105884918-mastodon-at-brisbane-showgrounds?came_from=209;Mastodon;Australia;Brisbane;600 Gregory Terrace;4006;(-27.4503048, 153.0327621)
Mastodon @ The Venue at Horseshoe Casino;2024-12-28T20:00:00;https://www.bandsintown.com/e/1033091844-mastodon-at-the-venue-at-horseshoe-casino?came_from=209;Mastodon;United States;Hammond;777 Casino Center Dr;46320;(41.6943426, -87.5069676)
Mastodon @ Hard rock punta cana;2025-03-07T19:00:00;https://www.bandsintown.com/e/106083431-mastodon-at-hard-rock-punta-cana?came_from=209;Mastodon;Dominican Republic;Punta Cana;Punta Cana 23000;23000;(18.5600761, -68.372535)
Mastodon @ Las Vegas Festival Grounds;2025-04-12T19:00:00;https://www.bandsintown.com/e/106051162-mastodon-at-las-vegas-festival-grounds?came_from=209;Mastodon;United States;Las Vegas;311 W Sahara Ave;89101;(36.1431237, -115.1621698)
Mastodon @ Historic Crew Stadium;2025-05-09T00:00:00;https://www.bandsintown.com/e/106076644-mastodon-at-historic-crew-stadium?came_from=209;Mastodon;United States;Columbus;1 Black and Gold Blvd;43211;(40.0095288, -82.99116219999999)
Mastodon @ Daytona International Speedway;2025-05-17T12:00:00;https://www.bandsintown.com/e/106140122-mastodon-at-daytona-international-speedway?came_from=209;Mastodon;United States;Daytona Beach;1801 W International Speedway Blvd;32114;(29.191929, -81.067866)
Mastodon @ Rockstadt Extreme Fest;2025-07-30T10:00:00;https://www.bandsintown.com/e/106083882-mastodon-at-rockstadt-extreme-fest?came_from=209;Mastodon;Romania;Braşov;;;(45.64861, 25.60613)
Mastodon @ Fortress Josefov - Underground Passages;2025-08-06T19:00:00;https://www.bandsintown.com/e/106094822-mastodon-at-fortress-josefov-underground-passages?came_from=209;Mastodon;Czech Republic;Jaroměř;Okružní 34;551 02;(50.3384288, 15.924991399999954)
Mastodon @ Catton Hall & Park;2025-08-07T19:00:00;https://www.bandsintown.com/e/106076684-mastodon-at-catton-hall-and-park?came_from=209;Mastodon;United Kingdom;Walton On Trent;Catton Hall, Catton Park;DE12 8LN;(52.735304, -1.6956709999999475)
Mastodon @ Alcatraz Metal Festival;2025-08-08T19:00:00;https://www.bandsintown.com/e/106111288-mastodon-at-alcatraz-metal-festival?came_from=209;Mastodon;Belgium;Kortrijk;Bad Godesberglaan 22;8500;(50.8065476, 3.301275)
Mastodon @ IJssportcentrum Eindhoven;2025-08-15T10:00:00;https://www.bandsintown.com/e/106083433-mastodon-at-ijssportcentrum-eindhoven?came_from=209;Mastodon;Netherlands;Eindhoven;Antoon Coolenlaan 3;5644 RX;(51.415686, 5.471841)
Nils Frahm @ East Perth Power Station;2025-02-26T19:00:00;https://www.bandsintown.com/e/1033489970-nils-frahm-at-east-perth-power-station?came_from=209;Nils Frahm;Australia;East Perth;11 Summers St;6004;(-31.95872, 115.87109)
Nils Frahm @ Queensland Performing Arts Centre (QPAC);2025-03-02T20:00:00;https://www.bandsintown.com/e/1033354199-nils-frahm-at-queensland-performing-arts-centre-(qpac)?came_from=209;Nils Frahm;Australia;Brisbane;Cnr Grey and Melbourne St;4101;(-27.4742755, 153.0193023)
Nils Frahm @ Sydney Opera House;2025-03-05T20:00:00;https://www.bandsintown.com/e/106092986-nils-frahm-at-sydney-opera-house?came_from=209;Nils Frahm;Australia;Sydney;Bennelong Point;2000;(-33.8567844, 151.2152967)
Nils Frahm @ Sydney Opera House;2025-03-07T20:00:00;https://www.bandsintown.com/e/106092990-nils-frahm-at-sydney-opera-house?came_from=209;Nils Frahm;Australia;Sydney;Bennelong Point;2000;(-33.8567844, 151.2152967)
Nils Frahm @ WOMADelaide;2025-03-09T18:00:00;https://www.bandsintown.com/e/106093000-nils-frahm-at-womadelaide?came_from=209;Nils Frahm;Australia;Adelaide;Botanic Park;5000;(-34.915864, 138.6126255)
Nils Frahm @ Odeon Theatre;2025-03-12T19:30:00;https://www.bandsintown.com/e/106093010-nils-frahm-at-odeon-theatre?came_from=209;Nils Frahm;Australia;Hobart;167 Liverpool St;7000;(-42.8830616, 147.3246948)
Nils Frahm @ Hamer Hall;2025-03-14T19:30:00;https://www.bandsintown.com/e/106093020-nils-frahm-at-hamer-hall?came_from=209;Nils Frahm;Australia;Melbourne;100 St Kilda Rd;3004;(-37.8200888, 144.9681294)
Nils Frahm @ Hamer Hall;2025-03-15T19:30:00;https://www.bandsintown.com/e/106093023-nils-frahm-at-hamer-hall?came_from=209;Nils Frahm;Australia;Melbourne;100 St Kilda Rd;3004;(-37.8200888, 144.9681294)
Nils Frahm @ The Music Center at Strathmore;2025-05-08T20:00:00;https://www.bandsintown.com/e/1032612347-nils-frahm-at-the-music-center-at-strathmore?came_from=209;Nils Frahm;United States;North Bethesda;5301 Tuckerman Ln;20852;(39.0314872, -77.1032704)
Nils Frahm @ Kings Theatre;2025-05-09T20:00:00;https://www.bandsintown.com/e/106094624-nils-frahm-at-kings-theatre?came_from=209;Nils Frahm;United States;Brooklyn;1027 Flatbush Ave;11226;(40.6459919, -73.9572931)
Nils Frahm @ MTELUS;2025-05-10T20:00:00;https://www.bandsintown.com/e/106094639-nils-frahm-at-mtelus?came_from=209;Nils Frahm;Canada;Montreal;59 Rue St Catherine Est;H2X 1K5;(45.510579, -73.5633769)
Nils Frahm @ MTELUS;2025-05-11T20:00:00;https://www.bandsintown.com/e/106094634-nils-frahm-at-mtelus?came_from=209;Nils Frahm;Canada;Montreal;59 Rue St Catherine Est;H2X 1K5;(45.510579, -73.5633769)
Nils Frahm @ Massey Hall;2025-05-13T20:00:00;https://www.bandsintown.com/e/106094645-nils-frahm-at-massey-hall?came_from=209;Nils Frahm;Canada;Toronto;178 Victoria St;M5B 1T7;(43.6540326, -79.3789669)
Nils Frahm @ The Salt Shed;2025-05-14T20:00:00;https://www.bandsintown.com/e/106094654-nils-frahm-at-the-salt-shed?came_from=209;Nils Frahm;United States;Chicago;1357 N Elston Ave;60642;(41.9064774, -87.65940049999999)
Nils Frahm @ Paramount;2025-05-16T20:00:00;https://www.bandsintown.com/e/106094660-nils-frahm-at-paramount?came_from=209;Nils Frahm;United States;Denver;1635 Glenarm Pl;80202;(39.74425799999999, -104.9901355)
Nils Frahm @ The United Theater on Broadway;2025-05-18T20:00:00;https://www.bandsintown.com/e/106094664-nils-frahm-at-the-united-theater-on-broadway?came_from=209;Nils Frahm;United States;Los Angeles;929 S Broadway;90015;(34.0419807, -118.2569961)
Nils Frahm @ Fox Theater;2025-05-19T20:00:00;https://www.bandsintown.com/e/106094670-nils-frahm-at-fox-theater?came_from=209;Nils Frahm;United States;Oakland;1807 Telegraph Ave;94612;(37.8080184, -122.2703407)
Nils Frahm @ Arlene Schnitzer Concert Hall;2025-05-20T20:00:00;https://www.bandsintown.com/e/106094672-nils-frahm-at-arlene-schnitzer-concert-hall?came_from=209;Nils Frahm;United States;Portland;1037 SW Broadway;97205;(45.5171922, -122.6815297)
Nils Frahm @ Paramount Theatre;2025-05-21T20:00:00;https://www.bandsintown.com/e/106094675-nils-frahm-at-paramount-theatre?came_from=209;Nils Frahm;United States;Seattle;911 Pine St;98101;(47.61352429999999, -122.331514)
Nils Frahm @ The Centre For Performing Arts;2025-05-22T20:00:00;https://www.bandsintown.com/e/106094704-nils-frahm-at-the-centre-for-performing-arts?came_from=209;Nils Frahm;Canada;Vancouver;777 Homer St;V6B 0H3;(49.28002650000001, -123.11659099999997)
Arca @ Victoria Park;2025-06-07T14:00:00;https://www.bandsintown.com/e/1033384188-arca-at-victoria-park?came_from=209;Arca;United Kingdom;London;Grove Rd;E3 5TB;(51.5365614, -0.038972)
Opeth @ Helsinki Ice Hall;2025-02-09T19:00:00;https://www.bandsintown.com/e/105812005-opeth-at-helsinki-ice-hall?came_from=209;Opeth;Finland;Helsinki;Nordenskiöldinkatu 11-13;00250;(60.1892751, 24.922511499999928)
Opeth @ Cirkus;2025-02-11T19:00:00;https://www.bandsintown.com/e/105812009-opeth-at-cirkus?came_from=209;Opeth;Sweden;Stockholm;Djurgårdsslätten 43-45;115 21;(59.32462690000001, 18.0995865)
Opeth @ Sentrum Scene;2025-02-12T19:00:00;https://www.bandsintown.com/e/105812011-opeth-at-sentrum-scene?came_from=209;Opeth;Norway;Oslo;Arbeidersamfunnets plass 1;0181;(59.9155312, 10.7518778)
Opeth @ DR Koncerthuset;2025-02-14T19:00:00;https://www.bandsintown.com/e/105812013-opeth-at-dr-koncerthuset?came_from=209;Opeth;Denmark;København S;Ørestads Blvd. 13;2300;(55.6578246, 12.5888904)
Opeth @ Docks;2025-02-15T19:00:00;https://www.bandsintown.com/e/105812012-opeth-at-docks?came_from=209;Opeth;Germany;Hamburg;Spielbudenplatz 19;20359;(53.5492917, 9.964537199999995)
Opeth @ Palladium Köln;2025-02-17T19:00:00;https://www.bandsintown.com/e/105812015-opeth-at-palladium-koln?came_from=209;Opeth;Germany;Köln;Schanzenstraße 40;51063;(50.9692286, 7.016989199999999)
Opeth @ Tempodrom;2025-02-18T19:00:00;https://www.bandsintown.com/e/105812018-opeth-at-tempodrom?came_from=209;Opeth;Germany;Berlin;Möckernstraße 10;10963;(52.50162599999999, 13.381228)
Opeth @ Muffathalle;2025-02-19T19:00:00;https://www.bandsintown.com/e/105812020-opeth-at-muffathalle?came_from=209;Opeth;Germany;München;Zellstraße 4;81667;(48.1331043, 11.589557)
Opeth @ L’Olympia;2025-02-21T19:00:00;https://www.bandsintown.com/e/105812021-opeth-at-l'olympia?came_from=209;Opeth;France;Paris;28 Boulevard des Capucines;75009;(48.870161, 2.3283163)
Opeth @ AFAS Live;2025-02-22T19:00:00;https://www.bandsintown.com/e/105812022-opeth-at-afas-live?came_from=209;Opeth;Netherlands;Amsterdam;Johan Cruijff Boulevard 590;1101 DS;(52.3123229, 4.9446128)
Opeth @ Ancienne Belgique;2025-02-23T19:00:00;https://www.bandsintown.com/e/105812023-opeth-at-ancienne-belgique?came_from=209;Opeth;Belgium;Bruxelles;Blvd Anspach 110;1000;(50.8472409, 4.3488349)
Opeth @ Bristol Beacon;2025-02-25T19:00:00;https://www.bandsintown.com/e/105834159-opeth-at-bristol-beacon?came_from=209;Opeth;United Kingdom;Bristol;Trenchard St;BS1 5AR;(51.454493, -2.5982703)
Opeth @ Roundhouse;2025-02-26T19:00:00;https://www.bandsintown.com/e/105834171-opeth-at-roundhouse?came_from=209;Opeth;United Kingdom;London;Chalk Farm Rd;NW1 8EH;(51.5432545, -0.151869)
Opeth @ Symphony Hall;2025-02-28T19:00:00;https://www.bandsintown.com/e/105834191-opeth-at-symphony-hall?came_from=209;Opeth;United Kingdom;Birmingham;Broad St;B1 2EA;(52.4785639, -1.9101092)
Opeth @ Albert Hall;2025-03-01T19:00:00;https://www.bandsintown.com/e/105834182-opeth-at-albert-hall?came_from=209;Opeth;United Kingdom;Manchester;27 Peter St.;M2 5QR;(53.4782808, -2.2479352)
Opeth @ Barrowland Ballroom;2025-03-02T19:00:00;https://www.bandsintown.com/e/105834186-opeth-at-barrowland-ballroom?came_from=209;Opeth;United Kingdom;Glasgow;244 Gallowgate;G4 0TT;(55.855355, -4.236961)
Opeth @ Movistar Arena;2025-04-23T19:00:00;https://www.bandsintown.com/e/106134003-opeth-at-movistar-arena?came_from=209;Opeth;Chile;Santiago;Beaucheff 1204;;(-33.4625726, -70.661695)
Opeth @ Coliseo Medplus Bogotá;2025-04-30T19:00:00;https://www.bandsintown.com/e/106133709-opeth-at-coliseo-medplus-bogota?came_from=209;Opeth;Colombia;Bogotá;Bogotá;250017;(4.738900799999999, -74.1334771)
Opeth @ Arena CDMX;2025-05-04T19:00:00;https://www.bandsintown.com/e/106133692-opeth-at-arena-cdmx?came_from=209;Opeth;Mexico;Ciudad De México;Avenida de las Granjas 800;02230;(19.49772, -99.17513799999999)
Opeth @ Gdansk Shipyard;2025-06-04T19:00:00;https://www.bandsintown.com/e/106161723-opeth-at-gdansk-shipyard?came_from=209;Opeth;Poland;Gdańsk;Wyspa Spichrzów;22-100;(54.3705753, 18.6547768)
Opeth @ Sweden Rock Festival;2025-06-04T19:00:00;https://www.bandsintown.com/e/106079294-opeth-at-sweden-rock-festival?came_from=209;Opeth;Sweden;Sölvesborg;Norjebokevägen 2;294 76;(56.11690410000001, 14.6771836)
Opeth @ Auckland Town Hall;2025-11-14T19:00:00;https://www.bandsintown.com/e/106129793-opeth-at-auckland-town-hall?came_from=209;Opeth;New Zealand;Auckland;Queen St;1010;(-36.8508999, 174.7645171)
Opeth @ Sydney Opera House;2025-11-17T19:00:00;https://www.bandsintown.com/e/106129795-opeth-at-sydney-opera-house?came_from=209;Opeth;Australia;Sydney;Bennelong Point;2000;(-33.8567844, 151.2152967)
Opeth @ Sydney Opera House;2025-11-18T19:00:00;https://www.bandsintown.com/e/106129797-opeth-at-sydney-opera-house?came_from=209;Opeth;Australia;Sydney;Bennelong Point;2000;(-33.8567844, 151.2152967)
Opeth @ The Fortitude Music Hall;2025-11-20T19:00:00;https://www.bandsintown.com/e/106129800-opeth-at-the-fortitude-music-hall?came_from=209;Opeth;Australia;Brisbane;312-318 Brunswick Street;4006;(-27.4577936, 153.034627)
Opeth @ Palais Theatre;2025-11-21T19:00:00;https://www.bandsintown.com/e/106129803-opeth-at-palais-theatre?came_from=209;Opeth;Australia;St Kilda;Cnr Lower Esplanade and Cavell Street;3182;(-37.8675881, 144.9760459)
Opeth @ Hindley Street Music Hall;2025-11-22T19:00:00;https://www.bandsintown.com/e/106129807-opeth-at-hindley-street-music-hall?came_from=209;Opeth;Australia;Adelaide;149 Hindley Street;5000;(-34.92342, 138.5939274)
Opeth @ The Astor Theatre;2025-11-24T19:00:00;https://www.bandsintown.com/e/106129810-opeth-at-the-astor-theatre?came_from=209;Opeth;Australia;Perth;659 Beaufort St;6050;(-31.934086, 115.872059)
SAN HOLO @ Hi!lns;2024-11-30T23:30:00;https://www.bandsintown.com/e/106158631-san-holo-at-hi!lns?came_from=209;SAN HOLO;China;Shanghai;;;(31.22222, 121.45806)
SAN HOLO @ Bangkok International Trade & Exhibition Centre: BITEC;2024-12-06T19:00:00;https://www.bandsintown.com/e/106093846-san-holo-at-bangkok-international-trade-and-exhibition-centre:-bitec?came_from=209;SAN HOLO;Thailand;Bang Na;88 Debaratna Rd;10260;(13.67252, 100.62089)
SAN HOLO @ JIExpo Kemayoran;2024-12-13T19:00:00;https://www.bandsintown.com/e/105863783-san-holo-at-jiexpo-kemayoran?came_from=209;SAN HOLO;Indonesia;Kota Jakarta Pusat;Jl. Rajawali Selatan Raya No.25;10720;(-6.1461185, 106.8430245)
SAN HOLO @ Zouk Tokyo;2024-12-14T21:00:00;https://www.bandsintown.com/e/106093921-san-holo-at-zouk-tokyo?came_from=209;SAN HOLO;Japan;Chuo City;7-chōme-2-18 Ginza;104-0061;(35.6707477, 139.7600117)
SAN HOLO @ Pennsylvania Convention Center;2024-12-27T19:00:00;https://www.bandsintown.com/e/105935405-san-holo-at-pennsylvania-convention-center?came_from=209;SAN HOLO;United States;Philadelphia;1101 Arch St;19107;(39.9549028, -75.15998189999999)
SAN HOLO @ Mystic lake;2024-12-31T21:00:00;https://www.bandsintown.com/e/1033372336-san-holo-at-mystic-lake?came_from=209;SAN HOLO;United States;Prior Lake;2400 Mystic Lake Blvd NW;55372;(44.7324406, -93.4749257)
SAN HOLO @ Fox Theater;2025-01-10T19:00:00;https://www.bandsintown.com/e/105976601-san-holo-at-fox-theater?came_from=209;SAN HOLO;United States;Oakland;1807 Telegraph Ave;94612;(37.8080184, -122.2703407)
SAN HOLO @ Hollywood Palladium;2025-01-11T19:00:00;https://www.bandsintown.com/e/105976603-san-holo-at-hollywood-palladium?came_from=209;SAN HOLO;United States;Los Angeles;6215 W Sunset Blvd;90028;(34.09855400000001, -118.32425469999998)
SAN HOLO @ The Salt Shed;2025-01-17T19:00:00;https://www.bandsintown.com/e/105976604-san-holo-at-the-salt-shed?came_from=209;SAN HOLO;United States;Chicago;1357 N Elston Ave;60642;(41.9064774, -87.65940049999999)
SAN HOLO @ Brooklyn Paramount;2025-01-18T19:00:00;https://www.bandsintown.com/e/105976602-san-holo-at-brooklyn-paramount?came_from=209;SAN HOLO;United States;Brooklyn;385 Flatbush Ave. Extension;11201;(40.6900766, -73.9810749)
SAN HOLO @ Mission Ballroom;2025-02-20T19:00:00;https://www.bandsintown.com/e/106088992-san-holo-at-mission-ballroom?came_from=209;SAN HOLO;United States;Denver;4242 Wynkoop St,;80216;(39.776204, -104.969168)
SAN HOLO @ Hipodromo De San Isidro;2025-03-21T19:00:00;https://www.bandsintown.com/e/105911231-san-holo-at-hipodromo-de-san-isidro?came_from=209;SAN HOLO;Argentina;San Isidro;Av. Márquez 700;B1642;(-34.4796505, -58.5223294)
SAN HOLO @ Parque Bicentenario Cerrillos;2025-03-21T19:00:00;https://www.bandsintown.com/e/105911235-san-holo-at-parque-bicentenario-cerrillos?came_from=209;SAN HOLO;Chile;Santiago;Av. Pedro Aguirre Cerda;;(-33.45694, -70.64827)
SAN HOLO @ Autódromo José Carlos Pace;2025-03-28T19:00:00;https://www.bandsintown.com/e/105911239-san-holo-at-autodromo-jose-carlos-pace?came_from=209;SAN HOLO;Brazil;São Paulo;Av. Sen. Teotonio Vilela, 261 - Interlagos;04801-010;(-23.704761, -46.69923)
Kamasi Washington @ Port Everglades - Celebrity Summit;2025-02-04T17:00:00;https://www.bandsintown.com/e/105796170-kamasi-washington-at-port-everglades-celebrity-summit?came_from=209;Kamasi Washington;United States;Fort Lauderdale;;;(26.12231, -80.14338)
Kamasi Washington @ Fållan;2025-03-12T20:00:00;https://www.bandsintown.com/e/105423997-kamasi-washington-at-fallan?came_from=209;Kamasi Washington;Sweden;Johanneshov;Fållan 10;121 62;(59.29259090000001, 18.0777691)
Kamasi Washington @ Moriska Paviljongen;2025-03-14T20:00:00;https://www.bandsintown.com/e/105424010-kamasi-washington-at-moriska-paviljongen?came_from=209;Kamasi Washington;Sweden;Malmö;Norra Parkgatan 2;214 22;(55.593867, 13.013551)
Kamasi Washington @ The Norwegian Opera and Ballet;2025-03-15T20:00:00;https://www.bandsintown.com/e/105424016-kamasi-washington-at-the-norwegian-opera-and-ballet?came_from=209;Kamasi Washington;Norway;Oslo;0150 Oslo;0150;(59.9080464, 10.7519338)
Kamasi Washington @ Theater des Westens;2025-03-17T20:00:00;https://www.bandsintown.com/e/105423983-kamasi-washington-at-theater-des-westens?came_from=209;Kamasi Washington;Germany;Berlin;Kantstraße 12;10623;(52.5056903, 13.3290618)
Kamasi Washington @ Sono Centrum;2025-03-18T20:30:00;https://www.bandsintown.com/e/105423938-kamasi-washington-at-sono-centrum?came_from=209;Kamasi Washington;Czech Republic;Brno;Veveří 113;616 00;(49.2094821, 16.5887017)
Kamasi Washington @ Klub Stodoła;2025-03-19T20:00:00;https://www.bandsintown.com/e/105423891-kamasi-washington-at-klub-stodola?came_from=209;Kamasi Washington;Poland;Warszawa;ul. Stefana Batorego 10;02-591;(52.211588, 21.010216)
Kamasi Washington @ Theaterfabrik;2025-03-21T21:00:00;https://www.bandsintown.com/e/105423946-kamasi-washington-at-theaterfabrik?came_from=209;Kamasi Washington;Germany;München;Musenbergstraße 40;81929;(48.173838, 11.6472858)
Kamasi Washington @ Barcelona Jazz Festival At Razzmataz;2025-03-23T20:30:00;https://www.bandsintown.com/e/105423762-kamasi-washington-at-barcelona-jazz-festival-at-razzmataz?came_from=209;Kamasi Washington;Spain;Eixample;Carrer dels Almogàvers, 122;08018;(41.38896, 2.16179)
Kamasi Washington @ Sala La Riviera;2025-03-24T21:00:00;https://www.bandsintown.com/e/105423781-kamasi-washington-at-sala-la-riviera?came_from=209;Kamasi Washington;Spain;Madrid;Paseo Bajo de la Virgen del Puerto;28005;(40.4129999, -3.7221514)
Kamasi Washington @ Hard Club;2025-03-25T21:00:00;https://www.bandsintown.com/e/105423816-kamasi-washington-at-hard-club?came_from=209;Kamasi Washington;Portugal;Porto;Praça do Infante D. Henrique;4050;(41.1419143, -8.614886199999999)
Kamasi Washington @ Coliseu dos Recreios;2025-03-26T20:00:00;https://www.bandsintown.com/e/105423807-kamasi-washington-at-coliseu-dos-recreios?came_from=209;Kamasi Washington;Portugal;Lisboa;Rua das Portas de Santo Antao 96;1150-269;(38.71648434, -9.14069124)
Kamasi Washington @ Le Rocher de Palmer;2025-03-28T20:30:00;https://www.bandsintown.com/e/105423823-kamasi-washington-at-le-rocher-de-palmer?came_from=209;Kamasi Washington;France;Cenon;1 Rue Aristide Briand;33152;(44.861115, -0.52383)
Kamasi Washington @ X-TRA;2025-03-30T21:00:00;https://www.bandsintown.com/e/105423869-kamasi-washington-at-x-tra?came_from=209;Kamasi Washington;Switzerland;Zurich;Limmatstrasse 118;8005;(47.38406080000001, 8.533056100000001)
Kamasi Washington @ Les Docks;2025-03-31T19:00:00;https://www.bandsintown.com/e/105423878-kamasi-washington-at-les-docks?came_from=209;Kamasi Washington;Switzerland;Lausanne;Avenue de Sévelin 34;1004;(46.522407, 6.619251999999999)
Kamasi Washington @ Salle Pleyel;2025-04-01T20:00:00;https://www.bandsintown.com/e/105423826-kamasi-washington-at-salle-pleyel?came_from=209;Kamasi Washington;France;Paris;252 Rue du Faubourg Saint-Honoré;75008;(48.8770037, 2.3010508)
Kamasi Washington @ The Great Hall, Cardiff Uni Students Union;2025-04-03T20:00:00;https://www.bandsintown.com/e/105423843-kamasi-washington-at-the-great-hall-cardiff-uni-students-union?came_from=209;Kamasi Washington;United Kingdom;Cardiff;Senghennydd Road 1st floor;CF10;(51.4886899, -3.1774087)
Kamasi Washington @ Albert Hall;2025-04-04T20:00:00;https://www.bandsintown.com/e/105423834-kamasi-washington-at-albert-hall?came_from=209;Kamasi Washington;United Kingdom;Manchester;27 Peter St.;M2 5QR;(53.4782808, -2.2479352)
Kamasi Washington @ The Glasshouse;2025-04-05T19:30:00;https://www.bandsintown.com/e/105423847-kamasi-washington-at-the-glasshouse?came_from=209;Kamasi Washington;United Kingdom;Gateshead;St Mary's Square;NE8 2JR;(54.9677847, -1.602003)
Kamasi Washington @ Barrowland Ballroom;2025-04-06T20:00:00;https://www.bandsintown.com/e/105423858-kamasi-washington-at-barrowland-ballroom?came_from=209;Kamasi Washington;United Kingdom;Glasgow;244 Gallowgate;G4 0TT;(55.855355, -4.236961)
Kamasi Washington @ 3Olympia Theatre;2025-04-08T20:00:00;https://www.bandsintown.com/e/105423865-kamasi-washington-at-3olympia-theatre?came_from=209;Kamasi Washington;Ireland;Dublin;72 Dame St;D02 K135;(53.3442915, -6.2660677)
Kamasi Washington @ Cork Opera House;2025-04-09T19:00:00;https://www.bandsintown.com/e/105592651-kamasi-washington-at-cork-opera-house?came_from=209;Kamasi Washington;Ireland;Cork;Emmet Place;-;(51.9002594, -8.472874100000013)
Kamasi Washington @ Project House;2025-04-11T19:00:00;https://www.bandsintown.com/e/105423851-kamasi-washington-at-project-house?came_from=209;Kamasi Washington;United Kingdom;Leeds;Armley Rd;LS12 2DR;(53.7956309, -1.5662789)
Kamasi Washington @ O2 Academy Brixton;2025-04-13T20:00:00;https://www.bandsintown.com/e/105423837-kamasi-washington-at-o2-academy-brixton?came_from=209;Kamasi Washington;United Kingdom;London;211 Stockwell Road;SW9 9SL;(51.4656337, -0.1149728)
Kamasi Washington @ Chalk;2025-04-14T19:00:00;https://www.bandsintown.com/e/105556588-kamasi-washington-at-chalk?came_from=209;Kamasi Washington;United Kingdom;Brighton;10 Pool Valley;BN1 1NJ;(50.8200045, -0.1384128)
Kamasi Washington @ BOZAR;2025-04-15T20:00:00;https://www.bandsintown.com/e/105423867-kamasi-washington-at-bozar?came_from=209;Kamasi Washington;Belgium;Bruxelles;Rue Ravenstein 23;1000;(50.84408759999999, 4.359579)
Kamasi Washington @ Carlswerk;2025-04-17T20:00:00;https://www.bandsintown.com/e/105423955-kamasi-washington-at-carlswerk?came_from=209;Kamasi Washington;Germany;Köln;Schanzenstraße 6-20;51063;(50.9665127, 7.0131747)
Kamasi Washington @ Batschkapp;2025-04-19T20:00:00;https://www.bandsintown.com/e/105962750-kamasi-washington-at-batschkapp?came_from=209;Kamasi Washington;Germany;Frankfurt Am Main;Gwinnerstraße 5;60388;(50.135439, 8.739144)
Kamasi Washington @ Paradiso;2025-04-20T20:00:00;https://www.bandsintown.com/e/105423965-kamasi-washington-at-paradiso?came_from=209;Kamasi Washington;Netherlands;Amsterdam;Weteringschans 6-8;1017 SG;(52.3621619, 4.8838059)
Kamasi Washington @ Alcatraz;2025-04-22T20:00:00;https://www.bandsintown.com/e/105423751-kamasi-washington-at-alcatraz?came_from=209;Kamasi Washington;Italy;Milan;Via Valtellina 25;20159;(45.494689, 9.182657999999947)
Kamasi Washington @ Auditorium Parco della Musica;2025-04-23T21:00:00;https://www.bandsintown.com/e/105423742-kamasi-washington-at-auditorium-parco-della-musica?came_from=209;Kamasi Washington;Italy;Roma;30 Viale De Coubertin Pietro;00196;(41.9291165, 12.4751908)
Kamasi Washington @ Estragon;2025-04-24T20:00:00;https://www.bandsintown.com/e/105423883-kamasi-washington-at-estragon?came_from=209;Kamasi Washington;Italy;Bologna;83 Via Stalingrado;40128;(44.52369, 11.3690083)
Kamasi Washington @ De Oosterpoort;2025-04-26T20:00:00;https://www.bandsintown.com/e/105440486-kamasi-washington-at-de-oosterpoort?came_from=209;Kamasi Washington;Netherlands;Da Groningen;Trompsingel 27;9724;(53.213947, 6.576351499999987)
Kamasi Washington @ TivoliVredenburg;2025-04-27T20:00:00;https://www.bandsintown.com/e/105423976-kamasi-washington-at-tivolivredenburg?came_from=209;Kamasi Washington;Netherlands;Utrecht;Vredenburgkade 11;3511 WC;(52.0924298, 5.1128171)
Kamasi Washington @ CT Theater- Athens, Greece;2025-04-29T18:00:00;https://www.bandsintown.com/e/105627589-kamasi-washington-at-ct-theater-athens-greece?came_from=209;Kamasi Washington;Greece;Athens;;105 58;(37.98376, 23.72784)
Meshuggah @ Las Vegas Festival Grounds;2025-04-12T11:00:00;https://www.bandsintown.com/e/1033275078-meshuggah-at-las-vegas-festival-grounds?came_from=209;Meshuggah;United States;Las Vegas;311 W Sahara Ave;89101;(36.1431237, -115.1621698)
Meshuggah @ Sweden Rock Festival;2025-06-04T19:00:00;https://www.bandsintown.com/e/106061243-meshuggah-at-sweden-rock-festival?came_from=209;Meshuggah;Sweden;Sölvesborg;Norjebokevägen 2;294 76;(56.11690410000001, 14.6771836)
Meshuggah @ Gashouder Maastricht;2025-06-07T19:00:00;https://www.bandsintown.com/e/105934365-meshuggah-at-gashouder-maastricht?came_from=209;Meshuggah;Netherlands;Maastricht;-14;6219 PD;(50.8569636, 5.6833075)
Meshuggah @ Tons Of Rock;2025-06-27T12:00:00;https://www.bandsintown.com/e/1033290039-meshuggah-at-tons-of-rock?came_from=209;Meshuggah;Norway;Oslo;Ekebergveien 70;1181;(59.91273, 10.74609)
Have a Nice Life @ Trinity St. Pauls, Lee's Palace, 918 Bathurst, The Cave;2025-05-30T17:00:00;https://www.bandsintown.com/e/1033382113-have-a-nice-life-at-trinity-st.-pauls-lee's-palace-918-bathurst-the-cave?came_from=209;Have a Nice Life;Canada;Downtown Toronto;Toronto, Ontario, Canada;;(43.65011, -79.3829)
Periphery @ Alexandra Palace;2025-02-13T19:00:00;https://www.bandsintown.com/e/105889497-periphery-at-alexandra-palace?came_from=209;Periphery;United Kingdom;London;Alexandra Palace Way;N22 7AY;(51.5941783, -0.1307733)
Periphery @ Columbiahalle;2025-02-15T19:00:00;https://www.bandsintown.com/e/105775185-periphery-at-columbiahalle?came_from=209;Periphery;Germany;Berlin;Columbiadamm 13-21;10965;(52.484701, 13.392532)
Periphery @ Poppodium 013;2025-02-16T19:00:00;https://www.bandsintown.com/e/105775270-periphery-at-poppodium-013?came_from=209;Periphery;Netherlands;Tilburg;Veemarktstraat 44;5038;(51.55786519999999, 5.0928438)
Periphery @ L’Olympia;2025-02-18T19:00:00;https://www.bandsintown.com/e/105775292-periphery-at-l'olympia?came_from=209;Periphery;France;Paris;28 Boulevard des Capucines;75009;(48.870161, 2.3283163)
Periphery @ Palladium Köln;2025-02-19T19:00:00;https://www.bandsintown.com/e/105775302-periphery-at-palladium-koln?came_from=209;Periphery;Germany;Köln;Schanzenstraße 40;51063;(50.9692286, 7.016989199999999)
Periphery @ Zoom Frankfurt;2025-02-20T19:00:00;https://www.bandsintown.com/e/105775311-periphery-at-zoom-frankfurt?came_from=209;Periphery;Germany;Frankfurt;Carl-Benz-Strasse 21;60386;(50.1214604, 8.7506187)
Periphery @ TONHALLE;2025-02-22T19:00:00;https://www.bandsintown.com/e/105775316-periphery-at-tonhalle?came_from=209;Periphery;Germany;Munich;Grafinger Strasse 6;81671;(48.125651, 11.606347)
Periphery @ Grosse Freiheit 36;2025-02-23T19:00:00;https://www.bandsintown.com/e/105775320-periphery-at-grosse-freiheit-36?came_from=209;Periphery;Germany;Hamburg;Große Freiheit 36;22767;(53.5511169, 9.958216600000002)
Dimmu Borgir @ Tons of Rock;2025-06-27T12:00:00;https://www.bandsintown.com/e/1033290105-dimmu-borgir-at-tons-of-rock?came_from=209;Dimmu Borgir;Norway;Oslo;;;(59.91273, 10.74609)
Leprous @ The Music Station;2025-01-16T18:30:00;https://www.bandsintown.com/e/105700227-leprous-at-the-music-station?came_from=209;Leprous;Spain;Madrid;Cta. de San Vicente;28008;(40.4209448, -3.7189793)
Leprous @ Salle Pleyel;2025-01-17T18:30:00;https://www.bandsintown.com/e/105700234-leprous-at-salle-pleyel?came_from=209;Leprous;France;Paris;252 Rue du Faubourg Saint-Honoré;75008;(48.8770037, 2.3010508)
Leprous @ O2 Forum Kentish Town;2025-01-31T19:00:00;https://www.bandsintown.com/e/1032326303-leprous-at-o2-forum-kentish-town?came_from=209;Leprous;United Kingdom;London;9-17 Highgate Rd Kentish Town;NW5 1JY;(51.55219700000001, -0.141969)
Leprous @ Progresja;2025-02-01T18:30:00;https://www.bandsintown.com/e/105700241-leprous-at-progresja?came_from=209;Leprous;Poland;Warsaw;Fort Wola 22;01-258;(52.2247192, 20.9283017)
Leprous @ Poppodium 013;2025-02-07T18:30:00;https://www.bandsintown.com/e/105700248-leprous-at-poppodium-013?came_from=209;Leprous;Netherlands;Tilburg;Veemarktstraat 44;5038;(51.55786519999999, 5.0928438)
Leprous @ Carlswerk Victoria;2025-02-08T20:00:00;https://www.bandsintown.com/e/1032329488-leprous-at-carlswerk-victoria?came_from=209;Leprous;Germany;Köln;Schanzenstraße 6-20 Gebäude 3.12;51063;(50.9650717, 7.0121199)
Leprous @ Sentrum Scene;2025-02-15T19:00:00;https://www.bandsintown.com/e/1032013692-leprous-at-sentrum-scene?came_from=209;Leprous;Norway;Oslo;Arbeidersamfunnets plass 1;0181;(59.9155312, 10.7518778)
Leprous @ C3 Stage;2025-03-04T19:00:00;https://www.bandsintown.com/e/106109876-leprous-at-c3-stage?came_from=209;Leprous;Mexico;Guadalajara;Av Ignacio L Vallarta 1488;44160;(20.67465, -103.36935)
Leprous @ Cafe Iguana;2025-03-05T19:00:00;https://www.bandsintown.com/e/106109878-leprous-at-cafe-iguana?came_from=209;Leprous;Mexico;Monterrey;Diego de Montemayor No 927;64000;(25.6667127, -100.3073648)
Leprous @ Auditorio BB;2025-03-06T19:00:00;https://www.bandsintown.com/e/106109881-leprous-at-auditorio-bb?came_from=209;Leprous;Mexico;Mexico City;Tlaxcala #160, Hipódromo Condesa;06100;(19.4067195, -99.1687752)
Leprous @ Pepper Disco Club;2025-03-08T19:00:00;https://www.bandsintown.com/e/106109883-leprous-at-pepper-disco-club?came_from=209;Leprous;Costa Rica;Zapote;San José Province;11801;(9.9181042, -84.04904169999999)
Leprous @ Auditorio CEG;2025-03-09T19:00:00;https://www.bandsintown.com/e/106109888-leprous-at-auditorio-ceg?came_from=209;Leprous;Colombia;Bogotá;Av. Caracas #63 - 23;110211;(4.6504201, -74.0647959)
Leprous @ Mister Rock;2025-03-11T19:30:00;https://www.bandsintown.com/e/1033055983-leprous-at-mister-rock?came_from=209;Leprous;Brazil;Belo Horizonte;Avenida Tereza Cristina, 295 , Prado;30410-620;(-19.9191901, -43.9595131)
Leprous @ Tork n' Roll;2025-03-12T19:30:00;https://www.bandsintown.com/e/1033055176-leprous-at-tork-n'-roll?came_from=209;Leprous;Brazil;Curitiba;Avenida Marechal Floriano Peixoto 1695;82590-300;(-25.4444078, -49.2651271)
Leprous @ VIP Station;2025-03-13T19:30:00;https://www.bandsintown.com/e/1033055110-leprous-at-vip-station?came_from=209;Leprous;Brazil;São Paulo;Rua Gibraltar, 346 - Santo Amaro;04755-070;(-23.6481566, -46.7161613)
Leprous @ Centro Cultural Matucana 100;2025-03-15T19:00:00;https://www.bandsintown.com/e/106109892-leprous-at-centro-cultural-matucana-100?came_from=209;Leprous;Chile;Santiago;Matucana 100;;(-33.4448024, -70.67990540000001)
Leprous @ Teatro Flores;2025-03-16T19:00:00;https://www.bandsintown.com/e/106109896-leprous-at-teatro-flores?came_from=209;Leprous;Argentina;Lomas De Zamora;Av. Pres. Hipólito Yrigoyen 9061;;(-34.7611063, -58.40300269999999)
Leprous @ Jannus Live;2025-04-10T19:30:00;https://www.bandsintown.com/e/1033325706-leprous-at-jannus-live?came_from=209;Leprous;United States;St Petersburg;200 1st Ave N;33701-3310;(27.77190599999999, -82.63601299999999)
Leprous @ The Masquerade;2025-04-11T18:30:00;https://www.bandsintown.com/e/1033328437-leprous-at-the-masquerade?came_from=209;Leprous;United States;Atlanta;75 M.L.K. Jr Dr SW;30303;(33.748752, -84.38768449999999)
Leprous @ Bogart's;2025-04-12T18:30:00;https://www.bandsintown.com/e/1033328485-leprous-at-bogart's?came_from=209;Leprous;United States;Cincinnati;2621 Vine St;45219;(39.1299821, -84.5100266)
Leprous @ Delmar Hall;2025-04-13T19:30:00;https://www.bandsintown.com/e/1033338463-leprous-at-delmar-hall?came_from=209;Leprous;United States;Saint Louis;6133 Delmar Blvd;63112;(38.65553, -90.297191)
Leprous @ The Granada;2025-04-14T19:00:00;https://www.bandsintown.com/e/106082626-leprous-at-the-granada?came_from=209;Leprous;United States;Lawrence;1020 Massachusetts St;66044;(38.965134, -95.235774)
Leprous @ Boulder Theater;2025-04-15T19:30:00;https://www.bandsintown.com/e/1033325315-leprous-at-boulder-theater?came_from=209;Leprous;United States;Boulder;2032 14th St;80302;(40.0191929, -105.2774696)
Leprous @ Rialto Theatre;2025-04-17T19:30:00;https://www.bandsintown.com/e/1033328886-leprous-at-rialto-theatre?came_from=209;Leprous;United States;Tucson;318 E Congress St;85701;(32.2217216, -110.9664535)
Leprous @ The Regent Theater;2025-04-18T19:30:00;https://www.bandsintown.com/e/1033328785-leprous-at-the-regent-theater?came_from=209;Leprous;United States;Los Angeles;448 S Main St;90013;(34.04710430000001, -118.2479757)
Leprous @ Ace Of Spades;2025-04-19T18:30:00;https://www.bandsintown.com/e/1033328718-leprous-at-ace-of-spades?came_from=209;Leprous;United States;Sacramento;1417 R St;95811;(38.569935, -121.490905)
Leprous @ Wonder Ballroom;2025-04-21T20:00:00;https://www.bandsintown.com/e/1033328897-leprous-at-wonder-ballroom?came_from=209;Leprous;United States;Portland;128 NE Russell St;97212;(45.5407835, -122.6634794)
Leprous @ Neptune Theatre;2025-04-22T19:30:00;https://www.bandsintown.com/e/1033328875-leprous-at-neptune-theatre?came_from=209;Leprous;United States;Seattle;1303 NE 45th St;98105;(47.661301, -122.314125)
Leprous @ Vogue Theatre;2025-04-23T19:00:00;https://www.bandsintown.com/e/106082767-leprous-at-vogue-theatre?came_from=209;Leprous;Canada;Vancouver;918 Granville St;V6Z 1L2;(49.2798937, -123.1218082)
Leprous @ The Palace Theatre;2025-04-25T19:00:00;https://www.bandsintown.com/e/106082633-leprous-at-the-palace-theatre?came_from=209;Leprous;Canada;Calgary;219 8 Ave SW;T2P 7N2;(51.0455468, -114.0665009)
Leprous @ The Starlite Room;2025-04-26T18:30:00;https://www.bandsintown.com/e/1033341030-leprous-at-the-starlite-room?came_from=209;Leprous;Canada;Edmonton;10030 102 St NW;T5J 0V6;(53.539862, -113.49607700000001)
Leprous @ The Park Theatre;2025-04-28T19:00:00;https://www.bandsintown.com/e/106082638-leprous-at-the-park-theatre?came_from=209;Leprous;Canada;Winnipeg;698 Osborne St;R3L 2B9;(49.8621794, -97.13187359999999)
Leprous @ Turner Hall Ballroom;2025-04-30T19:30:00;https://www.bandsintown.com/e/1033325643-leprous-at-turner-hall-ballroom?came_from=209;Leprous;United States;Milwaukee;1040 Vel R. Phillips Ave;53203;(43.04388369999999, -87.91550219999999)
Leprous @ HI-FI Annex (behind HI-FI);2025-05-01T19:00:00;https://www.bandsintown.com/e/1033332412-leprous-at-hi-fi-annex-(behind-hi-fi)?came_from=209;Leprous;United States;Indianapolis;1067 St. Patrick St.;46203;(39.76838, -86.15804)
Leprous @ Arcada Theatre;2025-05-02T19:00:00;https://www.bandsintown.com/e/106082640-leprous-at-arcada-theatre?came_from=209;Leprous;United States;St Charles;105 E Main St;60174;(41.913746, -88.31221699999999)
Leprous @ Newport Music Hall;2025-05-03T19:30:00;https://www.bandsintown.com/e/1033325551-leprous-at-newport-music-hall?came_from=209;Leprous;United States;Columbus;1722 N High St;43201;(39.9974756, -83.0073587)
Leprous @ Bronson Centre;2025-05-05T19:00:00;https://www.bandsintown.com/e/106082643-leprous-at-bronson-centre?came_from=209;Leprous;Canada;Ottawa;211 Bronson Ave;K1R 6H5;(45.4134296, -75.7064693)
Leprous @ Théâtre Capitole;2025-05-06T19:30:00;https://www.bandsintown.com/e/1033332578-leprous-at-theatre-capitole?came_from=209;Leprous;Canada;Quebec;972 Rue St-Jean;G1R 1R5;(46.8128052, -71.21390389999999)
Leprous @ Théâtre Beanfield;2025-05-07T19:30:00;https://www.bandsintown.com/e/1033331153-leprous-at-theatre-beanfield?came_from=209;Leprous;Canada;Montréal;2490 Rue Notre-Dame Ouest;H3J 1N5;(45.4828571, -73.5750836)
Leprous @ Toad's Place;2025-05-08T19:00:00;https://www.bandsintown.com/e/106082646-leprous-at-toad's-place?came_from=209;Leprous;United States;New Haven;300 York St;06511;(41.3115533, -72.9295973)
Leprous @ The Vogel at Count Basie Center for the Arts;2025-05-09T19:30:00;https://www.bandsintown.com/e/1033328548-leprous-at-the-vogel-at-count-basie-center-for-the-arts?came_from=209;Leprous;United States;Red Bank;99 Monmouth St;07701;(40.3489306, -74.0702119)
Leprous @ Somerville Theatre;2025-05-10T19:30:00;https://www.bandsintown.com/e/1033328393-leprous-at-somerville-theatre?came_from=209;Leprous;United States;Somerville;55 Davis Square;02144;(42.3966407, -71.123001)
Leprous @ 9:30 Club;2025-05-12T18:30:00;https://www.bandsintown.com/e/1033328792-leprous-at-9:30-club?came_from=209;Leprous;United States;Washington;815 V St NW;20001;(38.9178952, -77.0237412)
Leprous @ Cat's Cradle;2025-05-13T19:00:00;https://www.bandsintown.com/e/106082651-leprous-at-cat's-cradle?came_from=209;Leprous;United States;Carrboro;300 E Main St;27510;(35.9101783, -79.0689052)
Plini @ House of Blues Cleveland;2024-11-20T19:00:00;https://www.bandsintown.com/e/1031778950-plini-at-house-of-blues-cleveland?came_from=209;Plini;United States;Cleveland;308 Euclid Ave;44114-2207;(41.499571, -81.690987)
Plini @ Bogart's;2024-11-21T19:00:00;https://www.bandsintown.com/e/1031778602-plini-at-bogart's?came_from=209;Plini;United States;Cincinnati;2621 Vine St;45219;(39.1299821, -84.5100266)
Plini @ The Orange Peel;2024-11-22T19:00:00;https://www.bandsintown.com/e/105482586-plini-at-the-orange-peel?came_from=209;Plini;United States;Asheville;101 Biltmore Ave;28801;(35.5914132, -82.55115269999999)
Plini @ The Masquerade;2024-11-23T19:00:00;https://www.bandsintown.com/e/1031780248-plini-at-the-masquerade?came_from=209;Plini;United States;Atlanta;75 M.L.K. Jr Dr SW;30303;(33.748752, -84.38768449999999)
Plini @ Jannus Live;2024-11-24T19:00:00;https://www.bandsintown.com/e/105482588-plini-at-jannus-live?came_from=209;Plini;United States;St Petersburg;200 1st Ave N;33701-3310;(27.77190599999999, -82.63601299999999)
Plini @ Granada Theater;2024-11-26T20:00:00;https://www.bandsintown.com/e/1031782666-plini-at-granada-theater?came_from=209;Plini;United States;Dallas;3524 Greenville Ave;75206;(32.8308267, -96.7697934)
Plini @ Emo's Austin;2024-11-27T19:00:00;https://www.bandsintown.com/e/1031780261-plini-at-emo's-austin?came_from=209;Plini;United States;Austin;2015 E Riverside Dr;78741;(30.2395789, -97.7280066)
Plini @ The Van Buren;2024-11-29T20:00:00;https://www.bandsintown.com/e/1031780289-plini-at-the-van-buren?came_from=209;Plini;United States;Phoenix;401 W Van Buren St;85003;(33.4512811, -112.0792443)
Plini @ The United Theater on Broadway;2024-11-30T20:00:00;https://www.bandsintown.com/e/1031776648-plini-at-the-united-theater-on-broadway?came_from=209;Plini;United States;Los Angeles;929 S Broadway;90015;(34.0419807, -118.2569961)
Chelsea Wolfe @ Cafe at the Somerville Armory;2024-12-04T20:00:00;https://www.bandsintown.com/e/1033031614-chelsea-wolfe-at-cafe-at-the-somerville-armory?came_from=209;Chelsea Wolfe;United States;Somerville;191 Highland Ave;02143;(42.3896048, -71.1060313)
Chelsea Wolfe @ First Unitarian Congregational Society in Brooklyn;2024-12-06T19:00:00;https://www.bandsintown.com/e/1033034894-chelsea-wolfe-at-first-unitarian-congregational-society-in-brooklyn?came_from=209;Chelsea Wolfe;United States;Brooklyn;119 Pierrepont St;11201;(40.695386, -73.99271759999999)
Chelsea Wolfe @ First Unitarian Church;2024-12-07T19:00:00;https://www.bandsintown.com/e/1033026445-chelsea-wolfe-at-first-unitarian-church?came_from=209;Chelsea Wolfe;United States;Philadelphia;2125 Chestnut St;19103;(39.9526873, -75.1764607)
Chelsea Wolfe @ First Unitarian Church;2024-12-09T19:00:00;https://www.bandsintown.com/e/1033237495-chelsea-wolfe-at-first-unitarian-church?came_from=209;Chelsea Wolfe;United States;Philadelphia;2125 Chestnut St;19103;(39.9526873, -75.1764607)
Chelsea Wolfe @ Rio Theatre;2024-12-12T20:00:00;https://www.bandsintown.com/e/1033051804-chelsea-wolfe-at-rio-theatre?came_from=209;Chelsea Wolfe;United States;Santa Cruz;1205 Soquel Ave;95062;(36.9799599, -122.01058639999997)
Chelsea Wolfe @ Forum Melbourne;2025-05-23T19:30:00;https://www.bandsintown.com/e/1033403058-chelsea-wolfe-at-forum-melbourne?came_from=209;Chelsea Wolfe;Australia;Melbourne;154 Flinders St;3000;(-37.8167058, 144.969293)
Chelsea Wolfe @ Metro Theatre;2025-05-24T20:00:00;https://www.bandsintown.com/e/1033402356-chelsea-wolfe-at-metro-theatre?came_from=209;Chelsea Wolfe;Australia;Sydney;624 George St;2000;(-33.8756438, 151.2066562)
Chelsea Wolfe @ The Tivoli;2025-05-25T19:00:00;https://www.bandsintown.com/e/1033409706-chelsea-wolfe-at-the-tivoli?came_from=209;Chelsea Wolfe;Australia;Brisbane;52 Costin St;4006;(-27.4521218, 153.0315037)
Chelsea Wolfe @ The Gov;2025-05-27T19:30:00;https://www.bandsintown.com/e/1033400392-chelsea-wolfe-at-the-gov?came_from=209;Chelsea Wolfe;Australia;Hindmarsh;59 Port Rd;5007;(-34.9069943, 138.5755659)
Chelsea Wolfe @ Meow Nui;2025-05-29T19:30:00;https://www.bandsintown.com/e/1033403050-chelsea-wolfe-at-meow-nui?came_from=209;Chelsea Wolfe;New Zealand;Wellington Central;92 Vivian Street Te Aro;6011;(-41.28755, 174.77523)
Animals as Leaders @ House of Blues Cleveland;2024-11-20T18:00:00;https://www.bandsintown.com/e/105473844-animals-as-leaders-at-house-of-blues-cleveland?came_from=209;Animals as Leaders;United States;Cleveland;308 Euclid Ave;44114-2207;(41.499571, -81.690987)
Animals as Leaders @ Bogart's;2024-11-21T18:00:00;https://www.bandsintown.com/e/105473864-animals-as-leaders-at-bogart's?came_from=209;Animals as Leaders;United States;Cincinnati;2621 Vine St;45219;(39.1299821, -84.5100266)
Animals as Leaders @ The Orange Peel;2024-11-22T18:00:00;https://www.bandsintown.com/e/105473863-animals-as-leaders-at-the-orange-peel?came_from=209;Animals as Leaders;United States;Asheville;101 Biltmore Ave;28801;(35.5914132, -82.55115269999999)
Animals as Leaders @ The Masquerade;2024-11-23T18:00:00;https://www.bandsintown.com/e/105473849-animals-as-leaders-at-the-masquerade?came_from=209;Animals as Leaders;United States;Atlanta;75 M.L.K. Jr Dr SW;30303;(33.748752, -84.38768449999999)
Animals as Leaders @ Jannus Live;2024-11-24T18:00:00;https://www.bandsintown.com/e/105473848-animals-as-leaders-at-jannus-live?came_from=209;Animals as Leaders;United States;St Petersburg;200 1st Ave N;33701-3310;(27.77190599999999, -82.63601299999999)
Animals as Leaders @ Granada Theater;2024-11-26T18:00:00;https://www.bandsintown.com/e/105473853-animals-as-leaders-at-granada-theater?came_from=209;Animals as Leaders;United States;Dallas;3524 Greenville Ave;75206;(32.8308267, -96.7697934)
Animals as Leaders @ Emo's Austin;2024-11-27T18:00:00;https://www.bandsintown.com/e/105473858-animals-as-leaders-at-emo's-austin?came_from=209;Animals as Leaders;United States;Austin;2015 E Riverside Dr;78741;(30.2395789, -97.7280066)
Animals as Leaders @ The Van Buren;2024-11-29T18:00:00;https://www.bandsintown.com/e/105473852-animals-as-leaders-at-the-van-buren?came_from=209;Animals as Leaders;United States;Phoenix;401 W Van Buren St;85003;(33.4512811, -112.0792443)
Animals as Leaders @ The United Theater on Broadway;2024-11-30T18:00:00;https://www.bandsintown.com/e/105473854-animals-as-leaders-at-the-united-theater-on-broadway?came_from=209;Animals as Leaders;United States;Los Angeles;929 S Broadway;90015;(34.0419807, -118.2569961)
Animals as Leaders @ Casino de Paris;2025-02-25T19:00:00;https://www.bandsintown.com/e/105846070-animals-as-leaders-at-casino-de-paris?came_from=209;Animals as Leaders;France;Paris;16 Rue de Clichy;75009;(48.87831480000001, 2.3301076)
Animals as Leaders @ AB;2025-02-26T19:00:00;https://www.bandsintown.com/e/105846165-animals-as-leaders-at-ab?came_from=209;Animals as Leaders;Belgium;Bruxelles;Rue du Champ de l'Eglise 69;1000;(50.875249, 4.353625)
Animals as Leaders @ Docks;2025-02-27T19:00:00;https://www.bandsintown.com/e/105846380-animals-as-leaders-at-docks?came_from=209;Animals as Leaders;Germany;Hamburg;Spielbudenplatz 19;20359;(53.5492917, 9.964537199999995)
Animals as Leaders @ Amager Bio;2025-02-28T19:00:00;https://www.bandsintown.com/e/105846405-animals-as-leaders-at-amager-bio?came_from=209;Animals as Leaders;Denmark;Copenhagen;Øresundsvej 6;2300;(55.6578522, 12.6093553)
Animals as Leaders @ Huxleys Neue Welt;2025-03-01T19:00:00;https://www.bandsintown.com/e/105846431-animals-as-leaders-at-huxleys-neue-welt?came_from=209;Animals as Leaders;Germany;Berlin;Hasenheide 107 - 113;10967;(52.4868532, 13.421381)
Animals as Leaders @ Täubchenthal;2025-03-02T19:00:00;https://www.bandsintown.com/e/105846456-animals-as-leaders-at-taubchenthal?came_from=209;Animals as Leaders;Germany;Leipzig;Wachsmuthstraße 1;04229;(51.324383, 12.330176)
Animals as Leaders @ ROXY Prague;2025-03-04T19:00:00;https://www.bandsintown.com/e/105846466-animals-as-leaders-at-roxy-prague?came_from=209;Animals as Leaders;Czech Republic;Prague;Dlouhá 33;110 000;(50.090689, 14.425874)
Animals as Leaders @ Simm City;2025-03-05T19:00:00;https://www.bandsintown.com/e/105846477-animals-as-leaders-at-simm-city?came_from=209;Animals as Leaders;Austria;Vienna;Simmeringer Hauptstraße 96a;1110;(48.1737542, 16.416332300000022)
Animals as Leaders @ Magazzini Generali;2025-03-06T19:00:00;https://www.bandsintown.com/e/105846491-animals-as-leaders-at-magazzini-generali?came_from=209;Animals as Leaders;Italy;Milan;14 Via Pietrasanta;20141;(45.4438616, 9.1963926)
Animals as Leaders @ Komplex;2025-03-07T19:00:00;https://www.bandsintown.com/e/105846512-animals-as-leaders-at-komplex?came_from=209;Animals as Leaders;Switzerland;Zurich;Hohlstrasse 45;8048;(47.3769331, 8.5271884)
Animals as Leaders @ Muffathalle;2025-03-09T19:00:00;https://www.bandsintown.com/e/105846520-animals-as-leaders-at-muffathalle?came_from=209;Animals as Leaders;Germany;München;Zellstraße 4;81667;(48.1331043, 11.589557)
Animals as Leaders @ Batschkapp;2025-03-10T19:00:00;https://www.bandsintown.com/e/105846534-animals-as-leaders-at-batschkapp?came_from=209;Animals as Leaders;Germany;Frankfurt Am Main;Gwinnerstraße 5;60388;(50.135439, 8.739144)
Animals as Leaders @ Carlswerk Victoria;2025-03-11T19:00:00;https://www.bandsintown.com/e/105846542-animals-as-leaders-at-carlswerk-victoria?came_from=209;Animals as Leaders;Germany;Köln;Schanzenstraße 6-20 Gebäude 3.12;51063;(50.9650717, 7.0121199)
Animals as Leaders @ 12;2025-03-12T19:00:00;https://www.bandsintown.com/e/105846553-animals-as-leaders-at-12?came_from=209;Animals as Leaders;Netherlands;Doorwerth;Valeriuslaan 17;6865 JA;(51.98196739999999, 5.7997977)
Animals as Leaders @ Albert Hall;2025-03-14T19:00:00;https://www.bandsintown.com/e/105846585-animals-as-leaders-at-albert-hall?came_from=209;Animals as Leaders;United Kingdom;Manchester;27 Peter St.;M2 5QR;(53.4782808, -2.2479352)
Animals as Leaders @ Roundhouse;2025-03-15T19:00:00;https://www.bandsintown.com/e/105846588-animals-as-leaders-at-roundhouse?came_from=209;Animals as Leaders;United Kingdom;London;Chalk Farm Rd;NW1 8EH;(51.5432545, -0.151869)
Intervals @ The Roxy;2025-03-06T18:00:00;https://www.bandsintown.com/e/106039133-intervals-at-the-roxy?came_from=209;Intervals;United States;Lakewood;13200 Madison Ave;44107;(41.4772019, -81.78108240000002)
Intervals @ Saint Andrew's Hall;2025-03-07T18:00:00;https://www.bandsintown.com/e/106039143-intervals-at-saint-andrew's-hall?came_from=209;Intervals;United States;Detroit;431 E Congress St;48226;(42.3322259, -83.04146469999999)
Intervals @ The KING of CLUBS;2025-03-08T18:00:00;https://www.bandsintown.com/e/106039146-intervals-at-the-king-of-clubs?came_from=209;Intervals;United States;Columbus;6252 Busch Blvd;43229;(40.0936654, -82.992195)
Intervals @ Thalia Hall;2025-03-09T18:00:00;https://www.bandsintown.com/e/106039139-intervals-at-thalia-hall?came_from=209;Intervals;United States;Chicago;1227 W 18th St;60608;(41.8577976, -87.6573556)
Intervals @ Gothic Theatre;2025-03-11T18:00:00;https://www.bandsintown.com/e/106039136-intervals-at-gothic-theatre?came_from=209;Intervals;United States;Englewood;3263 S Broadway;80113;(39.6576834, -104.9878406)
Intervals @ The Depot;2025-03-12T18:00:00;https://www.bandsintown.com/e/106039151-intervals-at-the-depot?came_from=209;Intervals;United States;Salt Lake City;400 WS Temple;84101;(40.769588, -111.90114)
Intervals @ August Hall;2025-03-14T18:00:00;https://www.bandsintown.com/e/106039148-intervals-at-august-hall?came_from=209;Intervals;United States;San Francisco;420 Mason St;94102;(37.7875662, -122.40959499999997)
Intervals @ The Bellwether;2025-03-15T18:00:00;https://www.bandsintown.com/e/106039132-intervals-at-the-bellwether?came_from=209;Intervals;United States;Los Angeles;333 S Boylston St;90017;(34.0563555, -118.2584132)
Intervals @ The Glass House;2025-03-16T18:00:00;https://www.bandsintown.com/e/106039147-intervals-at-the-glass-house?came_from=209;Intervals;United States;Pomona;200 W 2nd St;91766;(34.057709, -117.751363)
Intervals @ House of Blues San Diego;2025-03-17T18:00:00;https://www.bandsintown.com/e/106039134-intervals-at-house-of-blues-san-diego?came_from=209;Intervals;United States;San Diego;1055 5th Ave;92101;(32.7163773, -117.1596034)
Intervals @ The Nile Theater;2025-03-18T18:00:00;https://www.bandsintown.com/e/106039154-intervals-at-the-nile-theater?came_from=209;Intervals;United States;Mesa;105 W Main St;85201;(33.414927, -111.834439)
Intervals @ The Echo Lounge & Music Hall;2025-03-20T18:00:00;https://www.bandsintown.com/e/106039155-intervals-at-the-echo-lounge-and-music-hall?came_from=209;Intervals;United States;Dallas;1323 N Stemmons Fwy;75207;(32.7905621, -96.81445839999999)
Intervals @ Warehouse Live Midtown;2025-03-21T18:00:00;https://www.bandsintown.com/e/106039140-intervals-at-warehouse-live-midtown?came_from=209;Intervals;United States;Houston;2600 Travis St;77006;(29.7458262, -95.3753559)
Intervals @ Empire Control Room & Garage;2025-03-22T18:00:00;https://www.bandsintown.com/e/106039149-intervals-at-empire-control-room-and-garage?came_from=209;Intervals;United States;Austin;606 E 7th St;78701;(30.2674059, -97.73607009999999)
Intervals @ House of Blues Restaurant & Bar;2025-03-25T18:00:00;https://www.bandsintown.com/e/106039141-intervals-at-house-of-blues-restaurant-and-bar?came_from=209;Intervals;United States;Orlando;1490 E Buena Vista Dr;32830;(28.3710292, -81.521959)
Intervals @ The Orpheum;2025-03-26T18:00:00;https://www.bandsintown.com/e/106039153-intervals-at-the-orpheum?came_from=209;Intervals;United States;Tampa;14802 N Nebraska Ave;33613;(28.0832711, -82.451646)
Intervals @ The Masquerade;2025-03-27T18:00:00;https://www.bandsintown.com/e/106039135-intervals-at-the-masquerade?came_from=209;Intervals;United States;Atlanta;75 M.L.K. Jr Dr SW;30303;(33.748752, -84.38768449999999)
Intervals @ The Underground;2025-03-28T18:00:00;https://www.bandsintown.com/e/106039150-intervals-at-the-underground?came_from=209;Intervals;United States;Charlotte;820 Hamilton St;28206;(35.2397891, -80.84598)
Intervals @ The National;2025-03-29T18:00:00;https://www.bandsintown.com/e/106039137-intervals-at-the-national?came_from=209;Intervals;United States;Richmond;708 E Broad St;23219-1836;(37.5418426, -77.43524599999999)
Intervals @ Baltimore Soundstage;2025-03-30T18:00:00;https://www.bandsintown.com/e/106039138-intervals-at-baltimore-soundstage?came_from=209;Intervals;United States;Baltimore;124 Market Pl;21202;(39.2876463, -76.60706859999999)
Intervals @ Spirit Hall;2025-04-01T18:00:00;https://www.bandsintown.com/e/106039142-intervals-at-spirit-hall?came_from=209;Intervals;United States;Pittsburgh;242 51st St;15201;(40.4787071, -79.9564194)
Intervals @ Warsaw;2025-04-03T18:00:00;https://www.bandsintown.com/e/106039145-intervals-at-warsaw?came_from=209;Intervals;United States;Brooklyn;261 Driggs Ave;11222;(40.722392, -73.948408)
Intervals @ Paradise Rock Club;2025-04-04T18:00:00;https://www.bandsintown.com/e/106039144-intervals-at-paradise-rock-club?came_from=209;Intervals;United States;Boston;967 Commonwealth Ave;02215;(42.3521732, -71.11937560000001)
Intervals @ Union Transfer;2025-04-05T18:00:00;https://www.bandsintown.com/e/106039152-intervals-at-union-transfer?came_from=209;Intervals;United States;Philadelphia;1026 Spring Garden St;19123;(39.9613876, -75.1553236)
Intervals @ O2 Victoria Warehouse Manchester;2025-07-04T12:00:00;https://www.bandsintown.com/e/106143303-intervals-at-o2-victoria-warehouse-manchester?came_from=209;Intervals;United Kingdom;Manchester;Trafford Wharf Rd;M17 1AB;(53.4647063, -2.2866957)
Apparat @ The Cause;2024-11-29T22:00:00;https://www.bandsintown.com/e/1033000071-apparat-at-the-cause?came_from=209;Apparat;United Kingdom;North London;60 Dock Road;E16 1YZ;(51.55317, -0.12257)
Alcest @ Dürer Kert;2024-11-20T18:30:00;https://www.bandsintown.com/e/105313781-alcest-at-durer-kert?came_from=209;Alcest;Hungary;Budapest;Öböl u. 1.;1117;(47.459974, 19.0573121)
Alcest @ Roxy;2024-11-21T18:00:00;https://www.bandsintown.com/e/1031126203-alcest-at-roxy?came_from=209;Alcest;Czechia;Praha 1;Dlouhá 33;11000;(50.08802, 14.42166)
Alcest @ Festsaal Kreuzberg;2024-11-23T20:00:00;https://www.bandsintown.com/e/1031127917-alcest-at-festsaal-kreuzberg?came_from=209;Alcest;Germany;Berlin;Am Flutgraben 2;12435;(52.4969441, 13.4515658)
Alcest @ Proxima;2024-11-24T18:30:00;https://www.bandsintown.com/e/105313784-alcest-at-proxima?came_from=209;Alcest;Poland;Warsaw;Żwirki i Wigury 99A;02-089;(52.212567, 20.987187)
Alcest @ Art factory LOFTAS;2024-11-25T18:30:00;https://www.bandsintown.com/e/105313789-alcest-at-art-factory-loftas?came_from=209;Alcest;Lithuania;Vilnius;Švitrigailos g. 29;03209;(54.6709, 25.269289)
Alcest @ Paavli Kultuurivabrik;2024-11-26T18:30:00;https://www.bandsintown.com/e/105313793-alcest-at-paavli-kultuurivabrik?came_from=209;Alcest;Estonia;Tallinn;Paavli 7a;10412;(59.44751300000001, 24.7053406)
Alcest @ Helsinki Hall Of Culture;2024-11-27T18:30:00;https://www.bandsintown.com/e/105313796-alcest-at-helsinki-hall-of-culture?came_from=209;Alcest;Finland;Helsinki;Sturenkatu 4;00510;(60.1883401, 24.944287600000052)
Alcest @ Fryshuset;2024-11-29T18:30:00;https://www.bandsintown.com/e/105313802-alcest-at-fryshuset?came_from=209;Alcest;Sweden;Stockholm;Martendalsgatan 2-8;120 30;(59.300923, 18.090173)
Alcest @ Vulkan Arena;2024-11-30T20:00:00;https://www.bandsintown.com/e/1031127834-alcest-at-vulkan-arena?came_from=209;Alcest;Norway;Oslo;Vulkan 26;0175;(59.9222412, 10.7508392)
Alcest @ Vega;2024-12-01T20:00:00;https://www.bandsintown.com/e/1031126745-alcest-at-vega?came_from=209;Alcest;Denmark;København;Enghavevej 40;1674;(55.6679421, 12.5442758)
Alcest @ Gruenspan;2024-12-03T20:00:00;https://www.bandsintown.com/e/1031127186-alcest-at-gruenspan?came_from=209;Alcest;Germany;Hamburg;Große Freiheit 58;22767;(53.5518783, 9.958097799999999)
Alcest @ Paradiso;2024-12-04T18:30:00;https://www.bandsintown.com/e/105313804-alcest-at-paradiso?came_from=209;Alcest;Netherlands;Amsterdam;Weteringschans 6-8;1017 SG;(52.3621619, 4.8838059)
Alcest @ Ancienne Belgique;2024-12-05T19:00:00;https://www.bandsintown.com/e/1031182282-alcest-at-ancienne-belgique?came_from=209;Alcest;Belgium;Bruxelles;Blvd Anspach 110;1000;(50.8472409, 4.3488349)
Alcest @ L’Olympia;2024-12-06T20:00:00;https://www.bandsintown.com/e/1031122379-alcest-at-l'olympia?came_from=209;Alcest;France;Paris;28 Boulevard des Capucines;75009;(48.870161, 2.3283163)
Alcest @ den Atelier;2024-12-07T20:00:00;https://www.bandsintown.com/e/1031165201-alcest-at-den-atelier?came_from=209;Alcest;Luxembourg;Luxembourg-city;54 rue de Hollerich;1740;(49.5987389, 6.126133299999999)
Alcest @ Batschkapp;2024-12-08T20:00:00;https://www.bandsintown.com/e/1031127935-alcest-at-batschkapp?came_from=209;Alcest;Germany;Frankfurt Am Main;Gwinnerstraße 5;60388;(50.135439, 8.739144)
Alcest @ Electric Brixton;2024-12-11T19:00:00;https://www.bandsintown.com/e/1031122442-alcest-at-electric-brixton?came_from=209;Alcest;United Kingdom;London;1 Town Hall Parade;SW2 1RJ;(51.459846, -0.117044)
Alcest @ Manchester Academy 2;2024-12-12T19:30:00;https://www.bandsintown.com/e/1031122147-alcest-at-manchester-academy-2?came_from=209;Alcest;United Kingdom;Manchester;Oxford Rd;M13 9PR;(53.4636927, -2.2314603)
Alcest @ Glasgow garage;2024-12-13T18:30:00;https://www.bandsintown.com/e/1031122166-alcest-at-glasgow-garage?came_from=209;Alcest;United Kingdom;Glasgow;Sauchiehall St;G2 3LW;(55.8662046, -4.268552599999999)
Alcest @ The Academy;2024-12-14T18:00:00;https://www.bandsintown.com/e/1031127963-alcest-at-the-academy?came_from=209;Alcest;Ireland;Dublin 1;57 Middle Abbey St;D01 W573;(53.3480297, -6.2619981)
Alcest @ Royale;2025-02-19T19:30:00;https://www.bandsintown.com/e/1033026110-alcest-at-royale?came_from=209;Alcest;United States;Boston;279 Tremont St;02116;(42.3499921, -71.0655563)
Alcest @ Union Transfer;2025-02-20T19:30:00;https://www.bandsintown.com/e/1033025994-alcest-at-union-transfer?came_from=209;Alcest;United States;Philadelphia;1026 Spring Garden St;19123;(39.9613876, -75.1553236)
Alcest @ Baltimore Soundstage;2025-02-21T19:30:00;https://www.bandsintown.com/e/1033028288-alcest-at-baltimore-soundstage?came_from=209;Alcest;United States;Baltimore;124 Market Pl;21202;(39.2876463, -76.60706859999999)
Alcest @ The National;2025-02-22T20:00:00;https://www.bandsintown.com/e/1033025944-alcest-at-the-national?came_from=209;Alcest;United States;Richmond;708 E Broad St;23219-1836;(37.5418426, -77.43524599999999)
Alcest @ The Masquerade;2025-02-23T18:30:00;https://www.bandsintown.com/e/1033027988-alcest-at-the-masquerade?came_from=209;Alcest;United States;Atlanta;75 M.L.K. Jr Dr SW;30303;(33.748752, -84.38768449999999)
Alcest @ The Orpheum;2025-02-25T18:30:00;https://www.bandsintown.com/e/105962345-alcest-at-the-orpheum?came_from=209;Alcest;United States;Tampa;14802 N Nebraska Ave;33613;(28.0832711, -82.451646)
Alcest @ Warehouse Live Midtown;2025-02-27T19:30:00;https://www.bandsintown.com/e/1033026034-alcest-at-warehouse-live-midtown?came_from=209;Alcest;United States;Houston;2600 Travis St;77006;(29.7458262, -95.3753559)
Alcest @ Granada Theater;2025-02-28T19:30:00;https://www.bandsintown.com/e/1033066422-alcest-at-granada-theater?came_from=209;Alcest;United States;Dallas;3524 Greenville Ave;75206;(32.8308267, -96.7697934)
Alcest @ Empire Control Room & Garage;2025-03-01T19:30:00;https://www.bandsintown.com/e/1033026084-alcest-at-empire-control-room-and-garage?came_from=209;Alcest;United States;Austin;606 E 7th St;78701;(30.2674059, -97.73607009999999)
Alcest @ Crescent Ballroom;2025-03-03T19:30:00;https://www.bandsintown.com/e/1033025983-alcest-at-crescent-ballroom?came_from=209;Alcest;United States;Phoenix;308 N 2nd Ave;85003;(33.4517982, -112.0768576)
Alcest @ The Observatory North Park;2025-03-04T18:30:00;https://www.bandsintown.com/e/1033027869-alcest-at-the-observatory-north-park?came_from=209;Alcest;United States;San Diego;2891 University Ave;92104;(32.7484048, -117.1303048)
Alcest @ The Fonda Theatre;2025-03-05T20:30:00;https://www.bandsintown.com/e/1033031327-alcest-at-the-fonda-theatre?came_from=209;Alcest;United States;Los Angeles;6126 Hollywood Blvd;90028;(34.101486, -118.3232871)
Alcest @ Observatory;2025-03-06T18:30:00;https://www.bandsintown.com/e/1033027955-alcest-at-observatory?came_from=209;Alcest;United States;Santa Ana;3503 S Harbor Blvd;92704;(33.699631, -117.9177051)
Alcest @ The UC Theatre;2025-03-08T19:30:00;https://www.bandsintown.com/e/1033023642-alcest-at-the-uc-theatre?came_from=209;Alcest;United States;Berkeley;2036 University Ave;94704;(37.8718053, -122.2698086)
Alcest @ Neptune Theatre;2025-03-11T20:00:00;https://www.bandsintown.com/e/1033027980-alcest-at-neptune-theatre?came_from=209;Alcest;United States;Seattle;1303 NE 45th St;98105;(47.661301, -122.314125)
Alcest @ Summit Music Hall;2025-03-14T18:30:00;https://www.bandsintown.com/e/1033028504-alcest-at-summit-music-hall?came_from=209;Alcest;United States;Denver;1902 Blake St;80202;(39.7532404, -104.99510470000001)
Alcest @ Fine Line;2025-03-17T19:30:00;https://www.bandsintown.com/e/1033025992-alcest-at-fine-line?came_from=209;Alcest;United States;Minneapolis;318 N 1st Ave;55401;(44.9816667, -93.2722222)
Alcest @ Metro Chicago;2025-03-18T19:30:00;https://www.bandsintown.com/e/1033028041-alcest-at-metro-chicago?came_from=209;Alcest;United States;Chicago;3730 N Clark St;60613;(41.94981019999999, -87.65881189999999)
Alcest @ The Opera House;2025-03-21T18:30:00;https://www.bandsintown.com/e/1033028353-alcest-at-the-opera-house?came_from=209;Alcest;Canada;Toronto;735 Queen St E;M4M;(43.65900360000001, -79.34880250000003)
Alcest @ Théâtre Beanfield;2025-03-22T19:30:00;https://www.bandsintown.com/e/1033027814-alcest-at-theatre-beanfield?came_from=209;Alcest;Canada;Montréal;2490 Rue Notre-Dame Ouest;H3J 1N5;(45.4828571, -73.5750836)
Alcest @ Warsaw;2025-03-23T18:30:00;https://www.bandsintown.com/e/1033027753-alcest-at-warsaw?came_from=209;Alcest;United States;Brooklyn;261 Driggs Ave;11222;(40.722392, -73.948408)
Alcest @ Stadsweide;2025-06-06T18:00:00;https://www.bandsintown.com/e/1033445519-alcest-at-stadsweide?came_from=209;Alcest;Netherlands;Maastricht-airport;Stadsweide;6219PD;(50.92111, 5.7819)
Alcest @ Donington Park Circuit;2025-06-11T19:00:00;https://www.bandsintown.com/e/1033528432-alcest-at-donington-park-circuit?came_from=209;Alcest;United Kingdom;Derby;Castle Donington;DE74 2RP;(52.8305468, -1.378840299999979)
Alcest @ Donington Park Circuit;2025-06-13T12:00:00;https://www.bandsintown.com/e/1033501111-alcest-at-donington-park-circuit?came_from=209;Alcest;United Kingdom;Derby;Castle Donington;DE74 2RP;(52.8305468, -1.378840299999979)
Hiromi @ Toronto Centre for the Arts;2025-04-05T20:00:00;https://www.bandsintown.com/e/1033386013-hiromi-at-toronto-centre-for-the-arts?came_from=209;Hiromi;Canada;Toronto;5040 Yonge St;M2N 6R8;(43.7661379, -79.4142505)
Hiromi @ Moore Theatre;2025-04-13T19:30:00;https://www.bandsintown.com/e/1033209079-hiromi-at-moore-theatre?came_from=209;Hiromi;United States;Seattle;1932 2nd Ave;98101;(47.6118185, -122.34139060000001)
Hiromi @ Georg-Friedrich-Händel-Halle;2025-05-16T19:30:00;https://www.bandsintown.com/e/1033379806-hiromi-at-georg-friedrich-handel-halle?came_from=209;Hiromi;Germany;Halle;Salzgrafenpl. 1;06108;(51.48168, 11.964110900000037)
Hiromi @ Volkshaus Basel;2025-05-19T20:15:00;https://www.bandsintown.com/e/1031604733-hiromi-at-volkshaus-basel?came_from=209;Hiromi;Switzerland;Basel;Rebgasse 12-14;4058;(47.56117500000001, 7.59361899999999)
Hiromi @ Isarphilharmonie im Gasteig HP8;2025-05-23T20:00:00;https://www.bandsintown.com/e/1031914485-hiromi-at-isarphilharmonie-im-gasteig-hp8?came_from=209;Hiromi;Germany;München;Hans-Preißinger-Strasse 8;81379;(48.69668, 13.46314)
Hiromi @ Muziekgebouw Eindhoven;2025-11-07T20:15:00;https://www.bandsintown.com/e/1033559586-hiromi-at-muziekgebouw-eindhoven?came_from=209;Hiromi;Netherlands;Eindhoven;Heuvel 140;5611DK;(51.4388918, 5.4791956)
Delta Sleep @ The Fillmore Philadelphia;2024-11-21T19:00:00;https://www.bandsintown.com/e/105800010-delta-sleep-at-the-fillmore-philadelphia?came_from=209;Delta Sleep;United States;Philadelphia;29 E Allen St;19123;(39.9655615, -75.1350602)
Delta Sleep @ Black Cat;2024-11-22T19:00:00;https://www.bandsintown.com/e/105800016-delta-sleep-at-black-cat?came_from=209;Delta Sleep;United States;Washington;1811 14th St NW;20009;(38.9145828, -77.0317232)
Delta Sleep @ Music Hall of Williamsburg;2024-11-23T19:00:00;https://www.bandsintown.com/e/105800022-delta-sleep-at-music-hall-of-williamsburg?came_from=209;Delta Sleep;United States;Brooklyn;66 North 6th St;11211;(40.7191529, -73.96174719999999)
Delta Sleep @ Paradise Rock Club;2024-11-24T19:00:00;https://www.bandsintown.com/e/105800028-delta-sleep-at-paradise-rock-club?came_from=209;Delta Sleep;United States;Boston;967 Commonwealth Ave;02215;(42.3521732, -71.11937560000001)
Delta Sleep @ New Century Hall;2024-12-13T19:00:00;https://www.bandsintown.com/e/105509436-delta-sleep-at-new-century-hall?came_from=209;Delta Sleep;United Kingdom;Manchester;Mayes St;M60 4ES;(53.48710029999999, -2.2392352)
Delta Sleep @ Marble Factory;2024-12-14T19:00:00;https://www.bandsintown.com/e/105509452-delta-sleep-at-marble-factory?came_from=209;Delta Sleep;United Kingdom;Bristol;74-78 Avon Street;BS2 0PX;(51.44958270000001, -2.5760355)
Delta Sleep @ Electric Brixton;2024-12-15T19:00:00;https://www.bandsintown.com/e/105509459-delta-sleep-at-electric-brixton?came_from=209;Delta Sleep;United Kingdom;London;1 Town Hall Parade;SW2 1RJ;(51.459846, -0.117044)
Delta Sleep @ O2 Institute Birmingham;2024-12-16T19:00:00;https://www.bandsintown.com/e/105509465-delta-sleep-at-o2-institute-birmingham?came_from=209;Delta Sleep;United Kingdom;Birmingham;78 Digbeth;B5 6DY;(52.4755624, -1.8874443)
Delta Sleep @ Saint Luke's;2024-12-17T19:00:00;https://www.bandsintown.com/e/105509471-delta-sleep-at-saint-luke's?came_from=209;Delta Sleep;United Kingdom;Glasgow;17 Bain St;G40 2JZ;(55.854664, -4.234709)
Delta Sleep @ Rescue Rooms;2024-12-18T19:00:00;https://www.bandsintown.com/e/105509479-delta-sleep-at-rescue-rooms?came_from=209;Delta Sleep;United Kingdom;Nottingham;25 Goldsmith St;NG1 5LB;(52.9564424, -1.153329)
Russian Circles @ Delmar Hall;2025-03-03T19:00:00;https://www.bandsintown.com/e/106136417-russian-circles-at-delmar-hall?came_from=209;Russian Circles;United States;Saint Louis;6133 Delmar Blvd;63112;(38.65553, -90.297191)
Russian Circles @ Rubber Gloves Rehearsal Studio;2025-03-05T19:00:00;https://www.bandsintown.com/e/106136422-russian-circles-at-rubber-gloves-rehearsal-studio?came_from=209;Russian Circles;United States;Denton;411 East Sycamore Street;76205;(33.21484, -97.13307)
Russian Circles @ Mohawk Austin;2025-03-06T19:00:00;https://www.bandsintown.com/e/106136428-russian-circles-at-mohawk-austin?came_from=209;Russian Circles;United States;Austin;912 Red River St;78701;(30.2700584, -97.7360748)
Russian Circles @ MSA Annex;2025-03-08T19:00:00;https://www.bandsintown.com/e/106136438-russian-circles-at-msa-annex?came_from=209;Russian Circles;United States;Tucson;267 South Avenida del Convento;85745;(32.2179642, -110.9843575)
Russian Circles @ The Regent Theater;2025-03-09T19:00:00;https://www.bandsintown.com/e/106136443-russian-circles-at-the-regent-theater?came_from=209;Russian Circles;United States;Los Angeles;448 S Main St;90013;(34.04710430000001, -118.2479757)
Russian Circles @ Observatory;2025-03-10T19:00:00;https://www.bandsintown.com/e/106136448-russian-circles-at-observatory?came_from=209;Russian Circles;United States;Santa Ana;3503 S Harbor Blvd;92704;(33.699631, -117.9177051)
Russian Circles @ The Fillmore;2025-03-12T19:00:00;https://www.bandsintown.com/e/106136455-russian-circles-at-the-fillmore?came_from=209;Russian Circles;United States;San Francisco;1805 Geary Blvd;94115;(37.783926, -122.433072)
Russian Circles @ Ace Of Spades;2025-03-13T19:00:00;https://www.bandsintown.com/e/106136461-russian-circles-at-ace-of-spades?came_from=209;Russian Circles;United States;Sacramento;1417 R St;95811;(38.569935, -121.490905)
Russian Circles @ Revolution Hall;2025-03-15T19:00:00;https://www.bandsintown.com/e/106136466-russian-circles-at-revolution-hall?came_from=209;Russian Circles;United States;Portland;1300 SE Stark St #110;97214;(45.5192, -122.6519)
Russian Circles @ The Showbox;2025-03-16T19:00:00;https://www.bandsintown.com/e/106136472-russian-circles-at-the-showbox?came_from=209;Russian Circles;United States;Seattle;1426 1st Ave;98104;(47.6085565, -122.3393269)
Russian Circles @ Knitting Factory;2025-03-17T19:00:00;https://www.bandsintown.com/e/106136479-russian-circles-at-knitting-factory?came_from=209;Russian Circles;United States;Boise;416 S 9th St;83702;(43.6131802, -116.2068318)
Russian Circles @ Metro Music Hall;2025-03-18T19:00:00;https://www.bandsintown.com/e/106136483-russian-circles-at-metro-music-hall?came_from=209;Russian Circles;United States;Salt Lake City;615 W 100 S;84101;(40.7669525, -111.9089641)
Russian Circles @ Gothic Theatre;2025-03-19T19:00:00;https://www.bandsintown.com/e/106136493-russian-circles-at-gothic-theatre?came_from=209;Russian Circles;United States;Englewood;3263 S Broadway;80113;(39.6576834, -104.9878406)
Russian Circles @ Slowdown;2025-03-21T19:00:00;https://www.bandsintown.com/e/106136498-russian-circles-at-slowdown?came_from=209;Russian Circles;United States;Omaha;729 N 14th St;68102;(41.2664801, -95.93415999999999)
Russian Circles @ Fine Line;2025-03-22T19:00:00;https://www.bandsintown.com/e/106136505-russian-circles-at-fine-line?came_from=209;Russian Circles;United States;Minneapolis;318 N 1st Ave;55401;(44.9816667, -93.2722222)
Nile @ The Basement East;2025-01-07T18:30:00;https://www.bandsintown.com/e/1032495196-nile-at-the-basement-east?came_from=209;Nile;United States;Nashville;917 Woodland St;37206;(36.175686, -86.75559)
Nile @ The Masquerade;2025-01-08T17:30:00;https://www.bandsintown.com/e/1032431697-nile-at-the-masquerade?came_from=209;Nile;United States;Atlanta;75 M.L.K. Jr Dr SW;30303;(33.748752, -84.38768449999999)
Nile @ The Abbey;2025-01-10T17:30:00;https://www.bandsintown.com/e/1033339383-nile-at-the-abbey?came_from=209;Nile;United States;Orlando;100 S Eola Dr #100;32801;(28.541117, -81.37052)
Nile @ Culture Room;2025-01-11T18:30:00;https://www.bandsintown.com/e/1032431602-nile-at-culture-room?came_from=209;Nile;United States;Fort Lauderdale;3045 N Federal Hwy;33306;(26.166121, -80.116479)
Nile @ The Orpheum;2025-01-12T17:30:00;https://www.bandsintown.com/e/1032873041-nile-at-the-orpheum?came_from=209;Nile;United States;Tampa;14802 N Nebraska Ave;33613;(28.0832711, -82.451646)
Nile @ Music Farm;2025-01-13T19:30:00;https://www.bandsintown.com/e/1032431794-nile-at-music-farm?came_from=209;Nile;United States;Charleston;32 Ann St;29403;(32.789886, -79.937336)
Nile @ Radio Room;2025-01-14T18:30:00;https://www.bandsintown.com/e/1032431517-nile-at-radio-room?came_from=209;Nile;United States;Greenville;110 Poinsett Hwy;29609;(34.85262, -82.39401)
Nile @ Hangar 1819;2025-01-15T17:30:00;https://www.bandsintown.com/e/1032675141-nile-at-hangar-1819?came_from=209;Nile;United States;Greensboro;1819 Spring Garden St;27403;(36.0635964, -79.82258519999999)
Nile @ Starland Ballroom;2025-01-17T18:30:00;https://www.bandsintown.com/e/1032431870-nile-at-starland-ballroom?came_from=209;Nile;United States;Sayreville;570 Jernee Mill Road;08872;(40.44041, -74.355218)
Nile @ Palladium;2025-01-18T18:30:00;https://www.bandsintown.com/e/1032437691-nile-at-palladium?came_from=209;Nile;United States;Worcester;261 Main St;01608;(42.266725, -71.80065560000001)
Nile @ Empire Live;2025-01-19T18:30:00;https://www.bandsintown.com/e/1032431568-nile-at-empire-live?came_from=209;Nile;United States;Albany;93 N Pearl St;12207;(42.652676, -73.750384)
Nile @ Lovedraft's Brewing Co;2025-01-20T17:30:00;https://www.bandsintown.com/e/1032431593-nile-at-lovedraft's-brewing-co?came_from=209;Nile;United States;Mechanicsburg;165 Gateway Dr;17050;(40.23819649999999, -76.9821809)
Nile @ Preserving Underground;2025-01-21T18:00:00;https://www.bandsintown.com/e/1032515282-nile-at-preserving-underground?came_from=209;Nile;United States;New Kensington;1101 5th Ave;15068;(40.5683494, -79.76626970000001)
Nile @ Agora Theater & Ballroom;2025-01-23T18:30:00;https://www.bandsintown.com/e/1032432046-nile-at-agora-theater-and-ballroom?came_from=209;Nile;United States;Cleveland;5000 Euclid Ave;44103;(41.5037002, -81.6539535)
Nile @ The KING of CLUBS;2025-01-24T17:30:00;https://www.bandsintown.com/e/1032431954-nile-at-the-king-of-clubs?came_from=209;Nile;United States;Columbus;6252 Busch Blvd;43229;(40.0936654, -82.992195)
Nile @ Machine Shop;2025-01-25T17:30:00;https://www.bandsintown.com/e/1032921224-nile-at-machine-shop?came_from=209;Nile;United States;Flint;3539 S Dort Hwy;48507;(42.9909285, -83.65290639999999)
Nile @ The Intersection;2025-01-26T19:00:00;https://www.bandsintown.com/e/1032908025-nile-at-the-intersection?came_from=209;Nile;United States;Grand Rapids;133 Cesar E. Chavez Ave SW;49503;(42.959982, -85.673915)
Nile @ The Forge;2025-01-27T18:30:00;https://www.bandsintown.com/e/1032474314-nile-at-the-forge?came_from=209;Nile;United States;Joliet;22 W Cass St;60432;(41.52765650000001, -88.0821151)
Nile @ Bogart's;2025-01-30T17:30:00;https://www.bandsintown.com/e/1032431428-nile-at-bogart's?came_from=209;Nile;United States;Cincinnati;2621 Vine St;45219;(39.1299821, -84.5100266)
Nile @ The Rave / Eagles Club;2025-02-01T18:30:00;https://www.bandsintown.com/e/1032430095-nile-at-the-rave-eagles-club?came_from=209;Nile;United States;Milwaukee;2401 W Wisconsin Ave;53233;(43.0379175, -87.9433123)
Nile @ Skyway Theatre;2025-02-02T18:00:00;https://www.bandsintown.com/e/1032747004-nile-at-skyway-theatre?came_from=209;Nile;United States;Minneapolis;711 Hennepin Ave;55403;(44.9773414, -93.2749612)
Nile @ The Oriental Theater;2025-02-04T18:30:00;https://www.bandsintown.com/e/1032127735-nile-at-the-oriental-theater?came_from=209;Nile;United States;Denver;4335 W 44th Ave;80212;(39.7767868, -105.0435276)
Nile @ Sinwave;2025-02-06T18:00:00;https://www.bandsintown.com/e/1032434178-nile-at-sinwave?came_from=209;Nile;United States;Las Vegas;1412 S Main St;89104;(36.1542376, -115.1543185)
Nile @ Observatory;2025-02-07T17:30:00;https://www.bandsintown.com/e/1032449510-nile-at-observatory?came_from=209;Nile;United States;Santa Ana;3503 S Harbor Blvd;92704;(33.699631, -117.9177051)
Nile @ Goldfield Trading Post Roseville;2025-02-08T18:30:00;https://www.bandsintown.com/e/1032431475-nile-at-goldfield-trading-post-roseville?came_from=209;Nile;United States;Roseville;238 Vernon St;95678;(38.7493664, -121.283744)
Nile @ Bossanova Ballroom;2025-02-10T20:00:00;https://www.bandsintown.com/e/1032497494-nile-at-bossanova-ballroom?came_from=209;Nile;United States;Portland;722 E Burnside St;97214;(45.5226976, -122.6582929)
Nile @ El Corazon;2025-02-11T18:30:00;https://www.bandsintown.com/e/1032431533-nile-at-el-corazon?came_from=209;Nile;United States;Seattle;109 Eastlake Ave E;98109;(47.6187576, -122.32934)
Nile @ Cornerstone Craft Beer & Live Music;2025-02-13T18:30:00;https://www.bandsintown.com/e/1032438237-nile-at-cornerstone-craft-beer-and-live-music?came_from=209;Nile;United States;Berkeley;2367 Shattuck Ave;94704;(37.8663201, -122.2673229)
Nile @ The Catalyst;2025-02-14T18:30:00;https://www.bandsintown.com/e/1032562427-nile-at-the-catalyst?came_from=209;Nile;United States;Santa Cruz;1011 Pacific Ave;95060;(36.9713454, -122.0256011)
Nile @ 1720™;2025-02-15T17:30:00;https://www.bandsintown.com/e/1033116468-nile-at-1720tm?came_from=209;Nile;United States;Los Angeles;1720 E 16th St;90021;(34.0231432, -118.2417586)
Nile @ The Nile Theater;2025-02-16T17:30:00;https://www.bandsintown.com/e/1032431943-nile-at-the-nile-theater?came_from=209;Nile;United States;Mesa;105 W Main St;85201;(33.414927, -111.834439)
Nile @ Lauter Haus Brewing Co.;2025-02-18T18:30:00;https://www.bandsintown.com/e/1032436907-nile-at-lauter-haus-brewing-co.?came_from=209;Nile;United States;Farmington;1806 E 20th;87401;(36.72806, -108.21869)
Nile @ Haltom Theater;2025-02-20T17:30:00;https://www.bandsintown.com/e/1032431749-nile-at-haltom-theater?came_from=209;Nile;United States;Haltom City;5601 E Belknap St;76117;(32.8007469, -97.2653808)
Nile @ Come and Take It Live;2025-02-21T17:00:00;https://www.bandsintown.com/e/1032430259-nile-at-come-and-take-it-live?came_from=209;Nile;United States;Austin;2015 E Riverside Dr Bldg 4;78741;(30.2408546, -97.7288765)
Nile @ Warehouse Live Midtown;2025-02-22T18:30:00;https://www.bandsintown.com/e/1032431831-nile-at-warehouse-live-midtown?came_from=209;Nile;United States;Houston;2600 Travis St;77006;(29.7458262, -95.3753559)
GoGo Penguin @ Centro Cultural de Belém;2024-11-26T21:00:00;https://www.bandsintown.com/e/105727748-gogo-penguin-at-centro-cultural-de-belem?came_from=209;GoGo Penguin;Portugal;Lisboa;Praça do Império;1449-003;(38.6955029, -9.20835420000003)
GoGo Penguin @ Casa da Música;2024-11-27T21:00:00;https://www.bandsintown.com/e/105727743-gogo-penguin-at-casa-da-musica?came_from=209;GoGo Penguin;Portugal;Porto;Avenida da Boavista 604;4149-071;(41.1584091, -8.6307802)
GoGo Penguin @ Billboard Live YOKOHAMA;2025-03-03T16:30:00;https://www.bandsintown.com/e/106097244-gogo-penguin-at-billboard-live-yokohama?came_from=209;GoGo Penguin;Japan;横浜;北仲通5丁目57番地2 KITANAKA BRICK&WHITE 1F;231-0003;(35.4507883, 139.6362126)
GoGo Penguin @ Billboard Live YOKOHAMA;2025-03-03T19:30:00;https://www.bandsintown.com/e/106097251-gogo-penguin-at-billboard-live-yokohama?came_from=209;GoGo Penguin;Japan;横浜;北仲通5丁目57番地2 KITANAKA BRICK&WHITE 1F;231-0003;(35.4507883, 139.6362126)
GoGo Penguin @ Billboard Live Tokyo;2025-03-04T16:30:00;https://www.bandsintown.com/e/106097210-gogo-penguin-at-billboard-live-tokyo?came_from=209;GoGo Penguin;Japan;東京;ミッドタウンガーデンテラス4F, 赤坂9-7-4;107-0052;(35.6662189, 139.730226)
GoGo Penguin @ Billboard Live Tokyo;2025-03-04T19:30:00;https://www.bandsintown.com/e/106097215-gogo-penguin-at-billboard-live-tokyo?came_from=209;GoGo Penguin;Japan;東京;ミッドタウンガーデンテラス4F, 赤坂9-7-4;107-0052;(35.6662189, 139.730226)
GoGo Penguin @ Billboard Live Tokyo;2025-03-05T16:30:00;https://www.bandsintown.com/e/106097225-gogo-penguin-at-billboard-live-tokyo?came_from=209;GoGo Penguin;Japan;東京;ミッドタウンガーデンテラス4F, 赤坂9-7-4;107-0052;(35.6662189, 139.730226)
GoGo Penguin @ Billboard Live Tokyo;2025-03-05T19:30:00;https://www.bandsintown.com/e/106097232-gogo-penguin-at-billboard-live-tokyo?came_from=209;GoGo Penguin;Japan;東京;ミッドタウンガーデンテラス4F, 赤坂9-7-4;107-0052;(35.6662189, 139.730226)
Shlohmo @ Docks;2024-12-13T23:00:00;https://www.bandsintown.com/e/1033008862-shlohmo-at-docks?came_from=209;Shlohmo;Germany;Hamburg;Spielbudenplatz 19;20359;(53.5492917, 9.964537199999995)
Ride @ Space Ballroom;2024-12-04T20:00:00;https://www.bandsintown.com/e/1032156062-ride-at-space-ballroom?came_from=209;Ride;United States;Hamden;295 Treadwell St;06514;(41.35354299999999, -72.9254349)
Ride @ 9:30 Club;2024-12-05T19:00:00;https://www.bandsintown.com/e/1031577130-ride-at-9:30-club?came_from=209;Ride;United States;Washington;815 V St NW;20001;(38.9178952, -77.0237412)
Ride @ Warsaw;2024-12-06T19:00:00;https://www.bandsintown.com/e/1031577031-ride-at-warsaw?came_from=209;Ride;United States;Brooklyn;261 Driggs Ave;11222;(40.722392, -73.948408)
Ride @ Union Transfer;2024-12-07T20:00:00;https://www.bandsintown.com/e/1031572719-ride-at-union-transfer?came_from=209;Ride;United States;Philadelphia;1026 Spring Garden St;19123;(39.9613876, -75.1553236)
Ride @ Cat's Cradle;2024-12-09T20:00:00;https://www.bandsintown.com/e/1031793906-ride-at-cat's-cradle?came_from=209;Ride;United States;Carrboro;300 E Main St;27510;(35.9101783, -79.0689052)
Ride @ Variety Playhouse;2024-12-10T20:00:00;https://www.bandsintown.com/e/1031579497-ride-at-variety-playhouse?came_from=209;Ride;United States;Atlanta;1099 Euclid Ave NE;30307;(33.76372870000001, -84.35107149999999)
Ride @ White Oak Music Hall;2024-12-12T19:00:00;https://www.bandsintown.com/e/1031577105-ride-at-white-oak-music-hall?came_from=209;Ride;United States;Houston;2915 N Main St;77009;(29.7858129, -95.36683939999999)
Ride @ The Studio at the Factory;2024-12-13T20:00:00;https://www.bandsintown.com/e/1031578769-ride-at-the-studio-at-the-factory?came_from=209;Ride;United States;Dallas;2727 Canton St;75226;(32.782356, -96.7832169)
Ride @ Emo's Austin;2024-12-14T19:00:00;https://www.bandsintown.com/e/1031577069-ride-at-emo's-austin?came_from=209;Ride;United States;Austin;2015 E Riverside Dr;78741;(30.2395789, -97.7280066)
Ride @ Crescent Ballroom;2024-12-16T19:30:00;https://www.bandsintown.com/e/1031876730-ride-at-crescent-ballroom?came_from=209;Ride;United States;Phoenix;308 N 2nd Ave;85003;(33.4517982, -112.0768576)
Ride @ 191 Toole;2024-12-17T20:00:00;https://www.bandsintown.com/e/1031708303-ride-at-191-toole?came_from=209;Ride;United States;Tucson;191 E Toole Ave;85701;(32.225, -110.9691667)
Ride @ House of Blues San Diego;2024-12-18T19:00:00;https://www.bandsintown.com/e/1031577126-ride-at-house-of-blues-san-diego?came_from=209;Ride;United States;San Diego;1055 5th Ave;92101;(32.7163773, -117.1596034)
Ride @ The Fonda Theatre;2024-12-19T21:00:00;https://www.bandsintown.com/e/1031579896-ride-at-the-fonda-theatre?came_from=209;Ride;United States;Los Angeles;6126 Hollywood Blvd;90028;(34.101486, -118.3232871)
Ride @ The Fillmore;2024-12-20T20:00:00;https://www.bandsintown.com/e/1031577116-ride-at-the-fillmore?came_from=209;Ride;United States;San Francisco;1805 Geary Blvd;94115;(37.783926, -122.433072)
Between the Buried and Me @ Fernhill Farm;2025-08-13T11:00:00;https://www.bandsintown.com/e/1033149593-between-the-buried-and-me-at-fernhill-farm?came_from=209;Between the Buried and Me;United Kingdom;Bristol;Compton Martin;;(51.45523, -2.59665)
Tigran Hamasyan @ Rudolfinum;2024-11-20T20:00:00;https://www.bandsintown.com/e/1032096658-tigran-hamasyan-at-rudolfinum?came_from=209;Tigran Hamasyan;Czechia;Hlavní Město Praha;Alšovo nábř. 12;110 00;(50.0899562, 14.4154394)
Tigran Hamasyan @ Odéon Theatre;2024-11-25T20:00:00;https://www.bandsintown.com/e/106000343-tigran-hamasyan-at-odeon-theatre?came_from=209;Tigran Hamasyan;France;Paris;Pl. de l'Odéon;75006;(48.849495, 2.338703)
Tigran Hamasyan @ Le Carre Sevigne;2024-11-26T20:00:00;https://www.bandsintown.com/e/1032346083-tigran-hamasyan-at-le-carre-sevigne?came_from=209;Tigran Hamasyan;France;Cesson-sévigné;1 Rue du Bac;35510;(48.1179845, -1.5989453)
Tigran Hamasyan @ Klub Studio;2024-11-28T19:30:00;https://www.bandsintown.com/e/105946603-tigran-hamasyan-at-klub-studio?came_from=209;Tigran Hamasyan;Poland;Kraków;ul. Budryka 4;30-072;(50.0680363, 19.9082967)
Tigran Hamasyan @ Arsenal;2024-12-13T20:00:00;https://www.bandsintown.com/e/105805917-tigran-hamasyan-at-arsenal?came_from=209;Tigran Hamasyan;France;Metz;3 Avenue Ney;57000;(49.11455549999999, 6.170784000000026)
Tigran Hamasyan @ Chan Centre For The Performing Arts;2025-03-15T20:00:00;https://www.bandsintown.com/e/106122599-tigran-hamasyan-at-chan-centre-for-the-performing-arts?came_from=209;Tigran Hamasyan;Canada;Vancouver;234 E Georgia St;V6A 1Z1;(49.2785568, -123.0985621)
Tigran Hamasyan @ The Get Down Music Venue;2025-03-16T20:00:00;https://www.bandsintown.com/e/106053443-tigran-hamasyan-at-the-get-down-music-venue?came_from=209;Tigran Hamasyan;United States;Portland;680 SE 6th Ave;97214;(45.51813920000001, -122.6595546)
Tigran Hamasyan @ King Center - Concert Hall;2025-03-17T19:30:00;https://www.bandsintown.com/e/106122672-tigran-hamasyan-at-king-center-concert-hall?came_from=209;Tigran Hamasyan;United States;Denver;855 Lawrence Way #145;80204;(39.7437194, -105.0060596)
Tigran Hamasyan @ The Regent Theater;2025-03-20T20:30:00;https://www.bandsintown.com/e/1032965154-tigran-hamasyan-at-the-regent-theater?came_from=209;Tigran Hamasyan;United States;Los Angeles;448 S Main St;90013;(34.04710430000001, -118.2479757)
Tigran Hamasyan @ SFJAZZ Center;2025-03-21T19:30:00;https://www.bandsintown.com/e/106040162-tigran-hamasyan-at-sfjazz-center?came_from=209;Tigran Hamasyan;United States;San Francisco;201 Franklin St;94102;(37.7763853, -122.4213455)
Tigran Hamasyan @ Fine Line;2025-03-23T20:00:00;https://www.bandsintown.com/e/1033459590-tigran-hamasyan-at-fine-line?came_from=209;Tigran Hamasyan;United States;Minneapolis;318 N 1st Ave;55401;(44.9816667, -93.2722222)
Tigran Hamasyan @ Thalia Hall;2025-03-25T20:00:00;https://www.bandsintown.com/e/106057520-tigran-hamasyan-at-thalia-hall?came_from=209;Tigran Hamasyan;United States;Chicago;1227 W 18th St;60608;(41.8577976, -87.6573556)
Tigran Hamasyan @ The Ludlow Garage;2025-03-26T19:30:00;https://www.bandsintown.com/e/1033384322-tigran-hamasyan-at-the-ludlow-garage?came_from=209;Tigran Hamasyan;United States;Cincinnati;342 Ludlow Ave;45220;(39.14386399999999, -84.52119599999999)
Tigran Hamasyan @ Downtown Knoxville;2025-03-27T19:00:00;https://www.bandsintown.com/e/105935069-tigran-hamasyan-at-downtown-knoxville?came_from=209;Tigran Hamasyan;United States;Knoxville;17 Market Square STE 201;37902;(35.96512870000001, -83.9199276)
Tigran Hamasyan @ Irving Plaza;2025-03-28T20:00:00;https://www.bandsintown.com/e/105953581-tigran-hamasyan-at-irving-plaza?came_from=209;Tigran Hamasyan;United States;New York;17 Irving Pl;10003;(40.734929, -73.988448)
Tigran Hamasyan @ Somerville Theatre;2025-03-29T20:00:00;https://www.bandsintown.com/e/1032839265-tigran-hamasyan-at-somerville-theatre?came_from=209;Tigran Hamasyan;United States;Somerville;55 Davis Square;02144;(42.3966407, -71.123001)
Tigran Hamasyan @ De Singel;2025-04-02T20:30:00;https://www.bandsintown.com/e/105564786-tigran-hamasyan-at-de-singel?came_from=209;Tigran Hamasyan;Belgium;Berchem;Desguinlei 25;2018;(51.19021, 4.43264)
Tigran Hamasyan @ Aula Magna;2025-04-10T21:00:00;https://www.bandsintown.com/e/106129940-tigran-hamasyan-at-aula-magna?came_from=209;Tigran Hamasyan;Portugal;Lisboa;Edifício da Reitoria;1600;(38.7526009, -9.158703099999999)
This Will Destroy You @ Club Chocolate;2025-01-28T20:30:00;https://www.bandsintown.com/e/106156106-this-will-destroy-you-at-club-chocolate?came_from=209;This Will Destroy You;Chile;Recoleta;Ernesto Pinto Lagarrigue 192;8420492;(-33.432324, -70.63742289999999)
This Will Destroy You @ UNICLUB;2025-01-31T19:00:00;https://www.bandsintown.com/e/106156111-this-will-destroy-you-at-uniclub?came_from=209;This Will Destroy You;Argentina;Abasto;Guardia Vieja 3360;C1192AAB;(-34.602677, -58.4122431)
This Will Destroy You @ Rockambole;2025-02-01T19:00:00;https://www.bandsintown.com/e/106156115-this-will-destroy-you-at-rockambole?came_from=209;This Will Destroy You;Brazil;São Paulo;R. Belmiro Braga, 119;05432-020;(-23.5596912, -46.6873616)
This Will Destroy You @ Casa Rojas;2025-02-05T19:00:00;https://www.bandsintown.com/e/106156121-this-will-destroy-you-at-casa-rojas?came_from=209;This Will Destroy You;Costa Rica;San José;WWPP+5CF;10101;(9.9354389, -84.06395359999999)
This Will Destroy You @ Lianas Theater & Club;2025-02-06T19:00:00;https://www.bandsintown.com/e/106156130-this-will-destroy-you-at-lianas-theater-and-club?came_from=209;This Will Destroy You;Guatemala;Ciudad De Guatemala;cuatro grados norte;01004;(14.6219923, -90.51374349999999)
This Will Destroy You @ Foro indie rocks;2025-02-07T19:00:00;https://www.bandsintown.com/e/106156137-this-will-destroy-you-at-foro-indie-rocks?came_from=209;This Will Destroy You;Mexico;Ciudad De México;Zacatecas 39;06700;(19.4167093, -99.1562532)
This Will Destroy You @ Cuerda Cultura;2025-02-08T19:00:00;https://www.bandsintown.com/e/106156143-this-will-destroy-you-at-cuerda-cultura?came_from=209;This Will Destroy You;Mexico;Guadalajara;Calle Garibaldi 580;44100;(20.6813047, -103.3518475)
This Will Destroy You @ La Grenze;2025-03-04T20:00:00;https://www.bandsintown.com/e/106144321-this-will-destroy-you-at-la-grenze?came_from=209;This Will Destroy You;France;Strasbourg;23 Rue Georges Wodli;67000;(48.5892661, 7.735777500000001)
This Will Destroy You @ Le Marché Gare;2025-03-05T20:00:00;https://www.bandsintown.com/e/106144338-this-will-destroy-you-at-le-marche-gare?came_from=209;This Will Destroy You;France;Lyon;34 Rue Casimir Périer;69002;(45.74144099999999, 4.8225755)
This Will Destroy You @ Le Rex de Toulouse;2025-03-06T20:00:00;https://www.bandsintown.com/e/106144427-this-will-destroy-you-at-le-rex-de-toulouse?came_from=209;This Will Destroy You;France;Toulouse;15 Avenue Honoré Serres;31000;(43.6119889, 1.438321999999971)
This Will Destroy You @ Superforma;2025-03-07T19:00:00;https://www.bandsintown.com/e/106144370-this-will-destroy-you-at-superforma?came_from=209;This Will Destroy You;France;Le Mans;5 Pl. Paul Cézanne;72000;(47.9740129, 0.2146468)
This Will Destroy You @ Le Ferrailleur;2025-03-08T20:30:00;https://www.bandsintown.com/e/1033522359-this-will-destroy-you-at-le-ferrailleur?came_from=209;This Will Destroy You;France;Nantes;Quai des Antilles;44200;(47.2017591, -1.572146699999962)
This Will Destroy You @ Trabendo;2025-03-10T19:30:00;https://www.bandsintown.com/e/106144455-this-will-destroy-you-at-trabendo?came_from=209;This Will Destroy You;France;Paris;211 Ave Jean Jaures;75019;(48.8926277, 2.3939626)
This Will Destroy You @ Le 106;2025-03-11T19:30:00;https://www.bandsintown.com/e/106144469-this-will-destroy-you-at-le-106?came_from=209;This Will Destroy You;France;Rouen;14th Pasteur Av;76000;(49.4440494, 1.0792198000000326)
This Will Destroy You @ Concorde 2;2025-03-12T19:30:00;https://www.bandsintown.com/e/1033522179-this-will-destroy-you-at-concorde-2?came_from=209;This Will Destroy You;United Kingdom;Brighton;Madeira Shelter Hall;BN21EN;(50.817784, -0.124704)
This Will Destroy You @ The Fleece;2025-03-13T19:00:00;https://www.bandsintown.com/e/106144508-this-will-destroy-you-at-the-fleece?came_from=209;This Will Destroy You;United Kingdom;Bristol;12 St Thomas St;BS1 6JJ;(51.4522295, -2.5894144)
This Will Destroy You @ Band on the Wall;2025-03-14T19:00:00;https://www.bandsintown.com/e/1033522227-this-will-destroy-you-at-band-on-the-wall?came_from=209;This Will Destroy You;United Kingdom;Manchester;25 Swan St;M4 5JZ;(53.485235, -2.234389)
This Will Destroy You @ Room 2;2025-03-15T19:00:00;https://www.bandsintown.com/e/106144525-this-will-destroy-you-at-room-2?came_from=209;This Will Destroy You;United Kingdom;Glasgow;69 Nelson Mandela Pl;G2 1QY;(55.8621114, -4.2544154)
This Will Destroy You @ Rescue Rooms;2025-03-16T18:30:00;https://www.bandsintown.com/e/106144536-this-will-destroy-you-at-rescue-rooms?came_from=209;This Will Destroy You;United Kingdom;Nottingham;25 Goldsmith St;NG1 5LB;(52.9564424, -1.153329)
This Will Destroy You @ Islington Assembly Hall;2025-03-17T19:00:00;https://www.bandsintown.com/e/1033522259-this-will-destroy-you-at-islington-assembly-hall?came_from=209;This Will Destroy You;United Kingdom;North London;139 A1;N1 2UD;(51.55317, -0.12257)
This Will Destroy You @ Wintercircus;2025-03-18T19:30:00;https://www.bandsintown.com/e/106144555-this-will-destroy-you-at-wintercircus?came_from=209;This Will Destroy You;Belgium;Gent;Miriam Makebaplein 2;9000;(51.0482024, 3.728483599999999)
This Will Destroy You @ TivoliVredenburg;2025-03-19T20:00:00;https://www.bandsintown.com/e/1033522198-this-will-destroy-you-at-tivolivredenburg?came_from=209;This Will Destroy You;Netherlands;Utrecht;Vredenburgkade 11;3511 WC;(52.0924298, 5.1128171)
This Will Destroy You @ Club Volta;2025-03-20T19:00:00;https://www.bandsintown.com/e/106144594-this-will-destroy-you-at-club-volta?came_from=209;This Will Destroy You;Germany;Köln;Schanzenstr. 6-20, Gebäude 2.10;51063;(50.9653223, 7.0125218)
This Will Destroy You @ Gleis22 Im Jib;2025-03-21T19:00:00;https://www.bandsintown.com/e/106144604-this-will-destroy-you-at-gleis22-im-jib?came_from=209;This Will Destroy You;Germany;Münster;34 Hafenstraße;48153;(51.9535777, 7.6312305)
This Will Destroy You @ Gleis 22;2025-03-21T20:00:00;https://www.bandsintown.com/e/1033535640-this-will-destroy-you-at-gleis-22?came_from=209;This Will Destroy You;Germany;Münster;Hafenstr. 34;48153;(48.95274, 12.57209)
This Will Destroy You @ KENT Club;2025-03-22T19:00:00;https://www.bandsintown.com/e/106144619-this-will-destroy-you-at-kent-club?came_from=209;This Will Destroy You;Germany;Hamburg;Stresemannstraße 163;22769;(53.56267159999999, 9.949593499999999)
This Will Destroy You @ Goldie Oslo;2025-03-24T20:00:00;https://www.bandsintown.com/e/106144633-this-will-destroy-you-at-goldie-oslo?came_from=209;This Will Destroy You;Norway;Oslo;Badstugata 5;0181;(59.91613289999999, 10.7511111)
This Will Destroy You @ Kollektivet Livet Bar & Scen;2025-03-25T19:00:00;https://www.bandsintown.com/e/106144644-this-will-destroy-you-at-kollektivet-livet-bar-and-scen?came_from=209;This Will Destroy You;Sweden;Stockholm;Stadsgårdsterminalen;116 45;(59.3192713, 18.078035)
This Will Destroy You @ Marché Gare;2025-03-25T20:00:00;https://www.bandsintown.com/e/1033535688-this-will-destroy-you-at-marche-gare?came_from=209;This Will Destroy You;France;Lyon 07;4-6 place Hubert Mounier;69002;(45.74525, 4.84197)
This Will Destroy You @ Musikens Hus;2025-03-26T19:00:00;https://www.bandsintown.com/e/106144654-this-will-destroy-you-at-musikens-hus?came_from=209;This Will Destroy You;Sweden;Göteborg;Djurgårdsgatan 13;41462;(57.697893, 11.93106499999999)
This Will Destroy You @ Vega;2025-03-27T19:00:00;https://www.bandsintown.com/e/106144664-this-will-destroy-you-at-vega?came_from=209;This Will Destroy You;Denmark;København;Enghavevej 40;1674;(55.6679421, 12.5442758)
This Will Destroy You @ SO36;2025-03-28T19:00:00;https://www.bandsintown.com/e/106144683-this-will-destroy-you-at-so36?came_from=209;This Will Destroy You;Germany;Berlin;Oranienstraße 190;10999;(52.5003921, 13.4221018)
This Will Destroy You @ Futurum Music Bar;2025-03-29T19:00:00;https://www.bandsintown.com/e/106144697-this-will-destroy-you-at-futurum-music-bar?came_from=209;This Will Destroy You;Czech Republic;Praha;Zborovská 82/7;150 00;(50.0740021, 14.4078536)
This Will Destroy You @ Klub Hydrozagadka;2025-03-30T18:30:00;https://www.bandsintown.com/e/106144704-this-will-destroy-you-at-klub-hydrozagadka?came_from=209;This Will Destroy You;Poland;Warszawa;ul. 11 listopada 22;03-436;(52.2592766, 21.0369122)
This Will Destroy You @ Bar Le Ritz PDB;2025-06-18T21:00:00;https://www.bandsintown.com/e/1033273108-this-will-destroy-you-at-bar-le-ritz-pdb?came_from=209;This Will Destroy You;Canada;Montreal;179 Rue Jean-Talon O;H2R 2X2;(45.5326822, -73.6203687)
Converge @ Buffalo RiverWorks;2024-12-14T13:00:00;https://www.bandsintown.com/e/105519682-converge-at-buffalo-riverworks?came_from=209;Converge;United States;Buffalo;359 Ganson St;14203;(42.8700909, -78.8719486)
Converge @ Historic Crew Stadium;2025-05-09T00:00:00;https://www.bandsintown.com/e/106083092-converge-at-historic-crew-stadium?came_from=209;Converge;United States;Columbus;1 Black and Gold Blvd;43211;(40.0095288, -82.99116219999999)
Converge @ Daytona International Speedway;2025-05-15T12:00:00;https://www.bandsintown.com/e/106140789-converge-at-daytona-international-speedway?came_from=209;Converge;United States;Daytona Beach;1801 W International Speedway Blvd;32114;(29.191929, -81.067866)
Sungazer @ The State Room;2024-12-06T20:00:00;https://www.bandsintown.com/e/105866850-sungazer-at-the-state-room?came_from=209;Sungazer;United States;Salt Lake City;638 S State St;84111;(40.7552834, -111.8884822)
Sungazer @ Treefort Music Hall;2024-12-07T19:00:00;https://www.bandsintown.com/e/105866871-sungazer-at-treefort-music-hall?came_from=209;Sungazer;United States;Boise;722 W Broad St;83702;(43.61305970000001, -116.2045607)
Sungazer @ The Get Down Music Venue;2024-12-08T19:00:00;https://www.bandsintown.com/e/105866884-sungazer-at-the-get-down-music-venue?came_from=209;Sungazer;United States;Portland;680 SE 6th Ave;97214;(45.51813920000001, -122.6595546)
Sungazer @ Hollywood Theatre;2024-12-09T19:00:00;https://www.bandsintown.com/e/105867364-sungazer-at-hollywood-theatre?came_from=209;Sungazer;Canada;Vancouver;3123 W Broadway;V6K 2H2;(49.2644464, -123.1745456)
Sungazer @ The Crocodile;2024-12-10T19:00:00;https://www.bandsintown.com/e/105867388-sungazer-at-the-crocodile?came_from=209;Sungazer;United States;Seattle;2505 1st Ave;98121;(47.61476769999999, -122.3492781)
Sungazer @ The Starlet Room;2024-12-12T19:00:00;https://www.bandsintown.com/e/105980675-sungazer-at-the-starlet-room?came_from=209;Sungazer;United States;Sacramento;2708 J St;95816;(38.5739457, -121.4701757)
Sungazer @ The Independent;2024-12-13T20:30:00;https://www.bandsintown.com/e/105867511-sungazer-at-the-independent?came_from=209;Sungazer;United States;San Francisco;628 Divisadero St;94117;(37.7755318, -122.4376002)
Sungazer @ Teragram Ballroom;2024-12-14T18:00:00;https://www.bandsintown.com/e/105867525-sungazer-at-teragram-ballroom?came_from=209;Sungazer;United States;Los Angeles;1234 W 7th St;90017;(34.05187319999999, -118.2670329)
Sungazer @ Music Box;2024-12-15T19:00:00;https://www.bandsintown.com/e/105867532-sungazer-at-music-box?came_from=209;Sungazer;United States;San Diego;1337 India Street;92101;(32.7193819, -117.1681424)
Sungazer @ Last Exit Live;2024-12-17T19:00:00;https://www.bandsintown.com/e/105867535-sungazer-at-last-exit-live?came_from=209;Sungazer;United States;Phoenix;717 S Central Ave;85004;(33.4403967, -112.0734989)
Sungazer @ Meow Wolf;2024-12-19T19:00:00;https://www.bandsintown.com/e/105867543-sungazer-at-meow-wolf?came_from=209;Sungazer;United States;Santa Fe;1352 Rufina Cir;87507;(35.6545756, -105.99684)
Sungazer @ Bluebird Theater;2024-12-20T20:00:00;https://www.bandsintown.com/e/105867548-sungazer-at-bluebird-theater?came_from=209;Sungazer;United States;Denver;3317 E Colfax Av;80206;(39.7403313, -104.9484849)
Sungazer @ World Cafe Live;2025-01-15T19:00:00;https://www.bandsintown.com/e/105866995-sungazer-at-world-cafe-live?came_from=209;Sungazer;United States;Philadelphia;3025 Walnut St;19104;(39.9520673, -75.1851726)
Sungazer @ The Sinclair;2025-01-16T19:00:00;https://www.bandsintown.com/e/105867029-sungazer-at-the-sinclair?came_from=209;Sungazer;United States;Cambridge;52 Church St;02138;(42.3739749, -71.1205932)
Sungazer @ Nectar's;2025-01-17T19:00:00;https://www.bandsintown.com/e/105867052-sungazer-at-nectar's?came_from=209;Sungazer;United States;Burlington;188 Main St;05401;(44.47619, -73.2117312)
Sungazer @ Club Soda;2025-01-18T19:00:00;https://www.bandsintown.com/e/105867067-sungazer-at-club-soda?came_from=209;Sungazer;Canada;Montreal;1225 Blvd St Laurent;H2X 2S6;(45.5097791, -73.56334960000001)
Sungazer @ La Source de la Martinière;2025-01-19T19:00:00;https://www.bandsintown.com/e/105867095-sungazer-at-la-source-de-la-martiniere?came_from=209;Sungazer;Canada;Québec;201 de Lanaudière St;G1L 4H2;(46.827609, -71.24346500000001)
Sungazer @ The Axis Club;2025-01-21T19:00:00;https://www.bandsintown.com/e/105867110-sungazer-at-the-axis-club?came_from=209;Sungazer;Canada;Toronto;722 College St;M6G 1C4;(43.6552794, -79.4192559)
Sungazer @ Mahall's;2025-01-22T19:00:00;https://www.bandsintown.com/e/105867119-sungazer-at-mahall's?came_from=209;Sungazer;United States;Lakewood;13200 Madison Av;44107;(41.4771169, -81.7810872)
Sungazer @ The Summit Music Hall;2025-01-23T20:00:00;https://www.bandsintown.com/e/105867138-sungazer-at-the-summit-music-hall?came_from=209;Sungazer;United States;Columbus;2210 Summit St;43201;(40.0085426, -83.00023449999999)
Sungazer @ Outset;2025-01-24T18:30:00;https://www.bandsintown.com/e/105867157-sungazer-at-outset?came_from=209;Sungazer;United States;Chicago;1675 N Elston Ave;60642;(41.9126581, -87.66331489999999)
Sungazer @ HI-FI;2025-01-25T19:00:00;https://www.bandsintown.com/e/105867170-sungazer-at-hi-fi?came_from=209;Sungazer;United States;Indianapolis;1043 Virginia Ave #4;46203;(39.752534, -86.14053799999999)
Sungazer @ THE OLD ROCK HOUSE;2025-01-26T19:00:00;https://www.bandsintown.com/e/105867182-sungazer-at-the-old-rock-house?came_from=209;Sungazer;United States;St Louis;1200 S 7th St;63104;(38.61526599999999, -90.19639699999999)
Sungazer @ Crosstown Arts;2025-01-28T19:00:00;https://www.bandsintown.com/e/105867209-sungazer-at-crosstown-arts?came_from=209;Sungazer;United States;Memphis;1350 Concourse Ave #280;38104;(35.1522897, -90.0132964)
Sungazer @ The Vinyl Lounge;2025-01-29T19:00:00;https://www.bandsintown.com/e/105867264-sungazer-at-the-vinyl-lounge?came_from=209;Sungazer;United States;Nashville;1414 3rd Ave S Suite 102;37210;(36.141408, -86.7627701)
Sungazer @ Terminal West;2025-01-30T19:00:00;https://www.bandsintown.com/e/1032775667-sungazer-at-terminal-west?came_from=209;Sungazer;United States;Atlanta;887 W Marietta St NW, Ste. C;30318;(33.7816081, -84.4155938)
Sungazer @ Motorco Music Hall;2025-01-31T19:00:00;https://www.bandsintown.com/e/105867266-sungazer-at-motorco-music-hall?came_from=209;Sungazer;United States;Durham;723 Rigsbee Ave;27701-2138;(36.00359270000001, -78.900364)
Sungazer @ 9:30 Club;2025-02-01T20:00:00;https://www.bandsintown.com/e/105867251-sungazer-at-9:30-club?came_from=209;Sungazer;United States;Washington;815 V St NW;20001;(38.9178952, -77.0237412)
Sungazer @ Thunderbird Café & Music Hall;2025-02-02T20:00:00;https://www.bandsintown.com/e/105980721-sungazer-at-thunderbird-cafe-and-music-hall?came_from=209;Sungazer;United States;Pittsburgh;4053 Butler St;15201;(40.46939909999999, -79.9616095)
Sungazer @ Racket NYC;2025-02-03T20:00:00;https://www.bandsintown.com/e/105980735-sungazer-at-racket-nyc?came_from=209;Sungazer;United States;New York;431 W 16th St;10011;(40.74308690000001, -74.0057291)
Sungazer @ Islington Assembly Hall;2025-03-26T19:00:00;https://www.bandsintown.com/e/105980743-sungazer-at-islington-assembly-hall?came_from=209;Sungazer;United Kingdom;London;Upper St;N1 2UD;(51.541642, -0.10196)
Sungazer @ The Blues Kitchen Manchester;2025-03-27T19:00:00;https://www.bandsintown.com/e/105980750-sungazer-at-the-blues-kitchen-manchester?came_from=209;Sungazer;United Kingdom;Manchester;13 Quay St;M3 3HN;(53.47839279999999, -2.2507526)
Sungazer @ Future Yard CIC;2025-03-28T17:30:00;https://www.bandsintown.com/e/105980758-sungazer-at-future-yard-cic?came_from=209;Sungazer;United Kingdom;Birkenhead;75 Argyle St;CH41 6AB;(53.3913289, -3.0187096)
Sungazer @ Trinity Centre;2025-03-29T19:00:00;https://www.bandsintown.com/e/105980772-sungazer-at-trinity-centre?came_from=209;Sungazer;United Kingdom;Bristol;Trinity Rd;BS2 0NW;(51.4580843, -2.5759976)
Sungazer @ Rockhal;2025-03-31T20:30:00;https://www.bandsintown.com/e/105980780-sungazer-at-rockhal?came_from=209;Sungazer;Luxembourg;Esch-sur-alzette;5 Av. du Rock'n'Roll;4083;(49.5000461, 5.9477546)
Sungazer @ Pandora;2025-04-01T20:00:00;https://www.bandsintown.com/e/105980788-sungazer-at-pandora?came_from=209;Sungazer;Netherlands;Utrecht;Stationsdwarsstraat 52;3511 EL;(52.0906367, 5.1117509)
Sungazer @ Paradiso;2025-04-02T19:30:00;https://www.bandsintown.com/e/105980797-sungazer-at-paradiso?came_from=209;Sungazer;Netherlands;Amsterdam;Weteringschans 6-8;1017 SG;(52.3621619, 4.8838059)
Sungazer @ LantarenVenster;2025-04-03T20:00:00;https://www.bandsintown.com/e/105980807-sungazer-at-lantarenvenster?came_from=209;Sungazer;Netherlands;Rotterdam;Otto Reuchlinweg 996;3072;(51.9048386, 4.48702)
Sungazer @ Ääniwalli;2025-04-05T19:00:00;https://www.bandsintown.com/e/105980821-sungazer-at-aaniwalli?came_from=209;Sungazer;Finland;Helsinki;Pälkäneentie 13;00510;(60.1952776, 24.9497514)
Sungazer @ UNIT;2025-05-23T19:00:00;https://www.bandsintown.com/e/1033575055-sungazer-at-unit?came_from=209;Sungazer;Japan;渋谷区;恵比寿西　１－３４－１７ ザ・ハウスビル;1500021;(35.6471251, 139.7022986)
Deafheaven @ Historic Crew Stadium;2025-05-09T00:00:00;https://www.bandsintown.com/e/106044742-deafheaven-at-historic-crew-stadium?came_from=209;Deafheaven;United States;Columbus;1 Black and Gold Blvd;43211;(40.0095288, -82.99116219999999)
Deafheaven @ Daytona International Speedway;2025-05-15T11:00:00;https://www.bandsintown.com/e/106106374-deafheaven-at-daytona-international-speedway?came_from=209;Deafheaven;United States;Daytona Beach;1801 W International Speedway Blvd;32114;(29.191929, -81.067866)
Deafheaven @ Nürburgring;2025-06-06T11:00:00;https://www.bandsintown.com/e/106076666-deafheaven-at-nurburgring?came_from=209;Deafheaven;Germany;Nürburg;Otto-Flimm-Straße;53520;(50.33315469999999, 6.9457848)
Deafheaven @ Tons Of Rock;2025-06-25T11:00:00;https://www.bandsintown.com/e/106130247-deafheaven-at-tons-of-rock?came_from=209;Deafheaven;Norway;Oslo;Ekebergveien 70;1181;(59.91273, 10.74609)
Nate Smith @ The National;2024-12-07T20:00:00;https://www.bandsintown.com/e/105955722-nate-smith-at-the-national?came_from=209;Nate Smith;United States;Richmond;708 E Broad St;23219-1836;(37.5418426, -77.43524599999999)
Nate Smith @ Kennedy Center;2024-12-31T19:00:00;https://www.bandsintown.com/e/105697626-nate-smith-at-kennedy-center?came_from=209;Nate Smith;United States;Washington;2700 F St NW;20566;(38.8958482, -77.05568269999999)
Nate Smith @ Kennedy Center;2024-12-31T21:00:00;https://www.bandsintown.com/e/105697629-nate-smith-at-kennedy-center?came_from=209;Nate Smith;United States;Washington;2700 F St NW;20566;(38.8958482, -77.05568269999999)
Nate Smith @ The Alluvion;2025-02-15T19:00:00;https://www.bandsintown.com/e/106091946-nate-smith-at-the-alluvion?came_from=209;Nate Smith;United States;Traverse City;414 E Eighth St;49686;(44.7589978, -85.61518769999999)
Nate Smith @ The Alluvion;2025-02-15T21:00:00;https://www.bandsintown.com/e/106091949-nate-smith-at-the-alluvion?came_from=209;Nate Smith;United States;Traverse City;414 E Eighth St;49686;(44.7589978, -85.61518769999999)
Nate Smith @ Bell's Eccentric Cafe;2025-02-16T20:00:00;https://www.bandsintown.com/e/106091954-nate-smith-at-bell's-eccentric-cafe?came_from=209;Nate Smith;United States;Kalamazoo;355 E Kalamazoo Ave;49007;(42.29510579999999, -85.57886389999999)
Nate Smith @ Caffè Vivace | Coffee House, Jazz Lounge;2025-02-17T19:00:00;https://www.bandsintown.com/e/106091958-nate-smith-at-caffe-vivace-or-coffee-house-jazz-lounge?came_from=209;Nate Smith;United States;Cincinnati;975 E McMillan St;45206;(39.1257082, -84.4880788)
Nate Smith @ Caffè Vivace | Coffee House, Jazz Lounge;2025-02-17T21:30:00;https://www.bandsintown.com/e/106091959-nate-smith-at-caffe-vivace-or-coffee-house-jazz-lounge?came_from=209;Nate Smith;United States;Cincinnati;975 E McMillan St;45206;(39.1257082, -84.4880788)
Nate Smith @ The Jazz Kitchen;2025-02-18T18:00:00;https://www.bandsintown.com/e/106091962-nate-smith-at-the-jazz-kitchen?came_from=209;Nate Smith;United States;Indianapolis;5377 N College Ave;46220;(39.8508413, -86.14558249999999)
Nate Smith @ The Jazz Kitchen;2025-02-18T20:30:00;https://www.bandsintown.com/e/106091966-nate-smith-at-the-jazz-kitchen?came_from=209;Nate Smith;United States;Indianapolis;5377 N College Ave;46220;(39.8508413, -86.14558249999999)
Nate Smith @ Cleveland Museum of Art;2025-02-19T19:30:00;https://www.bandsintown.com/e/106091968-nate-smith-at-cleveland-museum-of-art?came_from=209;Nate Smith;United States;Cleveland;11150 East Blvd;44106;(41.5082887, -81.61155550000001)
Nate Smith @ Weis Center for the Performing Arts;2025-02-21T19:30:00;https://www.bandsintown.com/e/106091973-nate-smith-at-weis-center-for-the-performing-arts?came_from=209;Nate Smith;United States;Lewisburg;525 Weis Dr;17837;(40.9540139, -76.8852773)
Nate Smith @ Billboard Live Osaka;2025-02-25T17:30:00;https://www.bandsintown.com/e/106147294-nate-smith-at-billboard-live-osaka?came_from=209;Nate Smith;Japan;Osaka;2-chōme-2-22 Umeda;530-0001;(34.6995343, 135.4939379)
Nate Smith @ Billboard Live Osaka;2025-02-25T20:30:00;https://www.bandsintown.com/e/106147296-nate-smith-at-billboard-live-osaka?came_from=209;Nate Smith;Japan;Osaka;2-chōme-2-22 Umeda;530-0001;(34.6995343, 135.4939379)
Nate Smith @ Billboard Live Tokyo;2025-02-27T17:30:00;https://www.bandsintown.com/e/106147301-nate-smith-at-billboard-live-tokyo?came_from=209;Nate Smith;Japan;東京;ミッドタウンガーデンテラス4F, 赤坂9-7-4;107-0052;(35.6662189, 139.730226)
Nate Smith @ Billboard Live Tokyo;2025-02-27T20:30:00;https://www.bandsintown.com/e/106147304-nate-smith-at-billboard-live-tokyo?came_from=209;Nate Smith;Japan;東京;ミッドタウンガーデンテラス4F, 赤坂9-7-4;107-0052;(35.6662189, 139.730226)
Nate Smith @ Billboard Live Tokyo;2025-02-28T17:30:00;https://www.bandsintown.com/e/106147306-nate-smith-at-billboard-live-tokyo?came_from=209;Nate Smith;Japan;東京;ミッドタウンガーデンテラス4F, 赤坂9-7-4;107-0052;(35.6662189, 139.730226)
Nate Smith @ Billboard Live Tokyo;2025-02-28T20:30:00;https://www.bandsintown.com/e/106147307-nate-smith-at-billboard-live-tokyo?came_from=209;Nate Smith;Japan;東京;ミッドタウンガーデンテラス4F, 赤坂9-7-4;107-0052;(35.6662189, 139.730226)
The Ocean @ On The Rocks;2024-12-04T19:00:00;https://www.bandsintown.com/e/105962453-the-ocean-at-on-the-rocks?came_from=209;The Ocean;Finland;Helsinki;Mikonkatu 15;00100;(60.1712231, 24.94559240000001)
The Ocean @ Slaktkyrkan;2024-12-06T19:00:00;https://www.bandsintown.com/e/105962458-the-ocean-at-slaktkyrkan?came_from=209;The Ocean;Sweden;Johanneshov;Styckmästargatan 10;121 62;(59.29259510000001, 18.0803011)
The Ocean @ Vulkan Arena;2024-12-08T19:00:00;https://www.bandsintown.com/e/105962474-the-ocean-at-vulkan-arena?came_from=209;The Ocean;Norway;Oslo;Vulkan 26;0175;(59.9222412, 10.7508392)
The Ocean @ Quantic;2024-12-14T19:00:00;https://www.bandsintown.com/e/105962479-the-ocean-at-quantic?came_from=209;The Ocean;Romania;București;Șoseaua Grozăvești 82;060752;(44.4380262, 26.059491)
The Ocean @ Kesselhaus;2025-01-11T19:00:00;https://www.bandsintown.com/e/105962487-the-ocean-at-kesselhaus?came_from=209;The Ocean;Germany;Berlin;Schönhauser Allee 36;10435;(52.5393856, 13.4137106)
The Ocean @ Vooruit;2025-01-16T19:00:00;https://www.bandsintown.com/e/105962512-the-ocean-at-vooruit?came_from=209;The Ocean;Belgium;Gent;Sint Pietersnieuwstraat 23;9000;(51.0476851, 3.7274631999999883)
The Ocean @ Mon Madrid;2025-02-02T19:00:00;https://www.bandsintown.com/e/105962516-the-ocean-at-mon-madrid?came_from=209;The Ocean;Spain;Madrid;Calle Hilarión Eslava 36;28015;(40.435835, -3.7165281999999706)
Covet @ Hou Live;2024-12-11T19:00:00;https://www.bandsintown.com/e/106075748-covet-at-hou-live?came_from=209;Covet;China;Shenzhen;;;(31.71778, 121.2937)
Covet @ Omni Space;2024-12-13T19:00:00;https://www.bandsintown.com/e/106075747-covet-at-omni-space?came_from=209;Covet;China;Xicheng District;;;(39.93317, 116.37337)
Covet @ Vas;2024-12-14T19:00:00;https://www.bandsintown.com/e/106075746-covet-at-vas?came_from=209;Covet;China;Shanghai;;;(26.5058, 103.158)
Covet @ Shindaita Fever;2024-12-16T19:00:00;https://www.bandsintown.com/e/106023956-covet-at-shindaita-fever?came_from=209;Covet;Japan;Tokyo;;;(35.68245, 139.69382)
Covet @ Shinsaibashi Sunhall;2024-12-17T19:00:00;https://www.bandsintown.com/e/106023961-covet-at-shinsaibashi-sunhall?came_from=209;Covet;Japan;Osaka;Japan;542-0086;(34.67089550000001, 135.4984193)
Covet @ Live & Lounge Vio;2024-12-18T19:00:00;https://www.bandsintown.com/e/106023967-covet-at-live-and-lounge-vio?came_from=209;Covet;Japan;Nagoya;Japan;460-0007;(35.1693237, 136.9204545)
Covet @ Shibuya Chelsea Hotel;2024-12-19T19:00:00;https://www.bandsintown.com/e/106023975-covet-at-shibuya-chelsea-hotel?came_from=209;Covet;Japan;Shibuya City;4-7 Udagawachō;150-0042;(35.6625048, 139.6978734)
Pain of Salvation @ EX THEATER ROPPONGI;2024-11-26T19:00:00;https://www.bandsintown.com/e/105816592-pain-of-salvation-at-ex-theater-roppongi?came_from=209;Pain of Salvation;Japan;Minato City;1-chōme-2-9 Nishiazabu;106-0031;(35.6612634, 139.7272975)
Thou @ The Orange Peel;2025-01-18T14:00:00;https://www.bandsintown.com/e/1033303025-thou-at-the-orange-peel?came_from=209;Thou;United States;Asheville;101 Biltmore Ave;28801;(35.5914132, -82.55115269999999)
Thou @ Underground Arts;2025-02-07T18:30:00;https://www.bandsintown.com/e/1033386077-thou-at-underground-arts?came_from=209;Thou;United States;Philadelphia;1200 Callowhill St;19107;(39.9590922, -75.1587521)
Thou @ Scala;2025-04-15T19:30:00;https://www.bandsintown.com/e/1033528509-thou-at-scala?came_from=209;Thou;United Kingdom;London;276 Pentonville Rd;N1 9NL;(51.5307521, -0.1207215)
Mono @ Thalia Hall;2024-12-10T20:00:00;https://www.bandsintown.com/e/1033178915-mono-at-thalia-hall?came_from=209;Mono;United States;Chicago;1227 W 18th St;60608;(41.8577976, -87.6573556)
Mono @ Pioneer Works;2024-12-12T20:00:00;https://www.bandsintown.com/e/1033008823-mono-at-pioneer-works?came_from=209;Mono;United States;Brooklyn;159 Pioneer St;11231;(40.6792483, -74.012154)
Mono @ Wilshire Ebell Theatre;2024-12-14T20:00:00;https://www.bandsintown.com/e/1032929738-mono-at-wilshire-ebell-theatre?came_from=209;Mono;United States;Los Angeles;4401 W 8th St;90005;(34.0607557, -118.3249209)
Mono @ The Fonda Theatre;2025-03-05T20:30:00;https://www.bandsintown.com/e/1033038112-mono-at-the-fonda-theatre?came_from=209;Mono;United States;Los Angeles;6126 Hollywood Blvd;90028;(34.101486, -118.3232871)
Oranssi Pazuzu @ Concorde 2;2024-11-20T19:30:00;https://www.bandsintown.com/e/106126888-oranssi-pazuzu-at-concorde-2?came_from=209;Oranssi Pazuzu;United Kingdom;Brighton;Madeira Shelter Hall;BN21EN;(50.817784, -0.124704)
Oranssi Pazuzu @ Manchester Academy;2024-11-21T19:30:00;https://www.bandsintown.com/e/106126896-oranssi-pazuzu-at-manchester-academy?came_from=209;Oranssi Pazuzu;United Kingdom;Manchester;Oxford Rd;M13 9PR;(53.463697, -2.231457)
Oranssi Pazuzu @ Opium;2024-11-22T18:00:00;https://www.bandsintown.com/e/106126898-oranssi-pazuzu-at-opium?came_from=209;Oranssi Pazuzu;Ireland;Dublin;26 Wexford St;D02 HX93;(53.336693, -6.265716299999999)
Oranssi Pazuzu @ Queen Margaret Union;2024-11-23T19:00:00;https://www.bandsintown.com/e/106126903-oranssi-pazuzu-at-queen-margaret-union?came_from=209;Oranssi Pazuzu;United Kingdom;Glasgow;22 University Gardens;G12 8QN;(55.87359619999999, -4.2913955)
Oranssi Pazuzu @ O2 Academy Islington;2024-11-24T19:00:00;https://www.bandsintown.com/e/1031365571-oranssi-pazuzu-at-o2-academy-islington?came_from=209;Oranssi Pazuzu;United Kingdom;London;N1 Centre 16 Parkfield St;N1 0PS;(51.5343501, -0.1058837)
Oranssi Pazuzu @ Antipode;2024-11-27T20:00:00;https://www.bandsintown.com/e/1031368179-oranssi-pazuzu-at-antipode?came_from=209;Oranssi Pazuzu;France;Rennes;75 avenue Jules Maniez - Parvis Agnes Varda;35000;(48.11198, -1.67429)
Oranssi Pazuzu @ Le Metronum;2024-11-28T20:00:00;https://www.bandsintown.com/e/106126907-oranssi-pazuzu-at-le-metronum?came_from=209;Oranssi Pazuzu;France;Toulouse;2 Rond-Point Madame de Mondonville;31200;(43.6429443, 1.4580927)
Oranssi Pazuzu @ Sala TOTEM Aretoa;2024-11-29T19:00:00;https://www.bandsintown.com/e/106126875-oranssi-pazuzu-at-sala-totem-aretoa?came_from=209;Oranssi Pazuzu;Spain;Villava;Pol Ind Landazábal Calle 1, 10;31610;(42.83445589999999, -1.615646100000049)
Oranssi Pazuzu @ Sala Copérnico;2024-11-30T18:00:00;https://www.bandsintown.com/e/106126878-oranssi-pazuzu-at-sala-copernico?came_from=209;Oranssi Pazuzu;Spain;Madrid;Calle de Fernández de los Ríos;28015;(40.4352451, -3.7114198)
Oranssi Pazuzu @ Razzmatazz 2;2024-12-01T18:00:00;https://www.bandsintown.com/e/106126880-oranssi-pazuzu-at-razzmatazz-2?came_from=209;Oranssi Pazuzu;Spain;Barcelona;Carrer de Pamplona, 88;08018;(41.3972434, 2.1912593)
Oranssi Pazuzu @ Slaughter Club;2024-12-03T19:00:00;https://www.bandsintown.com/e/1031357465-oranssi-pazuzu-at-slaughter-club?came_from=209;Oranssi Pazuzu;Italy;Paderno Dugnano;Via Angelo Tagliabue;20037;(45.57560399999999, 9.151722999999997)
Oranssi Pazuzu @ Z7 Konzertfabrik;2024-12-04T19:00:00;https://www.bandsintown.com/e/1032256318-oranssi-pazuzu-at-z7-konzertfabrik?came_from=209;Oranssi Pazuzu;Switzerland;Pratteln;Kraftwerkstrasse 7;4133;(47.52729180000001, 7.694063799999999)
Oranssi Pazuzu @ Technikum;2024-12-05T20:00:00;https://www.bandsintown.com/e/106126913-oranssi-pazuzu-at-technikum?came_from=209;Oranssi Pazuzu;Germany;München;Speicherstraße 26;81671;(48.1234532, 11.6066841)
Oranssi Pazuzu @ Simm City;2024-12-06T20:00:00;https://www.bandsintown.com/e/106126921-oranssi-pazuzu-at-simm-city?came_from=209;Oranssi Pazuzu;Austria;Vienna;Simmeringer Hauptstraße 96a;1110;(48.1737542, 16.416332300000022)
Oranssi Pazuzu @ Proxima;2024-12-07T18:30:00;https://www.bandsintown.com/e/106126927-oranssi-pazuzu-at-proxima?came_from=209;Oranssi Pazuzu;Poland;Warsaw;Żwirki i Wigury 99A;02-089;(52.212567, 20.987187)
Oranssi Pazuzu @ Täubchenthal;2024-12-08T20:00:00;https://www.bandsintown.com/e/106126930-oranssi-pazuzu-at-taubchenthal?came_from=209;Oranssi Pazuzu;Germany;Leipzig;Wachsmuthstraße 1;04229;(51.324383, 12.330176)
Oranssi Pazuzu @ Metropol;2024-12-09T20:00:00;https://www.bandsintown.com/e/106126934-oranssi-pazuzu-at-metropol?came_from=209;Oranssi Pazuzu;Germany;Berlin;Nollendorfplatz 5;10777;(52.4989988, 13.3527268)
Oranssi Pazuzu @ Lutakko;2025-03-01T20:00:00;https://www.bandsintown.com/e/1033324491-oranssi-pazuzu-at-lutakko?came_from=209;Oranssi Pazuzu;Finland;Jyväskylä;Lutakonaukio 3;40100;(62.2426034, 25.7472567)
Oranssi Pazuzu @ Kollektivet Livet Bar & Scen;2025-05-11T18:30:00;https://www.bandsintown.com/e/1033297335-oranssi-pazuzu-at-kollektivet-livet-bar-and-scen?came_from=209;Oranssi Pazuzu;Sweden;Stockholm;Stadsgårdsterminalen;116 45;(59.3192713, 18.078035)
1349 @ Parkteatret Scene;2024-12-21T19:00:00;https://www.bandsintown.com/e/106056386-1349-at-parkteatret-scene?came_from=209;1349;Norway;Oslo;Olaf Ryes Plass 11;0552;(59.922426, 10.757458)
1349 @ Rockefeller Music Hall;2025-04-17T19:00:00;https://www.bandsintown.com/e/106064586-1349-at-rockefeller-music-hall?came_from=209;1349;Norway;Oslo;Torggata 16;0181;(59.9161219, 10.750232099999948)
1349 @ Scarborough Spa;2025-05-31T19:00:00;https://www.bandsintown.com/e/106073695-1349-at-scarborough-spa?came_from=209;1349;United Kingdom;Scarborough;South Bay;YO11 2HD;(54.275699, -0.397446)
1349 @ Wacken Open Air;2025-07-30T19:00:00;https://www.bandsintown.com/e/106101141-1349-at-wacken-open-air?came_from=209;1349;Germany;Wacken;Norderstraße;25596;(54.02078, 9.37597)
Textures @ Roppongi Hills;2024-11-26T19:00:00;https://www.bandsintown.com/e/105992310-textures-at-roppongi-hills?came_from=209;Textures;Japan;Minato City;6-chōme-10-1 Roppongi;106-6108;(35.6602384, 139.7300767)
Textures @ Centro Cultural Matucana 100;2025-03-15T19:00:00;https://www.bandsintown.com/e/105992305-textures-at-centro-cultural-matucana-100?came_from=209;Textures;Chile;Santiago;Matucana 100;;(-33.4448024, -70.67990540000001)
Textures @ Hangar 110 - Musica & Cultura;2025-03-16T19:00:00;https://www.bandsintown.com/e/106017311-textures-at-hangar-110-musica-and-cultura?came_from=209;Textures;Brazil;Sao Paulo;Rodolfo Miranda  110;01121-010;(-23.5256181, -46.6322756)
Textures @ Gashouder Maastricht;2025-06-07T19:00:00;https://www.bandsintown.com/e/105776637-textures-at-gashouder-maastricht?came_from=209;Textures;Netherlands;Maastricht;-14;6219 PD;(50.8569636, 5.6833075)
MonoNeon @ Melkweg;2024-11-21T19:30:00;https://www.bandsintown.com/e/1032310474-mononeon-at-melkweg?came_from=209;MonoNeon;Netherlands;Amsterdam;Lijnbaansgracht 234A;1017;(52.364786, 4.8812489)
MonoNeon @ TivoliVredenburg;2024-11-22T22:00:00;https://www.bandsintown.com/e/105694264-mononeon-at-tivolivredenburg?came_from=209;MonoNeon;Netherlands;Utrecht;Vredenburgkade 11;3511 WC;(52.0924298, 5.1128171)
MonoNeon @ EartH;2024-11-24T20:00:00;https://www.bandsintown.com/e/105613623-mononeon-at-earth?came_from=209;MonoNeon;United Kingdom;London;11-17 Stoke Newington Rd;N16 8BH;(51.5510139, -0.0754618)
MonoNeon @ Alhambra;2024-11-25T20:00:00;https://www.bandsintown.com/e/1032302636-mononeon-at-alhambra?came_from=209;MonoNeon;France;Paris;21 rue Yves Toudic;75010;(48.8706592, 2.3630725)
MonoNeon @ Club Bahnhof Ehrenfeld;2024-11-27T20:00:00;https://www.bandsintown.com/e/1032329941-mononeon-at-club-bahnhof-ehrenfeld?came_from=209;MonoNeon;Germany;Cologne;Bartholomäus-Schink-Straße 67;50825;(50.951817, 6.917097)
MonoNeon @ Parkteatret Scene;2024-11-29T20:00:00;https://www.bandsintown.com/e/1032310297-mononeon-at-parkteatret-scene?came_from=209;MonoNeon;Norway;Oslo;Olaf Ryes Plass 11;0552;(59.922426, 10.757458)
MonoNeon @ Kulttuuritehdas Korjaamo;2024-12-01T19:00:00;https://www.bandsintown.com/e/105696522-mononeon-at-kulttuuritehdas-korjaamo?came_from=209;MonoNeon;Finland;Helsinki;Töölönkatu 51b;00250;(60.18431, 24.92)
MonoNeon @ Debaser Hornstulls Strand;2024-12-03T18:30:00;https://www.bandsintown.com/e/105696543-mononeon-at-debaser-hornstulls-strand?came_from=209;MonoNeon;Sweden;Stockholm;Hornstulls Strand 4;117 39;(59.3144928, 18.032334)
MonoNeon @ Hotel Cecil;2024-12-04T20:00:00;https://www.bandsintown.com/e/1032311017-mononeon-at-hotel-cecil?came_from=209;MonoNeon;Denmark;København K;Niels Hemmingsens Gade 10;1009;(55.6794022, 12.577615700000024)
MonoNeon @ Knust;2024-12-05T21:00:00;https://www.bandsintown.com/e/1032302850-mononeon-at-knust?came_from=209;MonoNeon;Germany;Hamburg;Neuer Kamp 30;20357;(53.5580872, 9.9679346)
MonoNeon @ Gretchen;2024-12-06T19:30:00;https://www.bandsintown.com/e/105696556-mononeon-at-gretchen?came_from=209;MonoNeon;Germany;Berlin;Obentrautstrasse 19-21;10963;(52.4960025, 13.3876896)
MonoNeon @ Metro Music Bar;2024-12-07T20:00:00;https://www.bandsintown.com/e/1031919721-mononeon-at-metro-music-bar?came_from=209;MonoNeon;Czechia;Brno-město;Poštovská 6;602 00;(49.1947364, 16.6100911)
MonoNeon @ Hipnoza;2024-12-08T20:00:00;https://www.bandsintown.com/e/105696616-mononeon-at-hipnoza?came_from=209;MonoNeon;Poland;Katowice;plac Sejmu Śląskiego 2;40-040;(50.253001, 19.023184)
MonoNeon @ Klub Hybrydy;2024-12-10T20:00:00;https://www.bandsintown.com/e/105696619-mononeon-at-klub-hybrydy?came_from=209;MonoNeon;Poland;Warsaw;Złota 7/9;00-019;(52.2327124, 21.01169660000005)
MonoNeon @ Club Porgy & Bess;2024-12-12T20:30:00;https://www.bandsintown.com/e/105689359-mononeon-at-club-porgy-and-bess?came_from=209;MonoNeon;Austria;Vienna;Riemergasse 11;A-1010;(48.2068176, 16.376646)
MonoNeon @ A38 Hajó;2024-12-13T20:00:00;https://www.bandsintown.com/e/105696622-mononeon-at-a38-hajo?came_from=209;MonoNeon;Hungary;Budapest;Petôfi Híd;1117;(47.4765059, 19.062985400000002)
MonoNeon @ Republic Multifunctional Event Space;2024-12-15T20:00:00;https://www.bandsintown.com/e/105696601-mononeon-at-republic-multifunctional-event-space?came_from=209;MonoNeon;Georgia;თბილისი;6;;(41.7036787, 44.7919699)
MonoNeon @ Blue Note Jazz Club;2025-01-14T22:30:00;https://www.bandsintown.com/e/1033325354-mononeon-at-blue-note-jazz-club?came_from=209;MonoNeon;United States;New York;131 W 3rd St;10012;(40.7309083, -74.0006557)
MonoNeon @ Blue Note Jazz Club;2025-01-15T22:30:00;https://www.bandsintown.com/e/1033325775-mononeon-at-blue-note-jazz-club?came_from=209;MonoNeon;United States;New York;131 W 3rd St;10012;(40.7309083, -74.0006557)
MonoNeon @ Blue Note Jazz Club;2025-01-16T22:30:00;https://www.bandsintown.com/e/1033325570-mononeon-at-blue-note-jazz-club?came_from=209;MonoNeon;United States;New York;131 W 3rd St;10012;(40.7309083, -74.0006557)
MonoNeon @ Observatory;2025-01-23T18:00:00;https://www.bandsintown.com/e/1033437466-mononeon-at-observatory?came_from=209;MonoNeon;United States;Santa Ana;3503 S Harbor Blvd;92704;(33.699631, -117.9177051)
Rolo Tomassi @ Fernhill Farm;2025-08-13T11:00:00;https://www.bandsintown.com/e/1033149376-rolo-tomassi-at-fernhill-farm?came_from=209;Rolo Tomassi;United Kingdom;Bristol;Compton Martin;;(51.45523, -2.59665)
Tomahawk @ Las Vegas Festival Grounds;2025-04-12T11:00:00;https://www.bandsintown.com/e/1033274907-tomahawk-at-las-vegas-festival-grounds?came_from=209;Tomahawk;United States;Las Vegas;311 W Sahara Ave;89101;(36.1431237, -115.1621698)
The Aristocrats @ Rosemount Hotel;2025-02-24T19:00:00;https://www.bandsintown.com/e/105932824-the-aristocrats-at-rosemount-hotel?came_from=209;The Aristocrats;Australia;North Perth;459 Fitzgerald St;6006;(-31.9308913, 115.8590028)
The Aristocrats @ The Gov;2025-02-26T19:00:00;https://www.bandsintown.com/e/105932826-the-aristocrats-at-the-gov?came_from=209;The Aristocrats;Australia;Hindmarsh;59 Port Rd;5007;(-34.9069943, 138.5755659)
The Aristocrats @ The Princess Theatre;2025-02-28T19:00:00;https://www.bandsintown.com/e/105932828-the-aristocrats-at-the-princess-theatre?came_from=209;The Aristocrats;Australia;Woolloongabba;8 Annerley Rd;4102;(-27.4863722, 153.0292225)
The Aristocrats @ Max Watts Melbourne;2025-03-01T19:30:00;https://www.bandsintown.com/e/105932831-the-aristocrats-at-max-watts-melbourne?came_from=209;The Aristocrats;Australia;Melbourne;125 Swanston St;3000;(-37.8147268, 144.9659968)
The Aristocrats @ Manning Bar;2025-03-02T20:00:00;https://www.bandsintown.com/e/105932835-the-aristocrats-at-manning-bar?came_from=209;The Aristocrats;Australia;Camperdown;Manning Rd;2050;(-33.8868904, 151.1876221)
The Aristocrats @ BIGCAT;2025-03-10T19:00:00;https://www.bandsintown.com/e/106019499-the-aristocrats-at-bigcat?came_from=209;The Aristocrats;Japan;Osaka;Japan;542-0086;(34.6725144, 135.4988003)
The Aristocrats @ THE BOTTOM LINE;2025-03-11T19:00:00;https://www.bandsintown.com/e/106019503-the-aristocrats-at-the-bottom-line?came_from=209;The Aristocrats;Japan;Nagoya;Japan;464-0850;(35.1699572, 136.9385279)
The Aristocrats @ Club Citta;2025-03-12T19:00:00;https://www.bandsintown.com/e/106019506-the-aristocrats-at-club-citta?came_from=209;The Aristocrats;日本;川崎市;;210-0023;(35.52056, 139.71722)
The Aristocrats @ Cruise to the Edge;2025-04-04T19:00:00;https://www.bandsintown.com/e/105932838-the-aristocrats-at-cruise-to-the-edge?came_from=209;The Aristocrats;United States;Downtown Miami;;;(25.77172, -80.19354)
CHASSOL @ Ciné Cap Vert;2025-03-28T20:00:00;https://www.bandsintown.com/e/106044381-chassol-at-cine-cap-vert?came_from=209;CHASSOL;France;Quetigny;1 Rue du Cap Vert;21800;(47.3127182, 5.091352499999999)
CHASSOL @ Le Rocher de Palmer;2025-05-07T20:00:00;https://www.bandsintown.com/e/106044384-chassol-at-le-rocher-de-palmer?came_from=209;CHASSOL;France;Cenon;1 Rue Aristide Briand;33152;(44.861115, -0.52383)
CHASSOL @ Théâtre de Sartrouville;2025-05-17T20:30:00;https://www.bandsintown.com/e/106044375-chassol-at-theatre-de-sartrouville?came_from=209;CHASSOL;France;Sartrouville;Place Jacques Brel;78500;(48.940459, 2.193257999999999)
Maybeshewill @ Fuzz Club;2025-02-22T19:00:00;https://www.bandsintown.com/e/105309372-maybeshewill-at-fuzz-club?came_from=209;Maybeshewill;Greece;Tavros;Patriarchou Ioakim 1;177 78;(37.9679782, 23.698696)
Metz @ Toekomstmuziek;2024-11-20T19:00:00;https://www.bandsintown.com/e/105175744-metz-at-toekomstmuziek?came_from=209;Metz;Netherlands;Amsterdam;Danzigerbocht 29;1013 AM;(52.39670419999999, 4.8757164)
Metz @ Vera;2024-11-21T19:00:00;https://www.bandsintown.com/e/105175738-metz-at-vera?came_from=209;Metz;Netherlands;Groningen;Oosterstraat 44;9711;(53.21702579999999, 6.570106)
Metz @ Trix (Club);2024-11-22T19:00:00;https://www.bandsintown.com/e/105175732-metz-at-trix-(club)?came_from=209;Metz;Belgium;Antwerpen;Noordersingel 28-30;2140;(51.21989, 4.40346)
Metz @ L'Aéronef;2024-11-23T19:00:00;https://www.bandsintown.com/e/105175743-metz-at-l'aeronef?came_from=209;Metz;France;Lille;168 Avenue Willy Brandt;59777;(50.636646, 3.073427)
Metz @ Hare & Hounds;2024-11-25T19:00:00;https://www.bandsintown.com/e/105175730-metz-at-hare-and-hounds?came_from=209;Metz;United Kingdom;Birmingham;106 High St;B14 7JZ;(52.43785, -1.89266)
Metz @ Brudenell Social Club;2024-11-26T19:00:00;https://www.bandsintown.com/e/105175731-metz-at-brudenell-social-club?came_from=209;Metz;United Kingdom;Leeds;33 Queens Rd;LS6 1NY;(53.80986600000001, -1.570749)
Metz @ Future Yard CIC;2024-11-27T19:00:00;https://www.bandsintown.com/e/105175728-metz-at-future-yard-cic?came_from=209;Metz;United Kingdom;Birkenhead;75 Argyle St;CH41 6AB;(53.3913289, -3.0187096)
Metz @ Strange Brew;2024-11-28T19:00:00;https://www.bandsintown.com/e/105175726-metz-at-strange-brew?came_from=209;Metz;United Kingdom;Bristol;10-12 Fairfax St;BS1 3DB;(51.4563759, -2.5924486)
Metz @ EartH;2024-11-29T18:00:00;https://www.bandsintown.com/e/105175741-metz-at-earth?came_from=209;Metz;United Kingdom;London;11-17 Stoke Newington Rd;N16 8BH;(51.5510139, -0.0754618)
Neurosis @ The Underworld Camden;2025-06-14T18:00:00;https://www.bandsintown.com/e/1033471348-neurosis-at-the-underworld-camden?came_from=209;Neurosis;United Kingdom;London;174 Camden High St;NW1 0NE;(51.5391687, -0.14224850000005063)
Cynic @ EX THEATER ROPPONGI;2024-11-26T19:00:00;https://www.bandsintown.com/e/105785270-cynic-at-ex-theater-roppongi?came_from=209;Cynic;Japan;Minato City;1-chōme-2-9 Nishiazabu;106-0031;(35.6612634, 139.7272975)
Cynic @ La Machine du Moulin Rouge;2025-03-02T18:00:00;https://www.bandsintown.com/e/1033476800-cynic-at-la-machine-du-moulin-rouge?came_from=209;Cynic;France;Paris;90 boulevard de Clichy;75018;(48.884201, 2.3322401)
Cynic @ Slay Glasgow;2025-03-04T18:00:00;https://www.bandsintown.com/e/1033337668-cynic-at-slay-glasgow?came_from=209;Cynic;United Kingdom;Glasgow;24 Glassford St;G1 1UL;(55.8582067, -4.2488598)
Cynic @ The Fleece;2025-03-06T18:00:00;https://www.bandsintown.com/e/1033345438-cynic-at-the-fleece?came_from=209;Cynic;United Kingdom;Bristol;12 St Thomas St;BS1 6JJ;(51.4522295, -2.5894144)
Cynic @ Manchester Academy;2025-03-08T18:30:00;https://www.bandsintown.com/e/1033343564-cynic-at-manchester-academy?came_from=209;Cynic;United Kingdom;Manchester;Oxford Rd;M13 9PR;(53.463697, -2.231457)
Cynic @ Electric Ballroom;2025-03-09T17:00:00;https://www.bandsintown.com/e/1033335469-cynic-at-electric-ballroom?came_from=209;Cynic;United Kingdom;Camden;184 Camden High St;NW1 8QP;(51.5396911, -0.1430516)
Cynic @ XOYO Birmingham;2025-03-10T19:00:00;https://www.bandsintown.com/e/1033444388-cynic-at-xoyo-birmingham?came_from=209;Cynic;United Kingdom;Birmingham;Lower Trinity St;B9 4AG;(52.475038, -1.8809493)
Cynic @ Patronaat;2025-03-12T19:00:00;https://www.bandsintown.com/e/1033345751-cynic-at-patronaat?came_from=209;Cynic;Netherlands;Haarlem;Zijlsingel 2;2013;(52.3829259, 4.628714500000001)
Cynic @ Proxima;2025-03-21T18:45:00;https://www.bandsintown.com/e/1033345135-cynic-at-proxima?came_from=209;Cynic;Poland;Warsaw;Żwirki i Wigury 99A;02-089;(52.212567, 20.987187)
Cynic @ Z-Bau;2025-03-23T18:45:00;https://www.bandsintown.com/e/1033345290-cynic-at-z-bau?came_from=209;Cynic;Germany;Nürnberg;Frankenstraße 200;90461;(49.43056139999999, 11.09474)
Cynic @ Slaughter Club;2025-03-27T19:00:00;https://www.bandsintown.com/e/1033335394-cynic-at-slaughter-club?came_from=209;Cynic;Italy;Paderno Dugnano;Via Angelo Tagliabue;20037;(45.57560399999999, 9.151722999999997)
Mouse On The Keys @ EartH;2025-05-24T12:30:00;https://www.bandsintown.com/e/1033406589-mouse-on-the-keys-at-earth?came_from=209;Mouse On The Keys;United Kingdom;London;11-17 Stoke Newington Rd;N16 8BH;(51.5510139, -0.0754618)
Thy Catafalque @ Dürer Kert;2024-11-22T21:00:00;https://www.bandsintown.com/e/105877804-thy-catafalque-at-durer-kert?came_from=209;Thy Catafalque;Hungary;Budapest;Öböl u. 1.;1117;(47.459974, 19.0573121)
Thy Catafalque @ Dürer Kert;2024-11-23T19:00:00;https://www.bandsintown.com/e/105877806-thy-catafalque-at-durer-kert?came_from=209;Thy Catafalque;Hungary;Budapest;Öböl u. 1.;1117;(47.459974, 19.0573121)
Long Distance Calling @ Kulturzentrum dasHaus;2024-11-29T20:00:00;https://www.bandsintown.com/e/1032811265-long-distance-calling-at-kulturzentrum-dashaus?came_from=209;Long Distance Calling;Germany;Ludwigshafen Am Rhein;Bahnhofstraße 30;67059;(49.4820383, 8.442942200000061)
Long Distance Calling @ Böröm Pöm Pöm;2024-11-30T20:45:00;https://www.bandsintown.com/e/1032784635-long-distance-calling-at-borom-pom-pom?came_from=209;Long Distance Calling;Switzerland;Oberentfelden;Köllikerstrasse 32;5036;(47.352861, 8.041782999999999)
Ghost Bath @ The Sanctuary Detroit;2025-02-20T19:00:00;https://www.bandsintown.com/e/105881342-ghost-bath-at-the-sanctuary-detroit?came_from=209;Ghost Bath;United States;Hamtramck;2932 Caniff St;48212;(42.3999817, -83.0590481)
Ghost Bath @ Velvet Underground;2025-02-21T19:00:00;https://www.bandsintown.com/e/105881586-ghost-bath-at-velvet-underground?came_from=209;Ghost Bath;Canada;Toronto;508 Queen St W;M5V 2B3;(43.647796, -79.401321)
Ghost Bath @ Foufounes Électriques;2025-02-22T19:00:00;https://www.bandsintown.com/e/105881588-ghost-bath-at-foufounes-electriques?came_from=209;Ghost Bath;Canada;Montreal;87 Rue Ste-Catherine E;H2X 1K5;(45.51101269999999, -73.56319189999999)
Ghost Bath @ Brighton Music Hall;2025-02-23T19:00:00;https://www.bandsintown.com/e/105881596-ghost-bath-at-brighton-music-hall?came_from=209;Ghost Bath;United States;Allston;158 Brighton Ave;02134;(42.3527158, -71.1325832)
Ghost Bath @ Gramercy Theatre;2025-02-24T19:00:00;https://www.bandsintown.com/e/105881598-ghost-bath-at-gramercy-theatre?came_from=209;Ghost Bath;United States;New York;127 E 23rd St;11226;(40.7398753, -73.9849625)
Ghost Bath @ Baltimore Soundstage;2025-02-25T19:00:00;https://www.bandsintown.com/e/105881600-ghost-bath-at-baltimore-soundstage?came_from=209;Ghost Bath;United States;Baltimore;124 Market Pl;21202;(39.2876463, -76.60706859999999)
Ghost Bath @ Hangar 1819;2025-02-26T19:00:00;https://www.bandsintown.com/e/105881608-ghost-bath-at-hangar-1819?came_from=209;Ghost Bath;United States;Greensboro;1819 Spring Garden St;27403;(36.0635964, -79.82258519999999)
Ghost Bath @ The EARL;2025-02-27T19:00:00;https://www.bandsintown.com/e/105881612-ghost-bath-at-the-earl?came_from=209;Ghost Bath;United States;Atlanta;488 Flat Shoals Ave SE;30316;(33.7409772, -84.3459049)
Ghost Bath @ Conduit;2025-02-28T19:00:00;https://www.bandsintown.com/e/105881613-ghost-bath-at-conduit?came_from=209;Ghost Bath;United States;Winter Park;6700 Aloma Ave;32792;(28.6048195, -81.2987194)
Ghost Bath @ Handlebar;2025-03-01T19:00:00;https://www.bandsintown.com/e/105881615-ghost-bath-at-handlebar?came_from=209;Ghost Bath;United States;Pensacola;319 N Tarragona St;32501;(30.4178219, -87.213974)
Ghost Bath @ House of Blues Houston;2025-03-02T19:00:00;https://www.bandsintown.com/e/105881618-ghost-bath-at-house-of-blues-houston?came_from=209;Ghost Bath;United States;Houston;1204 Caroline St;77002;(29.753847, -95.363704)
Ghost Bath @ Come and Take It Live;2025-03-03T19:00:00;https://www.bandsintown.com/e/105881621-ghost-bath-at-come-and-take-it-live?came_from=209;Ghost Bath;United States;Austin;2015 E Riverside Dr Bldg 4;78741;(30.2408546, -97.7288765)
Ghost Bath @ Launchpad;2025-03-04T19:00:00;https://www.bandsintown.com/e/105881627-ghost-bath-at-launchpad?came_from=209;Ghost Bath;United States;Albuquerque;618 Central Ave SW;87102;(35.0846639, -106.6548552)
Ghost Bath @ The Rebel Lounge;2025-03-05T19:00:00;https://www.bandsintown.com/e/105881633-ghost-bath-at-the-rebel-lounge?came_from=209;Ghost Bath;United States;Phoenix;2303 E Indian School Road;85016;(33.494519, -112.0320698)
Ghost Bath @ Brick By Brick;2025-03-06T19:00:00;https://www.bandsintown.com/e/105881636-ghost-bath-at-brick-by-brick?came_from=209;Ghost Bath;United States;San Diego;1130 Buenos Ave;92110;(32.7686909, -117.2010847)
Ghost Bath @ Echoplex;2025-03-07T19:00:00;https://www.bandsintown.com/e/105881642-ghost-bath-at-echoplex?came_from=209;Ghost Bath;United States;Los Angeles;1154 Glendale Blvd;90026;(34.0776187, -118.2605272)
Ghost Bath @ Neck Of the Woods;2025-03-08T19:00:00;https://www.bandsintown.com/e/105881646-ghost-bath-at-neck-of-the-woods?came_from=209;Ghost Bath;United States;San Francisco;406 Clement St;94118;(37.7831236, -122.4637279)
Ghost Bath @ Bossanova Ballroom;2025-03-09T19:00:00;https://www.bandsintown.com/e/105881648-ghost-bath-at-bossanova-ballroom?came_from=209;Ghost Bath;United States;Portland;722 E Burnside St;97214;(45.5226976, -122.6582929)
Ghost Bath @ El Corazon;2025-03-10T19:00:00;https://www.bandsintown.com/e/105881649-ghost-bath-at-el-corazon?came_from=209;Ghost Bath;United States;Seattle;109 Eastlake Ave E;98109;(47.6187576, -122.32934)
Ghost Bath @ Metro Music Hall;2025-03-12T19:00:00;https://www.bandsintown.com/e/105881652-ghost-bath-at-metro-music-hall?came_from=209;Ghost Bath;United States;Salt Lake City;615 W 100 S;84101;(40.7669525, -111.9089641)
Ghost Bath @ Bluebird Theater;2025-03-13T19:00:00;https://www.bandsintown.com/e/105881653-ghost-bath-at-bluebird-theater?came_from=209;Ghost Bath;United States;Denver;3317 E Colfax Av;80206;(39.7403313, -104.9484849)
Ghost Bath @ Reverb Lounge;2025-03-14T19:00:00;https://www.bandsintown.com/e/105881659-ghost-bath-at-reverb-lounge?came_from=209;Ghost Bath;United States;Omaha;6121 Military Ave;68104;(41.2854398, -96.0086022)
Ghost Bath @ Reggies Rock Club;2025-03-15T19:00:00;https://www.bandsintown.com/e/105881663-ghost-bath-at-reggies-rock-club?came_from=209;Ghost Bath;United States;Chicago;2109 S State St;60616;(41.8538952, -87.62687900000003)
Ghost Bath @ Hendrix Bar;2025-05-03T17:00:00;https://www.bandsintown.com/e/105977531-ghost-bath-at-hendrix-bar?came_from=209;Ghost Bath;Mexico;Mexico City;Jardín Azpeitia;02530;(19.4688048, -99.1752669)
Ghost Bath @ Tolminator;2025-07-23T12:00:00;https://www.bandsintown.com/e/105852929-ghost-bath-at-tolminator?came_from=209;Ghost Bath;Slovenia;Tolmin;Dijaška ulica 18;5220;(46.1749267, 13.7375148)
Il teatro degli orrori @ VOX CLUB;2025-02-20T21:00:00;https://www.bandsintown.com/e/1033265969-il-teatro-degli-orrori-at-vox-club?came_from=209;Il teatro degli orrori;Italy;Nonantola;Viale Vittorio Veneto 13;41015;(44.67846420000001, 11.040093699999943)
Il teatro degli orrori @ Teatro Cartiere Carrara;2025-02-25T21:00:00;https://www.bandsintown.com/e/1033266936-il-teatro-degli-orrori-at-teatro-cartiere-carrara?came_from=209;Il teatro degli orrori;Italy;Firenze;via Fabrizio de André angolo;50136;(43.7665857, 11.2960141)
Il teatro degli orrori @ Estragon;2025-02-26T21:00:00;https://www.bandsintown.com/e/1033266618-il-teatro-degli-orrori-at-estragon?came_from=209;Il teatro degli orrori;Italy;Bologna;83 Via Stalingrado;40128;(44.52369, 11.3690083)
Il teatro degli orrori @ Teatro della concordia;2025-03-01T21:00:00;https://www.bandsintown.com/e/1033265876-il-teatro-degli-orrori-at-teatro-della-concordia?came_from=209;Il teatro degli orrori;Italy;Venaria Reale;Corso Puccini;10078;(45.1165845, 7.6249737)
Il teatro degli orrori @ Hall;2025-03-05T21:00:00;https://www.bandsintown.com/e/1033265959-il-teatro-degli-orrori-at-hall?came_from=209;Il teatro degli orrori;Italy;Padova;Via Nona Strada 11b;35100;(45.40797, 11.88586)
Il teatro degli orrori @ Atlantico;2025-03-12T21:00:00;https://www.bandsintown.com/e/1033266575-il-teatro-degli-orrori-at-atlantico?came_from=209;Il teatro degli orrori;Italy;Roma;Viale dell'Oceano Atlantico 271D;00144;(41.8174695, 12.4650974)
Il teatro degli orrori @ Casa Della Musica - Federico I - Napoli;2025-03-13T21:00:00;https://www.bandsintown.com/e/1033266888-il-teatro-degli-orrori-at-casa-della-musica-federico-i-napoli?came_from=209;Il teatro degli orrori;Italy;Napoli;Via Corrado Barbagallo 115;80125;(40.8208201, 14.17828129999998)
Il teatro degli orrori @ Eremo Club;2025-03-14T21:00:00;https://www.bandsintown.com/e/1033266407-il-teatro-degli-orrori-at-eremo-club?came_from=209;Il teatro degli orrori;Italy;Molfetta;S.P. Molfetta;70056;(41.1931295, 16.6292811)
Il teatro degli orrori @ Alcatraz;2025-03-18T21:00:00;https://www.bandsintown.com/e/1033266542-il-teatro-degli-orrori-at-alcatraz?came_from=209;Il teatro degli orrori;Italy;Milan;Via Valtellina 25;20159;(45.494689, 9.182657999999947)
Fantomas @ La Java;2024-12-13T19:30:00;https://www.bandsintown.com/e/1033350826-fantomas-at-la-java?came_from=209;Fantomas;France;Paris;105 Rue du Faubourg du Temple;75010;(48.87111549999999, 2.3738277)
TotorRo @ Le Ferrailleur;2024-11-23T20:30:00;https://www.bandsintown.com/e/1032896232-totorro-at-le-ferrailleur?came_from=209;TotorRo;France;Nantes;Quai des Antilles;44200;(47.2017591, -1.572146699999962)
TotorRo @ Petit Bain;2024-11-24T20:00:00;https://www.bandsintown.com/e/1033335467-totorro-at-petit-bain?came_from=209;TotorRo;France;Paris;7 Port de la Gare;75013;(48.8355263, 2.3767124)
TotorRo @ The Hare and Hounds;2025-05-21T19:30:00;https://www.bandsintown.com/e/1033406731-totorro-at-the-hare-and-hounds?came_from=209;TotorRo;United Kingdom;Birmingham;106 High St;B14 7JZ;(52.4346502, -1.8930023000000347)
TotorRo @ Wharf Chambers;2025-05-22T19:30:00;https://www.bandsintown.com/e/1033410561-totorro-at-wharf-chambers?came_from=209;TotorRo;United Kingdom;Leeds;23-25 Wharf St;LS2 7EQ;(53.7955, -1.538)
TotorRo @ Rough Trade Bristol;2025-05-23T19:30:00;https://www.bandsintown.com/e/1033406747-totorro-at-rough-trade-bristol?came_from=209;TotorRo;United Kingdom;Bristol;3 New Bridewell, Nelson St;BS1 2QD;(51.4566217, -2.5936367)
TotorRo @ EartH;2025-05-24T12:30:00;https://www.bandsintown.com/e/1033406606-totorro-at-earth?came_from=209;TotorRo;United Kingdom;London;11-17 Stoke Newington Rd;N16 8BH;(51.5510139, -0.0754618)
Shubh Saran @ Magnetic Field;2024-12-06T19:00:00;https://www.bandsintown.com/e/106085881-shubh-saran-at-magnetic-field?came_from=209;Shubh Saran;India;State Of Rājasthān;;;(26.58333, 73.83333)
Shubh Saran @ Embassy International Riding School;2024-12-07T19:00:00;https://www.bandsintown.com/e/106085887-shubh-saran-at-embassy-international-riding-school?came_from=209;Shubh Saran;India;Bengaluru;149/223;562157;(13.1737946, 77.59527849999999)
Shubh Saran @ Black Orchid Restobar;2024-12-11T20:00:00;https://www.bandsintown.com/e/106085879-shubh-saran-at-black-orchid-restobar?came_from=209;Shubh Saran;India;Chennai;105;600028;(13.027856, 80.25237109999999)
Shubh Saran @ antiSOCIAL;2024-12-12T20:00:00;https://www.bandsintown.com/e/106085875-shubh-saran-at-antisocial?came_from=209;Shubh Saran;India;Mumbai;242;400013;(18.9990674, 72.8298714)
Shubh Saran @ High Spirits Cafe;2024-12-13T20:00:00;https://www.bandsintown.com/e/106085876-shubh-saran-at-high-spirits-cafe?came_from=209;Shubh Saran;India;Pune;35A/1;411001;(18.5398086, 73.9049074)
Shubh Saran @ Racket NYC;2025-02-03T20:00:00;https://www.bandsintown.com/e/1033154928-shubh-saran-at-racket-nyc?came_from=209;Shubh Saran;United States;New York;431 W 16th St;10011;(40.74308690000001, -74.0057291)
Rendezvous Point @ Backstage By The Mill;2025-03-24T19:00:00;https://www.bandsintown.com/e/1033325199-rendezvous-point-at-backstage-by-the-mill?came_from=209;Rendezvous Point;France;Paris;92 Boulevard de Clichy;75018;(48.8842209, 2.3320056)
Rendezvous Point @ Colos-Saal;2025-03-25T20:00:00;https://www.bandsintown.com/e/1033331127-rendezvous-point-at-colos-saal?came_from=209;Rendezvous Point;Germany;Aschaffenburg;Rossmarkt 19;63739;(49.9759227, 9.149016500000016)
Rendezvous Point @ Poppodium Boerderij;2025-03-28T20:00:00;https://www.bandsintown.com/e/1033323470-rendezvous-point-at-poppodium-boerderij?came_from=209;Rendezvous Point;Netherlands;Zoetermeer;Amerikaweg 145;2717AV;(52.0633516, 4.4695219)
Monika Roscher Bigband @ Z-Bau;2024-11-30T20:00:00;https://www.bandsintown.com/e/104948455-monika-roscher-bigband-at-z-bau?came_from=209;Monika Roscher Bigband;Germany;Nürnberg;Frankenstraße 200;90461;(49.43056139999999, 11.09474)
Monika Roscher Bigband @ Jazz Club Regensburg e.V.;2024-12-26T20:00:00;https://www.bandsintown.com/e/106031143-monika-roscher-bigband-at-jazz-club-regensburg-e.v.?came_from=209;Monika Roscher Bigband;Germany;Regensburg;Bertoldstraße 9;93047;(49.01828, 12.10348)
Monika Roscher Bigband @ Kulturzentrum Pavillon;2024-12-27T20:00:00;https://www.bandsintown.com/e/1030444203-monika-roscher-bigband-at-kulturzentrum-pavillon?came_from=209;Monika Roscher Bigband;Germany;Hannover;Lister Meile 4;30161;(52.37052, 9.73322)
Monika Roscher Bigband @ Z-Bau;2025-11-22T20:00:00;https://www.bandsintown.com/e/106110826-monika-roscher-bigband-at-z-bau?came_from=209;Monika Roscher Bigband;Germany;Nürnberg;Frankenstraße 200;90461;(49.43056139999999, 11.09474)
Zeta @ Asbury Lanes;2025-03-13T19:00:00;https://www.bandsintown.com/e/105983322-zeta-at-asbury-lanes?came_from=209;Zeta;United States;Asbury Park;209 4th Ave;07712;(40.2232426, -74.00191940000002)
Zeta @ Music Hall of Williamsburg;2025-03-14T19:00:00;https://www.bandsintown.com/e/105983324-zeta-at-music-hall-of-williamsburg?came_from=209;Zeta;United States;Brooklyn;66 North 6th St;11211;(40.7191529, -73.96174719999999)
Zeta @ Paradise Rock Club;2025-03-15T19:00:00;https://www.bandsintown.com/e/105983328-zeta-at-paradise-rock-club?came_from=209;Zeta;United States;Boston;967 Commonwealth Ave;02215;(42.3521732, -71.11937560000001)
Sleepytime Gorilla Museum @ Lodge Room Highland Park;2025-01-24T19:30:00;https://www.bandsintown.com/e/1033341075-sleepytime-gorilla-museum-at-lodge-room-highland-park?came_from=209;Sleepytime Gorilla Museum;United States;Los Angeles;104 N Ave 56;90042;(34.1091167, -118.1945691)
Sleepytime Gorilla Museum @ The UC Theatre;2025-01-25T20:00:00;https://www.bandsintown.com/e/1033325234-sleepytime-gorilla-museum-at-the-uc-theatre?came_from=209;Sleepytime Gorilla Museum;United States;Berkeley;2036 University Ave;94704;(37.8718053, -122.2698086)
Sleepytime Gorilla Museum @ Fernhill Farm;2025-08-13T11:00:00;https://www.bandsintown.com/e/1033149586-sleepytime-gorilla-museum-at-fernhill-farm?came_from=209;Sleepytime Gorilla Museum;United Kingdom;Bristol;Compton Martin;;(51.45523, -2.59665)
Sandia @ היכל התרבות סביון;2024-11-30T15:00:00;https://www.bandsintown.com/e/106152787-sandia-at?came_from=209;Sandia;Israel;Savyon;Netiv HaYovel 1;;(32.0442472, 34.8769461)
Sandia @ Baba Yaga;2024-12-12T19:00:00;https://www.bandsintown.com/e/106152791-sandia-at-baba-yaga?came_from=209;Sandia;Israel;Tel Aviv-yafo;HaYarkon St 12;6801110;(32.0693125, 34.7646471)
Sandia @ M8-Liveclub;2025-05-17T19:30:00;https://www.bandsintown.com/e/106152810-sandia-at-m8-liveclub?came_from=209;Sandia;Germany;Mainz;Mitternachtsgasse 8;55116;(50.00369000000001, 8.271700000000001)
Zu @ Santeria Toscana 31;2025-01-17T21:00:00;https://www.bandsintown.com/e/1033394290-zu-at-santeria-toscana-31?came_from=209;Zu;Italy;Milano;Viale Toscana, 31;20136;(45.44562759999999, 9.188346899999942)
Zu @ The Factory;2025-01-18T21:00:00;https://www.bandsintown.com/e/1033243271-zu-at-the-factory?came_from=209;Zu;Italy;San Martino Buon Albergo;Viale del Lavoro 7,;37036;(45.4164678, 11.0952956)
Zu @ Palac Akropolis;2025-03-28T19:30:00;https://www.bandsintown.com/e/1033299993-zu-at-palac-akropolis?came_from=209;Zu;Czech Republic;Praha;Kubelíkova 1548/27;130 00;(50.082254, 14.448963000000049)
Valerian Swing @ Circolo Mattatoyo;2024-11-22T21:30:00;https://www.bandsintown.com/e/106014394-valerian-swing-at-circolo-mattatoyo?came_from=209;Valerian Swing;Italy;Carpi;Via Rodolfo Pio;41012;(44.78322189999999, 10.8871038)
Valerian Swing @ Circolo Barabini di Trasta;2024-11-23T21:30:00;https://www.bandsintown.com/e/106014451-valerian-swing-at-circolo-barabini-di-trasta?came_from=209;Valerian Swing;Italy;Cancello;Salita Ca' dei Trenta;16161;(44.4524425, 8.8911221)
Valerian Swing @ Monk Club;2024-12-19T21:00:00;https://www.bandsintown.com/e/106110360-valerian-swing-at-monk-club?came_from=209;Valerian Swing;Italy;Roma;Via Giuseppe Mirri 35;00159;(41.9039095, 12.5387439)
Valerian Swing @ Locomotiv Club;2024-12-20T21:00:00;https://www.bandsintown.com/e/106110384-valerian-swing-at-locomotiv-club?came_from=209;Valerian Swing;Italy;Bologna;Via San Sebastiano Serlio 25/2;40128;(44.5081055, 11.3523345)
Valerian Swing @ Circolo Magnolia;2024-12-21T21:00:00;https://www.bandsintown.com/e/106110396-valerian-swing-at-circolo-magnolia?came_from=209;Valerian Swing;Italy;Segrate;Via Circonvallazione Idroscalo 41;20090;(45.463623, 9.2860678)
